<?xml version="1.0" encoding="UTF-8"?>
<!-- track-length = 44862 filtered ascend = 234 plain-ascend = 1 cost=70046 energy=.2kwh time=2h 21m 21s -->
<gpx 
 xmlns="http://www.topografix.com/GPX/1/1" 
 xmlns:xsi="http://www.w3.org/2001/XMLSchema-instance" 
 xsi:schemaLocation="http://www.topografix.com/GPX/1/1 http://www.topografix.com/GPX/1/1/gpx.xsd" 
 creator="BRouter-1.7.10" version="1.1">
 <trk>
  <name>Forêt de Rambouillet</name>
  <trkseg>
   <trkpt lon="1.829506" lat="48.644447"><ele>160.0</ele></trkpt>
   <trkpt lon="1.829651" lat="48.644375"><ele>159.75</ele></trkpt>
   <trkpt lon="1.829839" lat="48.644282"><ele>159.75</ele></trkpt>
   <trkpt lon="1.829867" lat="48.644306"><ele>159.5</ele></trkpt>
   <trkpt lon="1.830223" lat="48.644125"><ele>158.75</ele></trkpt>
   <trkpt lon="1.830249" lat="48.644114"><ele>158.75</ele></trkpt>
   <trkpt lon="1.830362" lat="48.644095"><ele>158.75</ele></trkpt>
   <trkpt lon="1.830384" lat="48.644160"><ele>158.75</ele></trkpt>
   <trkpt lon="1.830479" lat="48.644142"><ele>158.75</ele></trkpt>
   <trkpt lon="1.830478" lat="48.644166"><ele>158.75</ele></trkpt>
   <trkpt lon="1.830518" lat="48.644277"><ele>159.25</ele></trkpt>
   <trkpt lon="1.830529" lat="48.644337"><ele>159.5</ele></trkpt>
   <trkpt lon="1.830540" lat="48.644388"><ele>159.75</ele></trkpt>
   <trkpt lon="1.830555" lat="48.644478"><ele>160.0</ele></trkpt>
   <trkpt lon="1.830554" lat="48.644554"><ele>160.0</ele></trkpt>
   <trkpt lon="1.830531" lat="48.644577"><ele>160.0</ele></trkpt>
   <trkpt lon="1.830532" lat="48.644591"><ele>160.0</ele></trkpt>
   <trkpt lon="1.830534" lat="48.644611"><ele>160.0</ele></trkpt>
   <trkpt lon="1.830547" lat="48.644791"><ele>160.0</ele></trkpt>
   <trkpt lon="1.830557" lat="48.644935"><ele>160.0</ele></trkpt>
   <trkpt lon="1.830583" lat="48.645366"><ele>160.0</ele></trkpt>
   <trkpt lon="1.830583" lat="48.645383"><ele>160.0</ele></trkpt>
   <trkpt lon="1.830584" lat="48.645472"><ele>160.0</ele></trkpt>
   <trkpt lon="1.830589" lat="48.645520"><ele>160.0</ele></trkpt>
   <trkpt lon="1.830589" lat="48.645537"><ele>160.0</ele></trkpt>
   <trkpt lon="1.830590" lat="48.645559"><ele>159.75</ele></trkpt>
   <trkpt lon="1.830613" lat="48.646265"><ele>158.25</ele></trkpt>
   <trkpt lon="1.830624" lat="48.646480"><ele>158.0</ele></trkpt>
   <trkpt lon="1.830626" lat="48.646506"><ele>158.0</ele></trkpt>
   <trkpt lon="1.830627" lat="48.646529"><ele>158.0</ele></trkpt>
   <trkpt lon="1.830631" lat="48.646604"><ele>158.0</ele></trkpt>
   <trkpt lon="1.830512" lat="48.646644"><ele>158.0</ele></trkpt>
   <trkpt lon="1.830459" lat="48.646675"><ele>158.25</ele></trkpt>
   <trkpt lon="1.830431" lat="48.646691"><ele>158.25</ele></trkpt>
   <trkpt lon="1.828897" lat="48.647526"><ele>159.75</ele></trkpt>
   <trkpt lon="1.828812" lat="48.647564"><ele>160.0</ele></trkpt>
   <trkpt lon="1.828721" lat="48.647616"><ele>160.0</ele></trkpt>
   <trkpt lon="1.827064" lat="48.648509"><ele>160.25</ele></trkpt>
   <trkpt lon="1.827039" lat="48.648523"><ele>160.25</ele></trkpt>
   <trkpt lon="1.826948" lat="48.648576"><ele>160.0</ele></trkpt>
   <trkpt lon="1.826875" lat="48.648616"><ele>160.25</ele></trkpt>
   <trkpt lon="1.826851" lat="48.648629"><ele>160.25</ele></trkpt>
   <trkpt lon="1.825305" lat="48.649458"><ele>160.75</ele></trkpt>
   <trkpt lon="1.825293" lat="48.649464"><ele>161.0</ele></trkpt>
   <trkpt lon="1.825269" lat="48.649477"><ele>161.0</ele></trkpt>
   <trkpt lon="1.825188" lat="48.649519"><ele>161.0</ele></trkpt>
   <trkpt lon="1.825105" lat="48.649566"><ele>161.25</ele></trkpt>
   <trkpt lon="1.825084" lat="48.649577"><ele>161.25</ele></trkpt>
   <trkpt lon="1.825064" lat="48.649588"><ele>161.25</ele></trkpt>
   <trkpt lon="1.824167" lat="48.650079"><ele>161.0</ele></trkpt>
   <trkpt lon="1.823691" lat="48.650337"><ele>160.75</ele></trkpt>
   <trkpt lon="1.822917" lat="48.650757"><ele>158.5</ele></trkpt>
   <trkpt lon="1.821973" lat="48.651266"><ele>151.75</ele></trkpt>
   <trkpt lon="1.821851" lat="48.651320"><ele>150.75</ele></trkpt>
   <trkpt lon="1.821765" lat="48.651350"><ele>150.25</ele></trkpt>
   <trkpt lon="1.821716" lat="48.651434"><ele>149.5</ele></trkpt>
   <trkpt lon="1.821731" lat="48.651536"><ele>148.75</ele></trkpt>
   <trkpt lon="1.821754" lat="48.651686"><ele>147.75</ele></trkpt>
   <trkpt lon="1.821725" lat="48.651801"><ele>147.5</ele></trkpt>
   <trkpt lon="1.821680" lat="48.651916"><ele>147.0</ele></trkpt>
   <trkpt lon="1.821623" lat="48.652013"><ele>146.75</ele></trkpt>
   <trkpt lon="1.821491" lat="48.652224"><ele>146.0</ele></trkpt>
   <trkpt lon="1.821439" lat="48.652307"><ele>146.25</ele></trkpt>
   <trkpt lon="1.821399" lat="48.652370"><ele>146.5</ele></trkpt>
   <trkpt lon="1.821040" lat="48.652936"><ele>147.25</ele></trkpt>
   <trkpt lon="1.820995" lat="48.653101"><ele>147.5</ele></trkpt>
   <trkpt lon="1.821001" lat="48.653119"><ele>147.5</ele></trkpt>
   <trkpt lon="1.820987" lat="48.653153"><ele>147.5</ele></trkpt>
   <trkpt lon="1.820944" lat="48.653175"><ele>147.75</ele></trkpt>
   <trkpt lon="1.820983" lat="48.653286"><ele>147.75</ele></trkpt>
   <trkpt lon="1.821072" lat="48.653478"><ele>148.0</ele></trkpt>
   <trkpt lon="1.821084" lat="48.653557"><ele>148.0</ele></trkpt>
   <trkpt lon="1.821069" lat="48.653907"><ele>148.0</ele></trkpt>
   <trkpt lon="1.821035" lat="48.654241"><ele>148.25</ele></trkpt>
   <trkpt lon="1.821036" lat="48.654472"><ele>149.0</ele></trkpt>
   <trkpt lon="1.821029" lat="48.654608"><ele>149.0</ele></trkpt>
   <trkpt lon="1.820964" lat="48.654675"><ele>149.0</ele></trkpt>
   <trkpt lon="1.820919" lat="48.654706"><ele>149.0</ele></trkpt>
   <trkpt lon="1.820952" lat="48.654828"><ele>149.0</ele></trkpt>
   <trkpt lon="1.821009" lat="48.655092"><ele>149.0</ele></trkpt>
   <trkpt lon="1.821041" lat="48.655556"><ele>149.25</ele></trkpt>
   <trkpt lon="1.821028" lat="48.655836"><ele>149.25</ele></trkpt>
   <trkpt lon="1.820988" lat="48.656325"><ele>150.25</ele></trkpt>
   <trkpt lon="1.820967" lat="48.656616"><ele>150.5</ele></trkpt>
   <trkpt lon="1.820979" lat="48.656733"><ele>150.5</ele></trkpt>
   <trkpt lon="1.821036" lat="48.656842"><ele>150.5</ele></trkpt>
   <trkpt lon="1.820884" lat="48.657032"><ele>151.0</ele></trkpt>
   <trkpt lon="1.820805" lat="48.657229"><ele>150.75</ele></trkpt>
   <trkpt lon="1.820705" lat="48.657705"><ele>151.25</ele></trkpt>
   <trkpt lon="1.820583" lat="48.658239"><ele>153.75</ele></trkpt>
   <trkpt lon="1.820448" lat="48.658779"><ele>155.25</ele></trkpt>
   <trkpt lon="1.820370" lat="48.658938"><ele>156.25</ele></trkpt>
   <trkpt lon="1.820278" lat="48.659070"><ele>157.25</ele></trkpt>
   <trkpt lon="1.820158" lat="48.659192"><ele>158.0</ele></trkpt>
   <trkpt lon="1.820020" lat="48.659314"><ele>159.0</ele></trkpt>
   <trkpt lon="1.819847" lat="48.659421"><ele>160.25</ele></trkpt>
   <trkpt lon="1.815803" lat="48.661134"><ele>168.75</ele></trkpt>
   <trkpt lon="1.815691" lat="48.661181"><ele>168.5</ele></trkpt>
   <trkpt lon="1.814251" lat="48.661843"><ele>169.0</ele></trkpt>
   <trkpt lon="1.813682" lat="48.662087"><ele>169.0</ele></trkpt>
   <trkpt lon="1.808632" lat="48.664279"><ele>168.0</ele></trkpt>
   <trkpt lon="1.804130" lat="48.666232"><ele>167.0</ele></trkpt>
   <trkpt lon="1.802560" lat="48.666872"><ele>165.25</ele></trkpt>
   <trkpt lon="1.801910" lat="48.667206"><ele>161.75</ele></trkpt>
   <trkpt lon="1.799825" lat="48.668498"><ele>154.25</ele></trkpt>
   <trkpt lon="1.799441" lat="48.668731"><ele>153.75</ele></trkpt>
   <trkpt lon="1.797384" lat="48.670017"><ele>150.0</ele></trkpt>
   <trkpt lon="1.796629" lat="48.670490"><ele>150.5</ele></trkpt>
   <trkpt lon="1.793370" lat="48.672715"><ele>152.0</ele></trkpt>
   <trkpt lon="1.792804" lat="48.673099"><ele>150.0</ele></trkpt>
   <trkpt lon="1.790252" lat="48.674820"><ele>149.25</ele></trkpt>
   <trkpt lon="1.787159" lat="48.676796"><ele>150.25</ele></trkpt>
   <trkpt lon="1.786739" lat="48.677058"><ele>150.25</ele></trkpt>
   <trkpt lon="1.785692" lat="48.677724"><ele>151.25</ele></trkpt>
   <trkpt lon="1.784713" lat="48.678346"><ele>149.75</ele></trkpt>
   <trkpt lon="1.784570" lat="48.678438"><ele>149.5</ele></trkpt>
   <trkpt lon="1.784542" lat="48.678397"><ele>149.25</ele></trkpt>
   <trkpt lon="1.784429" lat="48.678290"><ele>148.75</ele></trkpt>
   <trkpt lon="1.784232" lat="48.678266"><ele>148.0</ele></trkpt>
   <trkpt lon="1.783871" lat="48.678231"><ele>147.5</ele></trkpt>
   <trkpt lon="1.781009" lat="48.677920"><ele>147.0</ele></trkpt>
   <trkpt lon="1.780064" lat="48.677829"><ele>145.25</ele></trkpt>
   <trkpt lon="1.779587" lat="48.677800"><ele>146.0</ele></trkpt>
   <trkpt lon="1.779158" lat="48.677803"><ele>147.0</ele></trkpt>
   <trkpt lon="1.777875" lat="48.677857"><ele>148.0</ele></trkpt>
   <trkpt lon="1.777125" lat="48.677897"><ele>149.0</ele></trkpt>
   <trkpt lon="1.776484" lat="48.677921"><ele>148.25</ele></trkpt>
   <trkpt lon="1.776199" lat="48.677919"><ele>146.75</ele></trkpt>
   <trkpt lon="1.775982" lat="48.677895"><ele>146.0</ele></trkpt>
   <trkpt lon="1.775775" lat="48.677858"><ele>145.75</ele></trkpt>
   <trkpt lon="1.774555" lat="48.677505"><ele>144.75</ele></trkpt>
   <trkpt lon="1.774129" lat="48.677384"><ele>143.5</ele></trkpt>
   <trkpt lon="1.772694" lat="48.676978"><ele>145.75</ele></trkpt>
   <trkpt lon="1.770613" lat="48.676376"><ele>149.0</ele></trkpt>
   <trkpt lon="1.770244" lat="48.676299"><ele>149.0</ele></trkpt>
   <trkpt lon="1.769905" lat="48.676271"><ele>148.25</ele></trkpt>
   <trkpt lon="1.769487" lat="48.676283"><ele>145.75</ele></trkpt>
   <trkpt lon="1.766101" lat="48.676597"><ele>150.0</ele></trkpt>
   <trkpt lon="1.765329" lat="48.676657"><ele>150.0</ele></trkpt>
   <trkpt lon="1.764955" lat="48.676664"><ele>151.0</ele></trkpt>
   <trkpt lon="1.764711" lat="48.676668"><ele>151.0</ele></trkpt>
   <trkpt lon="1.764713" lat="48.676699"><ele>151.0</ele></trkpt>
   <trkpt lon="1.764694" lat="48.676727"><ele>151.0</ele></trkpt>
   <trkpt lon="1.764657" lat="48.676745"><ele>151.0</ele></trkpt>
   <trkpt lon="1.764611" lat="48.676750"><ele>151.25</ele></trkpt>
   <trkpt lon="1.764567" lat="48.676740"><ele>151.5</ele></trkpt>
   <trkpt lon="1.764535" lat="48.676718"><ele>151.5</ele></trkpt>
   <trkpt lon="1.764523" lat="48.676682"><ele>151.5</ele></trkpt>
   <trkpt lon="1.764543" lat="48.676648"><ele>151.5</ele></trkpt>
   <trkpt lon="1.764428" lat="48.676630"><ele>152.0</ele></trkpt>
   <trkpt lon="1.763947" lat="48.676605"><ele>152.75</ele></trkpt>
   <trkpt lon="1.763337" lat="48.676540"><ele>153.75</ele></trkpt>
   <trkpt lon="1.762545" lat="48.676462"><ele>154.25</ele></trkpt>
   <trkpt lon="1.761665" lat="48.676488"><ele>152.25</ele></trkpt>
   <trkpt lon="1.760386" lat="48.676468"><ele>151.0</ele></trkpt>
   <trkpt lon="1.759081" lat="48.676488"><ele>154.25</ele></trkpt>
   <trkpt lon="1.759101" lat="48.676382"><ele>154.25</ele></trkpt>
   <trkpt lon="1.759162" lat="48.675884"><ele>155.0</ele></trkpt>
   <trkpt lon="1.759161" lat="48.675638"><ele>155.0</ele></trkpt>
   <trkpt lon="1.759101" lat="48.675329"><ele>156.0</ele></trkpt>
   <trkpt lon="1.759137" lat="48.675111"><ele>156.5</ele></trkpt>
   <trkpt lon="1.759194" lat="48.674867"><ele>157.25</ele></trkpt>
   <trkpt lon="1.759416" lat="48.674129"><ele>160.25</ele></trkpt>
   <trkpt lon="1.759424" lat="48.674071"><ele>160.5</ele></trkpt>
   <trkpt lon="1.759407" lat="48.673992"><ele>161.25</ele></trkpt>
   <trkpt lon="1.759710" lat="48.673856"><ele>161.25</ele></trkpt>
   <trkpt lon="1.760017" lat="48.673628"><ele>161.75</ele></trkpt>
   <trkpt lon="1.760360" lat="48.673150"><ele>163.25</ele></trkpt>
   <trkpt lon="1.760498" lat="48.672638"><ele>164.0</ele></trkpt>
   <trkpt lon="1.760682" lat="48.672141"><ele>164.25</ele></trkpt>
   <trkpt lon="1.761292" lat="48.670979"><ele>165.5</ele></trkpt>
   <trkpt lon="1.762152" lat="48.670011"><ele>166.75</ele></trkpt>
   <trkpt lon="1.761583" lat="48.669066"><ele>169.0</ele></trkpt>
   <trkpt lon="1.758789" lat="48.669560"><ele>170.0</ele></trkpt>
   <trkpt lon="1.756022" lat="48.670579"><ele>169.5</ele></trkpt>
   <trkpt lon="1.758789" lat="48.669560"><ele>170.0</ele></trkpt>
   <trkpt lon="1.761583" lat="48.669066"><ele>169.0</ele></trkpt>
   <trkpt lon="1.762152" lat="48.670011"><ele>166.75</ele></trkpt>
   <trkpt lon="1.761292" lat="48.670979"><ele>165.5</ele></trkpt>
   <trkpt lon="1.760682" lat="48.672141"><ele>164.25</ele></trkpt>
   <trkpt lon="1.760498" lat="48.672638"><ele>164.0</ele></trkpt>
   <trkpt lon="1.760360" lat="48.673150"><ele>163.25</ele></trkpt>
   <trkpt lon="1.760017" lat="48.673628"><ele>161.75</ele></trkpt>
   <trkpt lon="1.759710" lat="48.673856"><ele>161.25</ele></trkpt>
   <trkpt lon="1.759407" lat="48.673992"><ele>161.25</ele></trkpt>
   <trkpt lon="1.759424" lat="48.674071"><ele>160.5</ele></trkpt>
   <trkpt lon="1.759416" lat="48.674129"><ele>160.25</ele></trkpt>
   <trkpt lon="1.759194" lat="48.674867"><ele>157.25</ele></trkpt>
   <trkpt lon="1.759137" lat="48.675111"><ele>156.5</ele></trkpt>
   <trkpt lon="1.759101" lat="48.675329"><ele>156.0</ele></trkpt>
   <trkpt lon="1.759161" lat="48.675638"><ele>155.0</ele></trkpt>
   <trkpt lon="1.759162" lat="48.675884"><ele>155.0</ele></trkpt>
   <trkpt lon="1.759101" lat="48.676382"><ele>154.25</ele></trkpt>
   <trkpt lon="1.759081" lat="48.676488"><ele>154.25</ele></trkpt>
   <trkpt lon="1.759139" lat="48.676539"><ele>154.0</ele></trkpt>
   <trkpt lon="1.759317" lat="48.676697"><ele>153.75</ele></trkpt>
   <trkpt lon="1.759971" lat="48.677346"><ele>149.5</ele></trkpt>
   <trkpt lon="1.760301" lat="48.677800"><ele>145.75</ele></trkpt>
   <trkpt lon="1.760361" lat="48.677955"><ele>145.25</ele></trkpt>
   <trkpt lon="1.760369" lat="48.678054"><ele>145.0</ele></trkpt>
   <trkpt lon="1.760389" lat="48.678061"><ele>144.75</ele></trkpt>
   <trkpt lon="1.760415" lat="48.678086"><ele>144.75</ele></trkpt>
   <trkpt lon="1.760412" lat="48.678116"><ele>144.75</ele></trkpt>
   <trkpt lon="1.760382" lat="48.678139"><ele>144.5</ele></trkpt>
   <trkpt lon="1.760361" lat="48.678144"><ele>144.5</ele></trkpt>
   <trkpt lon="1.760316" lat="48.678140"><ele>144.5</ele></trkpt>
   <trkpt lon="1.760243" lat="48.678198"><ele>144.25</ele></trkpt>
   <trkpt lon="1.759929" lat="48.678416"><ele>143.75</ele></trkpt>
   <trkpt lon="1.759479" lat="48.678764"><ele>143.75</ele></trkpt>
   <trkpt lon="1.759237" lat="48.679056"><ele>142.25</ele></trkpt>
   <trkpt lon="1.758828" lat="48.679507"><ele>142.75</ele></trkpt>
   <trkpt lon="1.758728" lat="48.679621"><ele>142.75</ele></trkpt>
   <trkpt lon="1.758361" lat="48.680001"><ele>142.75</ele></trkpt>
   <trkpt lon="1.758152" lat="48.680134"><ele>143.0</ele></trkpt>
   <trkpt lon="1.758182" lat="48.680245"><ele>143.0</ele></trkpt>
   <trkpt lon="1.758178" lat="48.680471"><ele>143.25</ele></trkpt>
   <trkpt lon="1.758201" lat="48.680573"><ele>143.5</ele></trkpt>
   <trkpt lon="1.758339" lat="48.681189"><ele>144.25</ele></trkpt>
   <trkpt lon="1.758470" lat="48.681627"><ele>145.25</ele></trkpt>
   <trkpt lon="1.758555" lat="48.681853"><ele>145.5</ele></trkpt>
   <trkpt lon="1.758852" lat="48.682031"><ele>145.0</ele></trkpt>
   <trkpt lon="1.760272" lat="48.682787"><ele>145.0</ele></trkpt>
   <trkpt lon="1.761988" lat="48.683713"><ele>144.0</ele></trkpt>
   <trkpt lon="1.762400" lat="48.683940"><ele>145.0</ele></trkpt>
   <trkpt lon="1.762659" lat="48.684098"><ele>145.0</ele></trkpt>
   <trkpt lon="1.762831" lat="48.684212"><ele>145.0</ele></trkpt>
   <trkpt lon="1.763074" lat="48.684373"><ele>146.0</ele></trkpt>
   <trkpt lon="1.764412" lat="48.685201"><ele>148.75</ele></trkpt>
   <trkpt lon="1.765280" lat="48.685754"><ele>151.0</ele></trkpt>
   <trkpt lon="1.765436" lat="48.685862"><ele>151.0</ele></trkpt>
   <trkpt lon="1.765672" lat="48.686064"><ele>151.75</ele></trkpt>
   <trkpt lon="1.765903" lat="48.686297"><ele>152.5</ele></trkpt>
   <trkpt lon="1.766008" lat="48.686464"><ele>152.5</ele></trkpt>
   <trkpt lon="1.766370" lat="48.686952"><ele>152.0</ele></trkpt>
   <trkpt lon="1.766527" lat="48.687120"><ele>152.0</ele></trkpt>
   <trkpt lon="1.766694" lat="48.687331"><ele>151.75</ele></trkpt>
   <trkpt lon="1.766891" lat="48.687569"><ele>152.0</ele></trkpt>
   <trkpt lon="1.767440" lat="48.688237"><ele>152.5</ele></trkpt>
   <trkpt lon="1.768019" lat="48.688850"><ele>153.75</ele></trkpt>
   <trkpt lon="1.768150" lat="48.689018"><ele>154.25</ele></trkpt>
   <trkpt lon="1.768273" lat="48.689290"><ele>155.0</ele></trkpt>
   <trkpt lon="1.768379" lat="48.689530"><ele>155.25</ele></trkpt>
   <trkpt lon="1.768466" lat="48.689878"><ele>155.75</ele></trkpt>
   <trkpt lon="1.768661" lat="48.690454"><ele>157.5</ele></trkpt>
   <trkpt lon="1.768735" lat="48.690687"><ele>158.0</ele></trkpt>
   <trkpt lon="1.768754" lat="48.690735"><ele>158.0</ele></trkpt>
   <trkpt lon="1.768869" lat="48.691128"><ele>158.0</ele></trkpt>
   <trkpt lon="1.768988" lat="48.691437"><ele>158.5</ele></trkpt>
   <trkpt lon="1.769182" lat="48.691785"><ele>157.75</ele></trkpt>
   <trkpt lon="1.769334" lat="48.692004"><ele>158.0</ele></trkpt>
   <trkpt lon="1.769824" lat="48.692660"><ele>160.5</ele></trkpt>
   <trkpt lon="1.770232" lat="48.693236"><ele>163.5</ele></trkpt>
   <trkpt lon="1.770516" lat="48.693619"><ele>165.0</ele></trkpt>
   <trkpt lon="1.770657" lat="48.693802"><ele>166.0</ele></trkpt>
   <trkpt lon="1.770711" lat="48.693820"><ele>166.0</ele></trkpt>
   <trkpt lon="1.770825" lat="48.694840"><ele>169.25</ele></trkpt>
   <trkpt lon="1.770838" lat="48.694924"><ele>169.5</ele></trkpt>
   <trkpt lon="1.770881" lat="48.695298"><ele>171.0</ele></trkpt>
   <trkpt lon="1.770924" lat="48.695858"><ele>173.0</ele></trkpt>
   <trkpt lon="1.770886" lat="48.696186"><ele>174.0</ele></trkpt>
   <trkpt lon="1.770850" lat="48.696439"><ele>174.75</ele></trkpt>
   <trkpt lon="1.770767" lat="48.696823"><ele>174.75</ele></trkpt>
   <trkpt lon="1.770567" lat="48.697869"><ele>176.0</ele></trkpt>
   <trkpt lon="1.770516" lat="48.698181"><ele>176.0</ele></trkpt>
   <trkpt lon="1.770074" lat="48.700445"><ele>177.0</ele></trkpt>
   <trkpt lon="1.769983" lat="48.700946"><ele>176.75</ele></trkpt>
   <trkpt lon="1.769871" lat="48.701474"><ele>176.5</ele></trkpt>
   <trkpt lon="1.769603" lat="48.702910"><ele>176.75</ele></trkpt>
   <trkpt lon="1.769568" lat="48.703167"><ele>177.0</ele></trkpt>
   <trkpt lon="1.769573" lat="48.703365"><ele>177.0</ele></trkpt>
   <trkpt lon="1.769619" lat="48.703678"><ele>176.75</ele></trkpt>
   <trkpt lon="1.769702" lat="48.704029"><ele>176.25</ele></trkpt>
   <trkpt lon="1.769846" lat="48.704620"><ele>176.0</ele></trkpt>
   <trkpt lon="1.770013" lat="48.705238"><ele>175.75</ele></trkpt>
   <trkpt lon="1.770332" lat="48.706542"><ele>174.75</ele></trkpt>
   <trkpt lon="1.770443" lat="48.707045"><ele>174.0</ele></trkpt>
   <trkpt lon="1.770463" lat="48.707293"><ele>173.75</ele></trkpt>
   <trkpt lon="1.770420" lat="48.707610"><ele>173.25</ele></trkpt>
   <trkpt lon="1.770142" lat="48.709387"><ele>168.5</ele></trkpt>
   <trkpt lon="1.769756" lat="48.711726"><ele>163.75</ele></trkpt>
   <trkpt lon="1.769485" lat="48.713384"><ele>159.0</ele></trkpt>
   <trkpt lon="1.769343" lat="48.714167"><ele>157.75</ele></trkpt>
   <trkpt lon="1.769214" lat="48.714953"><ele>156.0</ele></trkpt>
   <trkpt lon="1.769207" lat="48.714994"><ele>156.0</ele></trkpt>
   <trkpt lon="1.769182" lat="48.715138"><ele>155.5</ele></trkpt>
   <trkpt lon="1.769161" lat="48.715319"><ele>154.75</ele></trkpt>
   <trkpt lon="1.769076" lat="48.715762"><ele>154.0</ele></trkpt>
   <trkpt lon="1.769059" lat="48.715872"><ele>153.75</ele></trkpt>
   <trkpt lon="1.769044" lat="48.715961"><ele>153.5</ele></trkpt>
   <trkpt lon="1.769035" lat="48.716029"><ele>153.25</ele></trkpt>
   <trkpt lon="1.768938" lat="48.716677"><ele>152.25</ele></trkpt>
   <trkpt lon="1.768557" lat="48.718890"><ele>146.25</ele></trkpt>
   <trkpt lon="1.768452" lat="48.719556"><ele>143.75</ele></trkpt>
   <trkpt lon="1.768452" lat="48.719686"><ele>143.5</ele></trkpt>
   <trkpt lon="1.768514" lat="48.719683"><ele>143.5</ele></trkpt>
   <trkpt lon="1.768574" lat="48.719694"><ele>143.75</ele></trkpt>
   <trkpt lon="1.768624" lat="48.719718"><ele>144.0</ele></trkpt>
   <trkpt lon="1.768660" lat="48.719752"><ele>143.75</ele></trkpt>
   <trkpt lon="1.768675" lat="48.719784"><ele>143.75</ele></trkpt>
   <trkpt lon="1.768675" lat="48.719818"><ele>143.5</ele></trkpt>
   <trkpt lon="1.768661" lat="48.719851"><ele>143.5</ele></trkpt>
   <trkpt lon="1.768604" lat="48.719899"><ele>143.25</ele></trkpt>
   <trkpt lon="1.768547" lat="48.719917"><ele>143.0</ele></trkpt>
   <trkpt lon="1.768495" lat="48.719922"><ele>143.0</ele></trkpt>
   <trkpt lon="1.768444" lat="48.719917"><ele>143.0</ele></trkpt>
   <trkpt lon="1.768396" lat="48.719903"><ele>143.0</ele></trkpt>
   <trkpt lon="1.768357" lat="48.719880"><ele>143.0</ele></trkpt>
   <trkpt lon="1.768150" lat="48.719979"><ele>143.0</ele></trkpt>
   <trkpt lon="1.767740" lat="48.720174"><ele>142.0</ele></trkpt>
   <trkpt lon="1.766779" lat="48.720679"><ele>141.5</ele></trkpt>
   <trkpt lon="1.766636" lat="48.720753"><ele>141.25</ele></trkpt>
   <trkpt lon="1.766571" lat="48.720790"><ele>141.0</ele></trkpt>
   <trkpt lon="1.766589" lat="48.720935"><ele>140.5</ele></trkpt>
   <trkpt lon="1.766626" lat="48.721090"><ele>140.0</ele></trkpt>
   <trkpt lon="1.766639" lat="48.721145"><ele>140.0</ele></trkpt>
   <trkpt lon="1.766766" lat="48.721410"><ele>139.5</ele></trkpt>
   <trkpt lon="1.766883" lat="48.721586"><ele>139.0</ele></trkpt>
   <trkpt lon="1.767097" lat="48.721919"><ele>138.5</ele></trkpt>
   <trkpt lon="1.767133" lat="48.721997"><ele>138.25</ele></trkpt>
   <trkpt lon="1.767146" lat="48.722101"><ele>138.0</ele></trkpt>
   <trkpt lon="1.767100" lat="48.722630"><ele>138.0</ele></trkpt>
   <trkpt lon="1.767078" lat="48.722684"><ele>138.0</ele></trkpt>
   <trkpt lon="1.767054" lat="48.722711"><ele>138.0</ele></trkpt>
   <trkpt lon="1.766981" lat="48.722739"><ele>138.0</ele></trkpt>
   <trkpt lon="1.766871" lat="48.722762"><ele>137.75</ele></trkpt>
   <trkpt lon="1.766748" lat="48.722713"><ele>137.25</ele></trkpt>
   <trkpt lon="1.766709" lat="48.722698"><ele>137.25</ele></trkpt>
   <trkpt lon="1.766670" lat="48.722682"><ele>137.25</ele></trkpt>
   <trkpt lon="1.766643" lat="48.722671"><ele>137.25</ele></trkpt>
   <trkpt lon="1.765718" lat="48.722279"><ele>137.75</ele></trkpt>
   <trkpt lon="1.765697" lat="48.722270"><ele>137.75</ele></trkpt>
   <trkpt lon="1.764917" lat="48.721944"><ele>139.0</ele></trkpt>
   <trkpt lon="1.764834" lat="48.721904"><ele>139.25</ele></trkpt>
   <trkpt lon="1.764833" lat="48.721766"><ele>140.25</ele></trkpt>
   <trkpt lon="1.764837" lat="48.721688"><ele>140.75</ele></trkpt>
   <trkpt lon="1.764848" lat="48.721461"><ele>141.5</ele></trkpt>
   <trkpt lon="1.764805" lat="48.721186"><ele>142.5</ele></trkpt>
   <trkpt lon="1.764690" lat="48.720884"><ele>145.5</ele></trkpt>
   <trkpt lon="1.764564" lat="48.720552"><ele>145.5</ele></trkpt>
   <trkpt lon="1.764434" lat="48.720166"><ele>146.75</ele></trkpt>
   <trkpt lon="1.764357" lat="48.719981"><ele>148.25</ele></trkpt>
   <trkpt lon="1.764303" lat="48.719874"><ele>148.5</ele></trkpt>
   <trkpt lon="1.764109" lat="48.719576"><ele>150.25</ele></trkpt>
   <trkpt lon="1.763750" lat="48.719086"><ele>154.5</ele></trkpt>
   <trkpt lon="1.763601" lat="48.718900"><ele>155.0</ele></trkpt>
   <trkpt lon="1.763299" lat="48.718524"><ele>155.0</ele></trkpt>
   <trkpt lon="1.763262" lat="48.718478"><ele>155.25</ele></trkpt>
   <trkpt lon="1.763195" lat="48.718328"><ele>155.5</ele></trkpt>
   <trkpt lon="1.763175" lat="48.718328"><ele>155.5</ele></trkpt>
   <trkpt lon="1.763156" lat="48.718325"><ele>155.5</ele></trkpt>
   <trkpt lon="1.763128" lat="48.718308"><ele>155.75</ele></trkpt>
   <trkpt lon="1.763121" lat="48.718296"><ele>155.75</ele></trkpt>
   <trkpt lon="1.763125" lat="48.718271"><ele>155.75</ele></trkpt>
   <trkpt lon="1.763134" lat="48.718260"><ele>155.75</ele></trkpt>
   <trkpt lon="1.763165" lat="48.718247"><ele>155.5</ele></trkpt>
   <trkpt lon="1.763183" lat="48.718245"><ele>155.5</ele></trkpt>
   <trkpt lon="1.763218" lat="48.718252"><ele>155.5</ele></trkpt>
   <trkpt lon="1.763579" lat="48.718170"><ele>155.0</ele></trkpt>
   <trkpt lon="1.763811" lat="48.718236"><ele>153.75</ele></trkpt>
   <trkpt lon="1.764005" lat="48.718302"><ele>152.25</ele></trkpt>
   <trkpt lon="1.764197" lat="48.718326"><ele>150.75</ele></trkpt>
   <trkpt lon="1.764752" lat="48.718519"><ele>149.0</ele></trkpt>
   <trkpt lon="1.765037" lat="48.718669"><ele>148.25</ele></trkpt>
   <trkpt lon="1.765251" lat="48.718830"><ele>147.5</ele></trkpt>
   <trkpt lon="1.765446" lat="48.719024"><ele>146.75</ele></trkpt>
   <trkpt lon="1.766090" lat="48.719600"><ele>144.25</ele></trkpt>
   <trkpt lon="1.766227" lat="48.719811"><ele>143.5</ele></trkpt>
   <trkpt lon="1.766349" lat="48.719968"><ele>143.0</ele></trkpt>
   <trkpt lon="1.766518" lat="48.720499"><ele>142.0</ele></trkpt>
   <trkpt lon="1.766609" lat="48.720693"><ele>141.5</ele></trkpt>
   <trkpt lon="1.766636" lat="48.720753"><ele>141.25</ele></trkpt>
   <trkpt lon="1.766571" lat="48.720790"><ele>141.0</ele></trkpt>
   <trkpt lon="1.766589" lat="48.720935"><ele>140.5</ele></trkpt>
   <trkpt lon="1.766626" lat="48.721090"><ele>140.0</ele></trkpt>
   <trkpt lon="1.766639" lat="48.721145"><ele>140.0</ele></trkpt>
   <trkpt lon="1.766766" lat="48.721410"><ele>139.5</ele></trkpt>
   <trkpt lon="1.766883" lat="48.721586"><ele>139.0</ele></trkpt>
   <trkpt lon="1.767097" lat="48.721919"><ele>138.5</ele></trkpt>
   <trkpt lon="1.767133" lat="48.721997"><ele>138.25</ele></trkpt>
   <trkpt lon="1.767146" lat="48.722101"><ele>138.0</ele></trkpt>
   <trkpt lon="1.767100" lat="48.722630"><ele>138.0</ele></trkpt>
   <trkpt lon="1.767078" lat="48.722684"><ele>138.0</ele></trkpt>
   <trkpt lon="1.767054" lat="48.722711"><ele>138.0</ele></trkpt>
   <trkpt lon="1.767067" lat="48.722907"><ele>138.0</ele></trkpt>
   <trkpt lon="1.767015" lat="48.723495"><ele>140.0</ele></trkpt>
   <trkpt lon="1.766879" lat="48.723785"><ele>142.0</ele></trkpt>
   <trkpt lon="1.766558" lat="48.724382"><ele>145.25</ele></trkpt>
   <trkpt lon="1.766477" lat="48.724583"><ele>147.25</ele></trkpt>
   <trkpt lon="1.766451" lat="48.724613"><ele>147.25</ele></trkpt>
   <trkpt lon="1.766362" lat="48.724702"><ele>147.75</ele></trkpt>
   <trkpt lon="1.765202" lat="48.725155"><ele>154.25</ele></trkpt>
   <trkpt lon="1.764781" lat="48.725314"><ele>155.5</ele></trkpt>
   <trkpt lon="1.764488" lat="48.725446"><ele>156.25</ele></trkpt>
   <trkpt lon="1.764308" lat="48.725625"><ele>156.75</ele></trkpt>
   <trkpt lon="1.764219" lat="48.725809"><ele>158.5</ele></trkpt>
   <trkpt lon="1.764194" lat="48.726036"><ele>160.0</ele></trkpt>
   <trkpt lon="1.764280" lat="48.726221"><ele>161.25</ele></trkpt>
   <trkpt lon="1.764486" lat="48.726424"><ele>162.0</ele></trkpt>
   <trkpt lon="1.764912" lat="48.726648"><ele>163.75</ele></trkpt>
   <trkpt lon="1.765615" lat="48.726829"><ele>170.75</ele></trkpt>
   <trkpt lon="1.765881" lat="48.726974"><ele>170.5</ele></trkpt>
   <trkpt lon="1.766090" lat="48.727138"><ele>171.25</ele></trkpt>
   <trkpt lon="1.766570" lat="48.727643"><ele>171.5</ele></trkpt>
   <trkpt lon="1.766917" lat="48.728045"><ele>171.75</ele></trkpt>
   <trkpt lon="1.767050" lat="48.728228"><ele>172.25</ele></trkpt>
   <trkpt lon="1.767181" lat="48.728502"><ele>172.5</ele></trkpt>
   <trkpt lon="1.767983" lat="48.730168"><ele>176.0</ele></trkpt>
   <trkpt lon="1.768172" lat="48.730559"><ele>177.0</ele></trkpt>
   <trkpt lon="1.769103" lat="48.732492"><ele>178.0</ele></trkpt>
   <trkpt lon="1.769358" lat="48.732867"><ele>178.25</ele></trkpt>
   <trkpt lon="1.769748" lat="48.733254"><ele>178.75</ele></trkpt>
   <trkpt lon="1.770010" lat="48.733448"><ele>178.0</ele></trkpt>
   <trkpt lon="1.770310" lat="48.733607"><ele>178.75</ele></trkpt>
   <trkpt lon="1.770745" lat="48.733802"><ele>178.0</ele></trkpt>
   <trkpt lon="1.774887" lat="48.735613"><ele>171.75</ele></trkpt>
   <trkpt lon="1.775022" lat="48.735672"><ele>171.0</ele></trkpt>
   <trkpt lon="1.777108" lat="48.736569"><ele>162.5</ele></trkpt>
   <trkpt lon="1.777378" lat="48.736707"><ele>161.0</ele></trkpt>
   <trkpt lon="1.777470" lat="48.736795"><ele>160.0</ele></trkpt>
   <trkpt lon="1.777599" lat="48.736956"><ele>158.75</ele></trkpt>
   <trkpt lon="1.777645" lat="48.737045"><ele>158.25</ele></trkpt>
   <trkpt lon="1.777668" lat="48.737125"><ele>157.5</ele></trkpt>
   <trkpt lon="1.777677" lat="48.737210"><ele>157.0</ele></trkpt>
   <trkpt lon="1.777668" lat="48.737304"><ele>156.75</ele></trkpt>
   <trkpt lon="1.777611" lat="48.737486"><ele>156.25</ele></trkpt>
   <trkpt lon="1.777556" lat="48.737579"><ele>156.75</ele></trkpt>
   <trkpt lon="1.777479" lat="48.737679"><ele>157.75</ele></trkpt>
   <trkpt lon="1.777422" lat="48.737740"><ele>158.25</ele></trkpt>
   <trkpt lon="1.777306" lat="48.737823"><ele>159.0</ele></trkpt>
   <trkpt lon="1.777082" lat="48.737938"><ele>160.25</ele></trkpt>
   <trkpt lon="1.776742" lat="48.738070"><ele>161.25</ele></trkpt>
   <trkpt lon="1.776445" lat="48.738203"><ele>161.5</ele></trkpt>
   <trkpt lon="1.776288" lat="48.738300"><ele>162.5</ele></trkpt>
   <trkpt lon="1.776183" lat="48.738385"><ele>163.0</ele></trkpt>
   <trkpt lon="1.776107" lat="48.738460"><ele>163.25</ele></trkpt>
   <trkpt lon="1.776048" lat="48.738533"><ele>163.75</ele></trkpt>
   <trkpt lon="1.776025" lat="48.738584"><ele>164.25</ele></trkpt>
   <trkpt lon="1.775992" lat="48.738788"><ele>165.5</ele></trkpt>
   <trkpt lon="1.776017" lat="48.739004"><ele>166.0</ele></trkpt>
   <trkpt lon="1.776165" lat="48.739237"><ele>166.5</ele></trkpt>
   <trkpt lon="1.776688" lat="48.739648"><ele>168.0</ele></trkpt>
   <trkpt lon="1.776901" lat="48.739816"><ele>169.25</ele></trkpt>
   <trkpt lon="1.777093" lat="48.740008"><ele>170.5</ele></trkpt>
   <trkpt lon="1.777247" lat="48.740226"><ele>171.75</ele></trkpt>
   <trkpt lon="1.777402" lat="48.740555"><ele>173.5</ele></trkpt>
   <trkpt lon="1.777557" lat="48.740767"><ele>174.75</ele></trkpt>
   <trkpt lon="1.777725" lat="48.740936"><ele>174.5</ele></trkpt>
   <trkpt lon="1.778332" lat="48.741452"><ele>176.75</ele></trkpt>
   <trkpt lon="1.778579" lat="48.741696"><ele>178.5</ele></trkpt>
   <trkpt lon="1.778755" lat="48.741913"><ele>180.75</ele></trkpt>
   <trkpt lon="1.778931" lat="48.742221"><ele>182.0</ele></trkpt>
   <trkpt lon="1.779055" lat="48.742495"><ele>182.5</ele></trkpt>
   <trkpt lon="1.779253" lat="48.743624"><ele>182.75</ele></trkpt>
   <trkpt lon="1.779354" lat="48.744582"><ele>181.0</ele></trkpt>
   <trkpt lon="1.779386" lat="48.745112"><ele>181.25</ele></trkpt>
   <trkpt lon="1.779361" lat="48.745432"><ele>181.5</ele></trkpt>
   <trkpt lon="1.779284" lat="48.745799"><ele>181.25</ele></trkpt>
   <trkpt lon="1.778502" lat="48.747743"><ele>181.0</ele></trkpt>
   <trkpt lon="1.778412" lat="48.748163"><ele>180.5</ele></trkpt>
   <trkpt lon="1.778287" lat="48.750519"><ele>181.0</ele></trkpt>
   <trkpt lon="1.778275" lat="48.750615"><ele>181.0</ele></trkpt>
   <trkpt lon="1.778251" lat="48.750981"><ele>180.25</ele></trkpt>
   <trkpt lon="1.778232" lat="48.751273"><ele>178.5</ele></trkpt>
   <trkpt lon="1.778178" lat="48.751850"><ele>176.75</ele></trkpt>
   <trkpt lon="1.778144" lat="48.752459"><ele>179.75</ele></trkpt>
   <trkpt lon="1.777282" lat="48.755625"><ele>183.0</ele></trkpt>
   <trkpt lon="1.777068" lat="48.757902"><ele>183.0</ele></trkpt>
   <trkpt lon="1.777000" lat="48.758623"><ele>183.0</ele></trkpt>
   <trkpt lon="1.776833" lat="48.760399"><ele>183.0</ele></trkpt>
   <trkpt lon="1.776811" lat="48.760894"><ele>183.0</ele></trkpt>
   <trkpt lon="1.776910" lat="48.761375"><ele>183.0</ele></trkpt>
   <trkpt lon="1.777151" lat="48.761820"><ele>183.0</ele></trkpt>
   <trkpt lon="1.777339" lat="48.762091"><ele>183.0</ele></trkpt>
   <trkpt lon="1.777661" lat="48.762432"><ele>183.0</ele></trkpt>
   <trkpt lon="1.779019" lat="48.763631"><ele>183.0</ele></trkpt>
   <trkpt lon="1.781495" lat="48.765826"><ele>183.0</ele></trkpt>
   <trkpt lon="1.781786" lat="48.766201"><ele>183.0</ele></trkpt>
   <trkpt lon="1.783056" lat="48.767777"><ele>181.75</ele></trkpt>
   <trkpt lon="1.783944" lat="48.768560"><ele>181.5</ele></trkpt>
   <trkpt lon="1.784912" lat="48.769470"><ele>179.75</ele></trkpt>
   <trkpt lon="1.786491" lat="48.771001"><ele>176.25</ele></trkpt>
   <trkpt lon="1.786625" lat="48.771094"><ele>176.0</ele></trkpt>
   <trkpt lon="1.786901" lat="48.771277"><ele>176.0</ele></trkpt>
   <trkpt lon="1.787445" lat="48.771644"><ele>176.0</ele></trkpt>
   <trkpt lon="1.787710" lat="48.771822"><ele>176.0</ele></trkpt>
   <trkpt lon="1.788947" lat="48.772655"><ele>174.25</ele></trkpt>
   <trkpt lon="1.790382" lat="48.773622"><ele>173.0</ele></trkpt>
   <trkpt lon="1.791008" lat="48.774044"><ele>173.0</ele></trkpt>
   <trkpt lon="1.791190" lat="48.774162"><ele>172.5</ele></trkpt>
   <trkpt lon="1.792233" lat="48.774843"><ele>171.75</ele></trkpt>
   <trkpt lon="1.792762" lat="48.775180"><ele>172.5</ele></trkpt>
   <trkpt lon="1.793418" lat="48.775567"><ele>173.0</ele></trkpt>
   <trkpt lon="1.794183" lat="48.775984"><ele>174.5</ele></trkpt>
   <trkpt lon="1.794500" lat="48.776148"><ele>175.0</ele></trkpt>
   <trkpt lon="1.795625" lat="48.776658"><ele>177.5</ele></trkpt>
   <trkpt lon="1.796150" lat="48.776855"><ele>177.5</ele></trkpt>
   <trkpt lon="1.797242" lat="48.777191"><ele>179.5</ele></trkpt>
   <trkpt lon="1.797502" lat="48.777269"><ele>180.0</ele></trkpt>
   <trkpt lon="1.797684" lat="48.777321"><ele>180.0</ele></trkpt>
   <trkpt lon="1.798641" lat="48.777609"><ele>180.0</ele></trkpt>
   <trkpt lon="1.798754" lat="48.777643"><ele>180.0</ele></trkpt>
   <trkpt lon="1.798892" lat="48.777685"><ele>180.0</ele></trkpt>
   <trkpt lon="1.799071" lat="48.777739"><ele>180.0</ele></trkpt>
   <trkpt lon="1.799213" lat="48.777780"><ele>180.0</ele></trkpt>
   <trkpt lon="1.799306" lat="48.777809"><ele>180.0</ele></trkpt>
   <trkpt lon="1.799378" lat="48.777779"><ele>180.0</ele></trkpt>
   <trkpt lon="1.799480" lat="48.777735"><ele>179.75</ele></trkpt>
   <trkpt lon="1.800678" lat="48.777230"><ele>174.75</ele></trkpt>
   <trkpt lon="1.801905" lat="48.776732"><ele>170.25</ele></trkpt>
   <trkpt lon="1.802389" lat="48.776601"><ele>168.25</ele></trkpt>
   <trkpt lon="1.802864" lat="48.776495"><ele>166.5</ele></trkpt>
   <trkpt lon="1.802904" lat="48.776485"><ele>166.25</ele></trkpt>
   <trkpt lon="1.803585" lat="48.776318"><ele>163.5</ele></trkpt>
   <trkpt lon="1.803796" lat="48.776236"><ele>162.75</ele></trkpt>
   <trkpt lon="1.804116" lat="48.776131"><ele>162.75</ele></trkpt>
   <trkpt lon="1.804384" lat="48.776073"><ele>162.25</ele></trkpt>
   <trkpt lon="1.804666" lat="48.776048"><ele>162.0</ele></trkpt>
   <trkpt lon="1.804879" lat="48.776052"><ele>162.0</ele></trkpt>
   <trkpt lon="1.805125" lat="48.776099"><ele>161.75</ele></trkpt>
   <trkpt lon="1.805249" lat="48.776148"><ele>161.0</ele></trkpt>
   <trkpt lon="1.805387" lat="48.776232"><ele>159.25</ele></trkpt>
   <trkpt lon="1.805508" lat="48.776337"><ele>157.0</ele></trkpt>
   <trkpt lon="1.805608" lat="48.776488"><ele>155.25</ele></trkpt>
   <trkpt lon="1.805653" lat="48.776694"><ele>154.5</ele></trkpt>
   <trkpt lon="1.805663" lat="48.776868"><ele>152.5</ele></trkpt>
   <trkpt lon="1.805661" lat="48.776887"><ele>152.25</ele></trkpt>
   <trkpt lon="1.806042" lat="48.776848"><ele>149.25</ele></trkpt>
   <trkpt lon="1.806567" lat="48.776791"><ele>145.5</ele></trkpt>
   <trkpt lon="1.806583" lat="48.776789"><ele>145.25</ele></trkpt>
   <trkpt lon="1.806959" lat="48.776765"><ele>143.75</ele></trkpt>
   <trkpt lon="1.807424" lat="48.776747"><ele>141.75</ele></trkpt>
   <trkpt lon="1.807508" lat="48.776832"><ele>141.5</ele></trkpt>
   <trkpt lon="1.807532" lat="48.776837"><ele>141.25</ele></trkpt>
   <trkpt lon="1.808219" lat="48.776779"><ele>138.0</ele></trkpt>
   <trkpt lon="1.808499" lat="48.776771"><ele>136.75</ele></trkpt>
   <trkpt lon="1.808853" lat="48.776694"><ele>135.75</ele></trkpt>
   <trkpt lon="1.809655" lat="48.776538"><ele>130.25</ele></trkpt>
   <trkpt lon="1.810006" lat="48.776454"><ele>128.0</ele></trkpt>
   <trkpt lon="1.810135" lat="48.776432"><ele>127.25</ele></trkpt>
   <trkpt lon="1.810383" lat="48.776430"><ele>125.75</ele></trkpt>
   <trkpt lon="1.810372" lat="48.776455"><ele>126.0</ele></trkpt>
   <trkpt lon="1.810358" lat="48.776488"><ele>126.25</ele></trkpt>
   <trkpt lon="1.810421" lat="48.776635"><ele>127.25</ele></trkpt>
   <trkpt lon="1.810605" lat="48.776767"><ele>127.0</ele></trkpt>
   <trkpt lon="1.810836" lat="48.776856"><ele>126.5</ele></trkpt>
   <trkpt lon="1.810846" lat="48.776866"><ele>126.5</ele></trkpt>
   <trkpt lon="1.810890" lat="48.776853"><ele>126.25</ele></trkpt>
   <trkpt lon="1.810846" lat="48.776866"><ele>126.5</ele></trkpt>
   <trkpt lon="1.810836" lat="48.776856"><ele>126.5</ele></trkpt>
   <trkpt lon="1.810605" lat="48.776767"><ele>127.0</ele></trkpt>
   <trkpt lon="1.810421" lat="48.776635"><ele>127.25</ele></trkpt>
   <trkpt lon="1.810358" lat="48.776488"><ele>126.25</ele></trkpt>
   <trkpt lon="1.810372" lat="48.776455"><ele>126.0</ele></trkpt>
   <trkpt lon="1.810383" lat="48.776430"><ele>125.75</ele></trkpt>
   <trkpt lon="1.810422" lat="48.776358"><ele>125.25</ele></trkpt>
   <trkpt lon="1.810710" lat="48.776118"><ele>124.25</ele></trkpt>
   <trkpt lon="1.811177" lat="48.775640"><ele>123.5</ele></trkpt>
   <trkpt lon="1.811243" lat="48.775613"><ele>123.75</ele></trkpt>
   <trkpt lon="1.811402" lat="48.775547"><ele>124.0</ele></trkpt>
   <trkpt lon="1.811158" lat="48.775389"><ele>125.0</ele></trkpt>
   <trkpt lon="1.811051" lat="48.775303"><ele>125.75</ele></trkpt>
   <trkpt lon="1.810891" lat="48.775114"><ele>126.5</ele></trkpt>
   <trkpt lon="1.810808" lat="48.775007"><ele>126.75</ele></trkpt>
   <trkpt lon="1.810604" lat="48.774758"><ele>128.5</ele></trkpt>
   <trkpt lon="1.810577" lat="48.774664"><ele>129.0</ele></trkpt>
   <trkpt lon="1.810572" lat="48.774588"><ele>129.25</ele></trkpt>
   <trkpt lon="1.810571" lat="48.774566"><ele>129.5</ele></trkpt>
   <trkpt lon="1.810569" lat="48.774536"><ele>129.5</ele></trkpt>
   <trkpt lon="1.810807" lat="48.774502"><ele>129.5</ele></trkpt>
   <trkpt lon="1.810933" lat="48.774458"><ele>129.5</ele></trkpt>
   <trkpt lon="1.811043" lat="48.774399"><ele>129.25</ele></trkpt>
   <trkpt lon="1.811412" lat="48.774141"><ele>129.75</ele></trkpt>
   <trkpt lon="1.811483" lat="48.774082"><ele>129.75</ele></trkpt>
   <trkpt lon="1.811557" lat="48.774024"><ele>129.5</ele></trkpt>
   <trkpt lon="1.811610" lat="48.774015"><ele>129.5</ele></trkpt>
   <trkpt lon="1.811586" lat="48.773940"><ele>129.75</ele></trkpt>
   <trkpt lon="1.811617" lat="48.773834"><ele>130.0</ele></trkpt>
   <trkpt lon="1.811747" lat="48.773707"><ele>130.5</ele></trkpt>
   <trkpt lon="1.812679" lat="48.772791"><ele>134.25</ele></trkpt>
   <trkpt lon="1.812863" lat="48.772634"><ele>134.5</ele></trkpt>
   <trkpt lon="1.813070" lat="48.772482"><ele>134.0</ele></trkpt>
   <trkpt lon="1.813116" lat="48.772457"><ele>134.0</ele></trkpt>
   <trkpt lon="1.813291" lat="48.772387"><ele>134.0</ele></trkpt>
   <trkpt lon="1.813518" lat="48.772291"><ele>134.0</ele></trkpt>
   <trkpt lon="1.813782" lat="48.772209"><ele>133.25</ele></trkpt>
   <trkpt lon="1.814033" lat="48.772139"><ele>132.5</ele></trkpt>
   <trkpt lon="1.814241" lat="48.772096"><ele>131.75</ele></trkpt>
   <trkpt lon="1.814478" lat="48.772051"><ele>131.0</ele></trkpt>
   <trkpt lon="1.815260" lat="48.771952"><ele>130.0</ele></trkpt>
   <trkpt lon="1.815598" lat="48.771869"><ele>130.0</ele></trkpt>
   <trkpt lon="1.815943" lat="48.771727"><ele>129.0</ele></trkpt>
   <trkpt lon="1.816013" lat="48.771693"><ele>128.5</ele></trkpt>
   <trkpt lon="1.816127" lat="48.771637"><ele>128.25</ele></trkpt>
   <trkpt lon="1.816287" lat="48.771548"><ele>128.5</ele></trkpt>
   <trkpt lon="1.816335" lat="48.771521"><ele>128.5</ele></trkpt>
   <trkpt lon="1.816938" lat="48.771183"><ele>127.75</ele></trkpt>
   <trkpt lon="1.817983" lat="48.770618"><ele>128.0</ele></trkpt>
   <trkpt lon="1.819918" lat="48.769279"><ele>132.25</ele></trkpt>
   <trkpt lon="1.820222" lat="48.769016"><ele>132.5</ele></trkpt>
   <trkpt lon="1.821024" lat="48.768265"><ele>132.75</ele></trkpt>
   <trkpt lon="1.821278" lat="48.768097"><ele>131.5</ele></trkpt>
   <trkpt lon="1.821568" lat="48.767953"><ele>130.75</ele></trkpt>
   <trkpt lon="1.822566" lat="48.767661"><ele>127.5</ele></trkpt>
   <trkpt lon="1.822956" lat="48.767522"><ele>126.25</ele></trkpt>
   <trkpt lon="1.823238" lat="48.767335"><ele>125.75</ele></trkpt>
   <trkpt lon="1.823498" lat="48.767019"><ele>125.0</ele></trkpt>
   <trkpt lon="1.823640" lat="48.766577"><ele>124.75</ele></trkpt>
   <trkpt lon="1.823676" lat="48.766340"><ele>124.5</ele></trkpt>
   <trkpt lon="1.823722" lat="48.766017"><ele>124.5</ele></trkpt>
   <trkpt lon="1.823864" lat="48.765694"><ele>125.0</ele></trkpt>
   <trkpt lon="1.824156" lat="48.765259"><ele>125.0</ele></trkpt>
   <trkpt lon="1.824514" lat="48.764705"><ele>125.75</ele></trkpt>
   <trkpt lon="1.824932" lat="48.763882"><ele>126.0</ele></trkpt>
   <trkpt lon="1.825027" lat="48.763758"><ele>125.75</ele></trkpt>
   <trkpt lon="1.825161" lat="48.763671"><ele>125.25</ele></trkpt>
   <trkpt lon="1.825250" lat="48.763634"><ele>125.0</ele></trkpt>
   <trkpt lon="1.825250" lat="48.763577"><ele>125.25</ele></trkpt>
   <trkpt lon="1.825511" lat="48.763294"><ele>126.5</ele></trkpt>
   <trkpt lon="1.825651" lat="48.762474"><ele>128.5</ele></trkpt>
   <trkpt lon="1.825812" lat="48.761257"><ele>130.5</ele></trkpt>
   <trkpt lon="1.825829" lat="48.760378"><ele>130.25</ele></trkpt>
   <trkpt lon="1.825415" lat="48.759836"><ele>127.0</ele></trkpt>
   <trkpt lon="1.825173" lat="48.759523"><ele>125.75</ele></trkpt>
   <trkpt lon="1.825161" lat="48.759470"><ele>125.5</ele></trkpt>
   <trkpt lon="1.825169" lat="48.759380"><ele>125.25</ele></trkpt>
   <trkpt lon="1.826189" lat="48.758605"><ele>122.25</ele></trkpt>
   <trkpt lon="1.826467" lat="48.758441"><ele>120.5</ele></trkpt>
   <trkpt lon="1.826871" lat="48.758288"><ele>118.75</ele></trkpt>
   <trkpt lon="1.827067" lat="48.758213"><ele>118.0</ele></trkpt>
   <trkpt lon="1.827398" lat="48.758007"><ele>115.0</ele></trkpt>
   <trkpt lon="1.827468" lat="48.757963"><ele>114.25</ele></trkpt>
   <trkpt lon="1.827834" lat="48.757864"><ele>112.75</ele></trkpt>
   <trkpt lon="1.829213" lat="48.757392"><ele>107.0</ele></trkpt>
   <trkpt lon="1.830172" lat="48.757130"><ele>106.0</ele></trkpt>
   <trkpt lon="1.830689" lat="48.757051"><ele>106.0</ele></trkpt>
   <trkpt lon="1.830818" lat="48.756956"><ele>106.0</ele></trkpt>
   <trkpt lon="1.831072" lat="48.756633"><ele>107.0</ele></trkpt>
   <trkpt lon="1.831870" lat="48.755623"><ele>117.0</ele></trkpt>
   <trkpt lon="1.831925" lat="48.755597"><ele>117.5</ele></trkpt>
   <trkpt lon="1.831993" lat="48.755585"><ele>118.0</ele></trkpt>
   <trkpt lon="1.832050" lat="48.755590"><ele>118.25</ele></trkpt>
   <trkpt lon="1.832162" lat="48.755631"><ele>118.5</ele></trkpt>
   <trkpt lon="1.832300" lat="48.755693"><ele>118.25</ele></trkpt>
   <trkpt lon="1.832357" lat="48.755707"><ele>118.25</ele></trkpt>
   <trkpt lon="1.832419" lat="48.755710"><ele>118.25</ele></trkpt>
   <trkpt lon="1.832473" lat="48.755699"><ele>118.75</ele></trkpt>
   <trkpt lon="1.832533" lat="48.755676"><ele>119.0</ele></trkpt>
   <trkpt lon="1.832991" lat="48.755375"><ele>121.0</ele></trkpt>
   <trkpt lon="1.833043" lat="48.755340"><ele>121.25</ele></trkpt>
   <trkpt lon="1.833060" lat="48.755317"><ele>121.5</ele></trkpt>
   <trkpt lon="1.832574" lat="48.755192"><ele>124.0</ele></trkpt>
   <trkpt lon="1.832444" lat="48.755153"><ele>124.5</ele></trkpt>
   <trkpt lon="1.832325" lat="48.755108"><ele>125.0</ele></trkpt>
   <trkpt lon="1.832240" lat="48.755058"><ele>125.25</ele></trkpt>
   <trkpt lon="1.832173" lat="48.755009"><ele>125.5</ele></trkpt>
   <trkpt lon="1.832120" lat="48.754954"><ele>126.0</ele></trkpt>
   <trkpt lon="1.832072" lat="48.754898"><ele>126.5</ele></trkpt>
   <trkpt lon="1.832045" lat="48.754851"><ele>126.75</ele></trkpt>
   <trkpt lon="1.832027" lat="48.754741"><ele>128.0</ele></trkpt>
   <trkpt lon="1.832041" lat="48.754648"><ele>128.75</ele></trkpt>
   <trkpt lon="1.832171" lat="48.754356"><ele>131.25</ele></trkpt>
   <trkpt lon="1.832210" lat="48.754239"><ele>132.25</ele></trkpt>
   <trkpt lon="1.832216" lat="48.754180"><ele>132.75</ele></trkpt>
   <trkpt lon="1.832205" lat="48.754069"><ele>133.75</ele></trkpt>
   <trkpt lon="1.832147" lat="48.753923"><ele>135.25</ele></trkpt>
   <trkpt lon="1.831701" lat="48.753250"><ele>141.75</ele></trkpt>
   <trkpt lon="1.831651" lat="48.753167"><ele>142.0</ele></trkpt>
   <trkpt lon="1.831586" lat="48.753016"><ele>142.5</ele></trkpt>
   <trkpt lon="1.831557" lat="48.752909"><ele>143.0</ele></trkpt>
   <trkpt lon="1.831549" lat="48.752796"><ele>143.5</ele></trkpt>
   <trkpt lon="1.831571" lat="48.752580"><ele>145.0</ele></trkpt>
   <trkpt lon="1.831607" lat="48.752492"><ele>146.0</ele></trkpt>
   <trkpt lon="1.831707" lat="48.752322"><ele>147.5</ele></trkpt>
   <trkpt lon="1.832023" lat="48.751910"><ele>152.0</ele></trkpt>
   <trkpt lon="1.832222" lat="48.751633"><ele>153.75</ele></trkpt>
   <trkpt lon="1.832304" lat="48.751504"><ele>154.75</ele></trkpt>
   <trkpt lon="1.832389" lat="48.751332"><ele>155.75</ele></trkpt>
   <trkpt lon="1.832427" lat="48.751206"><ele>156.5</ele></trkpt>
   <trkpt lon="1.832447" lat="48.751092"><ele>157.25</ele></trkpt>
   <trkpt lon="1.832452" lat="48.750777"><ele>160.5</ele></trkpt>
   <trkpt lon="1.832402" lat="48.750203"><ele>166.0</ele></trkpt>
   <trkpt lon="1.832403" lat="48.750083"><ele>167.5</ele></trkpt>
   <trkpt lon="1.832414" lat="48.749968"><ele>169.0</ele></trkpt>
   <trkpt lon="1.832445" lat="48.749875"><ele>170.0</ele></trkpt>
   <trkpt lon="1.832527" lat="48.749704"><ele>172.25</ele></trkpt>
   <trkpt lon="1.832686" lat="48.749316"><ele>175.25</ele></trkpt>
   <trkpt lon="1.832755" lat="48.749116"><ele>176.0</ele></trkpt>
   <trkpt lon="1.832770" lat="48.748998"><ele>176.5</ele></trkpt>
   <trkpt lon="1.832780" lat="48.748805"><ele>177.0</ele></trkpt>
   <trkpt lon="1.832751" lat="48.748606"><ele>177.0</ele></trkpt>
   <trkpt lon="1.832693" lat="48.748415"><ele>177.75</ele></trkpt>
   <trkpt lon="1.832562" lat="48.748173"><ele>178.0</ele></trkpt>
   <trkpt lon="1.832434" lat="48.747986"><ele>178.0</ele></trkpt>
   <trkpt lon="1.832173" lat="48.747656"><ele>178.0</ele></trkpt>
   <trkpt lon="1.832025" lat="48.747450"><ele>178.0</ele></trkpt>
   <trkpt lon="1.831953" lat="48.747332"><ele>178.0</ele></trkpt>
   <trkpt lon="1.831888" lat="48.747196"><ele>178.0</ele></trkpt>
   <trkpt lon="1.831850" lat="48.747095"><ele>178.0</ele></trkpt>
   <trkpt lon="1.831806" lat="48.746824"><ele>178.0</ele></trkpt>
   <trkpt lon="1.831817" lat="48.746544"><ele>178.5</ele></trkpt>
   <trkpt lon="1.831842" lat="48.746375"><ele>179.0</ele></trkpt>
   <trkpt lon="1.832060" lat="48.745167"><ele>177.75</ele></trkpt>
   <trkpt lon="1.832070" lat="48.745046"><ele>177.5</ele></trkpt>
   <trkpt lon="1.832071" lat="48.744867"><ele>177.5</ele></trkpt>
   <trkpt lon="1.832048" lat="48.744621"><ele>178.0</ele></trkpt>
   <trkpt lon="1.831969" lat="48.744274"><ele>178.0</ele></trkpt>
   <trkpt lon="1.831496" lat="48.742218"><ele>177.25</ele></trkpt>
   <trkpt lon="1.831048" lat="48.740155"><ele>178.0</ele></trkpt>
   <trkpt lon="1.830957" lat="48.739655"><ele>178.0</ele></trkpt>
   <trkpt lon="1.830890" lat="48.739355"><ele>179.0</ele></trkpt>
   <trkpt lon="1.830870" lat="48.739163"><ele>179.0</ele></trkpt>
   <trkpt lon="1.830869" lat="48.739012"><ele>179.5</ele></trkpt>
   <trkpt lon="1.830890" lat="48.738876"><ele>180.0</ele></trkpt>
   <trkpt lon="1.830954" lat="48.738657"><ele>180.0</ele></trkpt>
   <trkpt lon="1.831115" lat="48.738332"><ele>181.0</ele></trkpt>
   <trkpt lon="1.832317" lat="48.736135"><ele>181.0</ele></trkpt>
   <trkpt lon="1.832571" lat="48.735670"><ele>181.0</ele></trkpt>
   <trkpt lon="1.832661" lat="48.735498"><ele>181.0</ele></trkpt>
   <trkpt lon="1.833904" lat="48.733216"><ele>180.0</ele></trkpt>
   <trkpt lon="1.834494" lat="48.732130"><ele>180.5</ele></trkpt>
   <trkpt lon="1.834632" lat="48.731773"><ele>180.25</ele></trkpt>
   <trkpt lon="1.834713" lat="48.731573"><ele>180.5</ele></trkpt>
   <trkpt lon="1.834846" lat="48.731312"><ele>180.25</ele></trkpt>
   <trkpt lon="1.834756" lat="48.731291"><ele>180.0</ele></trkpt>
   <trkpt lon="1.834714" lat="48.731275"><ele>180.0</ele></trkpt>
   <trkpt lon="1.834658" lat="48.731242"><ele>180.0</ele></trkpt>
   <trkpt lon="1.825935" lat="48.730216"><ele>180.0</ele></trkpt>
   <trkpt lon="1.825602" lat="48.730136"><ele>180.5</ele></trkpt>
   <trkpt lon="1.824487" lat="48.729551"><ele>180.0</ele></trkpt>
   <trkpt lon="1.824203" lat="48.729350"><ele>180.0</ele></trkpt>
   <trkpt lon="1.824043" lat="48.729210"><ele>180.0</ele></trkpt>
   <trkpt lon="1.823301" lat="48.727813"><ele>179.0</ele></trkpt>
   <trkpt lon="1.823051" lat="48.727364"><ele>179.5</ele></trkpt>
   <trkpt lon="1.823014" lat="48.727248"><ele>179.0</ele></trkpt>
   <trkpt lon="1.822980" lat="48.727160"><ele>179.0</ele></trkpt>
   <trkpt lon="1.822555" lat="48.723890"><ele>176.0</ele></trkpt>
   <trkpt lon="1.822505" lat="48.723535"><ele>174.25</ele></trkpt>
   <trkpt lon="1.822740" lat="48.722955"><ele>172.5</ele></trkpt>
   <trkpt lon="1.822778" lat="48.722620"><ele>172.0</ele></trkpt>
   <trkpt lon="1.822713" lat="48.722554"><ele>172.0</ele></trkpt>
   <trkpt lon="1.822679" lat="48.722520"><ele>172.0</ele></trkpt>
   <trkpt lon="1.822639" lat="48.722480"><ele>172.0</ele></trkpt>
   <trkpt lon="1.821523" lat="48.721414"><ele>172.0</ele></trkpt>
   <trkpt lon="1.821116" lat="48.721022"><ele>171.5</ele></trkpt>
   <trkpt lon="1.820363" lat="48.720268"><ele>172.0</ele></trkpt>
   <trkpt lon="1.820233" lat="48.720079"><ele>172.5</ele></trkpt>
   <trkpt lon="1.820225" lat="48.719874"><ele>173.0</ele></trkpt>
   <trkpt lon="1.820364" lat="48.719252"><ele>174.25</ele></trkpt>
   <trkpt lon="1.820145" lat="48.717235"><ele>177.0</ele></trkpt>
   <trkpt lon="1.820016" lat="48.716048"><ele>177.5</ele></trkpt>
   <trkpt lon="1.819889" lat="48.715736"><ele>177.25</ele></trkpt>
   <trkpt lon="1.818976" lat="48.714169"><ele>178.0</ele></trkpt>
   <trkpt lon="1.818844" lat="48.713474"><ele>178.0</ele></trkpt>
   <trkpt lon="1.818704" lat="48.713302"><ele>178.0</ele></trkpt>
   <trkpt lon="1.818441" lat="48.713131"><ele>178.0</ele></trkpt>
   <trkpt lon="1.817512" lat="48.712624"><ele>177.25</ele></trkpt>
   <trkpt lon="1.816770" lat="48.712156"><ele>176.0</ele></trkpt>
   <trkpt lon="1.816351" lat="48.711780"><ele>175.25</ele></trkpt>
   <trkpt lon="1.816016" lat="48.711455"><ele>175.0</ele></trkpt>
   <trkpt lon="1.815447" lat="48.710770"><ele>175.0</ele></trkpt>
   <trkpt lon="1.815340" lat="48.710634"><ele>175.0</ele></trkpt>
   <trkpt lon="1.815321" lat="48.710609"><ele>175.0</ele></trkpt>
   <trkpt lon="1.815305" lat="48.710585"><ele>175.0</ele></trkpt>
   <trkpt lon="1.814994" lat="48.710175"><ele>175.0</ele></trkpt>
   <trkpt lon="1.814823" lat="48.709935"><ele>175.0</ele></trkpt>
   <trkpt lon="1.814534" lat="48.709500"><ele>175.0</ele></trkpt>
   <trkpt lon="1.814455" lat="48.709391"><ele>175.0</ele></trkpt>
   <trkpt lon="1.814067" lat="48.708777"><ele>176.0</ele></trkpt>
   <trkpt lon="1.813747" lat="48.708211"><ele>176.0</ele></trkpt>
   <trkpt lon="1.813642" lat="48.708036"><ele>176.75</ele></trkpt>
   <trkpt lon="1.813575" lat="48.707927"><ele>176.25</ele></trkpt>
   <trkpt lon="1.813340" lat="48.707536"><ele>176.75</ele></trkpt>
   <trkpt lon="1.813314" lat="48.707506"><ele>176.75</ele></trkpt>
   <trkpt lon="1.813140" lat="48.707417"><ele>176.0</ele></trkpt>
   <trkpt lon="1.813200" lat="48.707338"><ele>176.0</ele></trkpt>
   <trkpt lon="1.813195" lat="48.707243"><ele>176.0</ele></trkpt>
   <trkpt lon="1.812776" lat="48.706534"><ele>177.5</ele></trkpt>
   <trkpt lon="1.812721" lat="48.706362"><ele>177.0</ele></trkpt>
   <trkpt lon="1.813503" lat="48.706082"><ele>177.0</ele></trkpt>
   <trkpt lon="1.813801" lat="48.705976"><ele>177.0</ele></trkpt>
   <trkpt lon="1.818526" lat="48.704285"><ele>177.5</ele></trkpt>
   <trkpt lon="1.817727" lat="48.703255"><ele>176.75</ele></trkpt>
   <trkpt lon="1.816675" lat="48.701974"><ele>175.75</ele></trkpt>
   <trkpt lon="1.816471" lat="48.701544"><ele>175.5</ele></trkpt>
   <trkpt lon="1.816218" lat="48.700813"><ele>176.75</ele></trkpt>
   <trkpt lon="1.815182" lat="48.697820"><ele>176.75</ele></trkpt>
   <trkpt lon="1.815193" lat="48.697817"><ele>176.75</ele></trkpt>
   <trkpt lon="1.815969" lat="48.697590"><ele>176.75</ele></trkpt>
   <trkpt lon="1.818208" lat="48.696935"><ele>178.5</ele></trkpt>
   <trkpt lon="1.820333" lat="48.696523"><ele>178.5</ele></trkpt>
   <trkpt lon="1.822467" lat="48.696164"><ele>178.75</ele></trkpt>
   <trkpt lon="1.824279" lat="48.695765"><ele>180.0</ele></trkpt>
   <trkpt lon="1.824517" lat="48.695721"><ele>180.0</ele></trkpt>
   <trkpt lon="1.826051" lat="48.695567"><ele>180.0</ele></trkpt>
   <trkpt lon="1.826133" lat="48.695556"><ele>180.0</ele></trkpt>
   <trkpt lon="1.826184" lat="48.695547"><ele>180.0</ele></trkpt>
   <trkpt lon="1.826316" lat="48.695523"><ele>180.0</ele></trkpt>
   <trkpt lon="1.827862" lat="48.695235"><ele>179.5</ele></trkpt>
   <trkpt lon="1.828275" lat="48.695179"><ele>179.0</ele></trkpt>
   <trkpt lon="1.828442" lat="48.695171"><ele>179.0</ele></trkpt>
   <trkpt lon="1.829250" lat="48.695077"><ele>179.75</ele></trkpt>
   <trkpt lon="1.829916" lat="48.694976"><ele>179.0</ele></trkpt>
   <trkpt lon="1.830583" lat="48.694875"><ele>179.0</ele></trkpt>
   <trkpt lon="1.831568" lat="48.694629"><ele>179.0</ele></trkpt>
   <trkpt lon="1.831820" lat="48.694620"><ele>179.0</ele></trkpt>
   <trkpt lon="1.832092" lat="48.694666"><ele>179.0</ele></trkpt>
   <trkpt lon="1.832104" lat="48.694643"><ele>179.0</ele></trkpt>
   <trkpt lon="1.832133" lat="48.694028"><ele>179.0</ele></trkpt>
   <trkpt lon="1.832159" lat="48.693189"><ele>179.0</ele></trkpt>
   <trkpt lon="1.832184" lat="48.692791"><ele>179.0</ele></trkpt>
   <trkpt lon="1.832316" lat="48.692685"><ele>178.5</ele></trkpt>
   <trkpt lon="1.832556" lat="48.692595"><ele>178.25</ele></trkpt>
   <trkpt lon="1.834551" lat="48.692029"><ele>178.0</ele></trkpt>
   <trkpt lon="1.835122" lat="48.691860"><ele>177.5</ele></trkpt>
   <trkpt lon="1.835731" lat="48.691596"><ele>177.25</ele></trkpt>
   <trkpt lon="1.836851" lat="48.690737"><ele>177.5</ele></trkpt>
   <trkpt lon="1.837372" lat="48.690338"><ele>177.75</ele></trkpt>
   <trkpt lon="1.837460" lat="48.690270"><ele>178.0</ele></trkpt>
   <trkpt lon="1.837916" lat="48.690017"><ele>177.25</ele></trkpt>
   <trkpt lon="1.838433" lat="48.689734"><ele>177.75</ele></trkpt>
   <trkpt lon="1.838707" lat="48.689579"><ele>178.0</ele></trkpt>
   <trkpt lon="1.838916" lat="48.689451"><ele>178.0</ele></trkpt>
   <trkpt lon="1.839266" lat="48.689239"><ele>178.25</ele></trkpt>
   <trkpt lon="1.840096" lat="48.688733"><ele>178.0</ele></trkpt>
   <trkpt lon="1.841682" lat="48.687897"><ele>178.5</ele></trkpt>
   <trkpt lon="1.841924" lat="48.687769"><ele>179.0</ele></trkpt>
   <trkpt lon="1.841937" lat="48.687762"><ele>179.0</ele></trkpt>
   <trkpt lon="1.842336" lat="48.687552"><ele>181.0</ele></trkpt>
   <trkpt lon="1.842387" lat="48.687525"><ele>181.25</ele></trkpt>
   <trkpt lon="1.842928" lat="48.687251"><ele>179.0</ele></trkpt>
   <trkpt lon="1.842945" lat="48.687242"><ele>178.75</ele></trkpt>
   <trkpt lon="1.842995" lat="48.687218"><ele>178.25</ele></trkpt>
   <trkpt lon="1.843500" lat="48.686965"><ele>177.25</ele></trkpt>
   <trkpt lon="1.846485" lat="48.685462"><ele>176.0</ele></trkpt>
   <trkpt lon="1.846519" lat="48.685444"><ele>176.0</ele></trkpt>
   <trkpt lon="1.846575" lat="48.685416"><ele>176.0</ele></trkpt>
   <trkpt lon="1.846485" lat="48.685370"><ele>176.0</ele></trkpt>
   <trkpt lon="1.846356" lat="48.685304"><ele>176.0</ele></trkpt>
   <trkpt lon="1.845887" lat="48.685061"><ele>177.0</ele></trkpt>
   <trkpt lon="1.845668" lat="48.684946"><ele>177.0</ele></trkpt>
   <trkpt lon="1.845472" lat="48.684832"><ele>177.0</ele></trkpt>
   <trkpt lon="1.845256" lat="48.684694"><ele>176.75</ele></trkpt>
   <trkpt lon="1.845046" lat="48.684544"><ele>176.75</ele></trkpt>
   <trkpt lon="1.844919" lat="48.684443"><ele>176.75</ele></trkpt>
   <trkpt lon="1.844833" lat="48.684357"><ele>176.75</ele></trkpt>
   <trkpt lon="1.844737" lat="48.684242"><ele>176.75</ele></trkpt>
   <trkpt lon="1.844706" lat="48.684171"><ele>176.75</ele></trkpt>
   <trkpt lon="1.844635" lat="48.684174"><ele>177.0</ele></trkpt>
   <trkpt lon="1.844600" lat="48.684169"><ele>177.0</ele></trkpt>
   <trkpt lon="1.844568" lat="48.684159"><ele>176.75</ele></trkpt>
   <trkpt lon="1.844515" lat="48.684128"><ele>176.75</ele></trkpt>
   <trkpt lon="1.844491" lat="48.684100"><ele>176.75</ele></trkpt>
   <trkpt lon="1.844479" lat="48.684069"><ele>176.5</ele></trkpt>
   <trkpt lon="1.844481" lat="48.684037"><ele>176.5</ele></trkpt>
   <trkpt lon="1.844495" lat="48.684006"><ele>176.25</ele></trkpt>
   <trkpt lon="1.844522" lat="48.683979"><ele>176.25</ele></trkpt>
   <trkpt lon="1.844413" lat="48.683934"><ele>176.0</ele></trkpt>
   <trkpt lon="1.844307" lat="48.683880"><ele>176.25</ele></trkpt>
   <trkpt lon="1.844174" lat="48.683795"><ele>176.5</ele></trkpt>
   <trkpt lon="1.843725" lat="48.683398"><ele>176.0</ele></trkpt>
   <trkpt lon="1.843080" lat="48.682771"><ele>176.75</ele></trkpt>
   <trkpt lon="1.842854" lat="48.682543"><ele>176.75</ele></trkpt>
   <trkpt lon="1.842568" lat="48.682227"><ele>176.75</ele></trkpt>
   <trkpt lon="1.842493" lat="48.682130"><ele>176.5</ele></trkpt>
   <trkpt lon="1.842394" lat="48.681977"><ele>176.25</ele></trkpt>
   <trkpt lon="1.842377" lat="48.681942"><ele>176.25</ele></trkpt>
   <trkpt lon="1.842341" lat="48.681858"><ele>176.5</ele></trkpt>
   <trkpt lon="1.842338" lat="48.681780"><ele>176.5</ele></trkpt>
   <trkpt lon="1.842358" lat="48.681520"><ele>176.75</ele></trkpt>
   <trkpt lon="1.842412" lat="48.680839"><ele>178.75</ele></trkpt>
   <trkpt lon="1.842394" lat="48.680714"><ele>178.5</ele></trkpt>
   <trkpt lon="1.842376" lat="48.680674"><ele>178.5</ele></trkpt>
   <trkpt lon="1.842316" lat="48.680599"><ele>178.5</ele></trkpt>
   <trkpt lon="1.842187" lat="48.680512"><ele>178.75</ele></trkpt>
   <trkpt lon="1.842066" lat="48.680475"><ele>178.5</ele></trkpt>
   <trkpt lon="1.841812" lat="48.680433"><ele>178.25</ele></trkpt>
   <trkpt lon="1.841129" lat="48.680334"><ele>178.5</ele></trkpt>
   <trkpt lon="1.840996" lat="48.680316"><ele>178.75</ele></trkpt>
   <trkpt lon="1.840895" lat="48.680302"><ele>178.75</ele></trkpt>
   <trkpt lon="1.840794" lat="48.680277"><ele>179.0</ele></trkpt>
   <trkpt lon="1.840691" lat="48.680234"><ele>179.0</ele></trkpt>
   <trkpt lon="1.840612" lat="48.680171"><ele>179.0</ele></trkpt>
   <trkpt lon="1.840576" lat="48.680118"><ele>179.0</ele></trkpt>
   <trkpt lon="1.840553" lat="48.680060"><ele>178.75</ele></trkpt>
   <trkpt lon="1.840539" lat="48.679936"><ele>178.5</ele></trkpt>
   <trkpt lon="1.840567" lat="48.679816"><ele>178.25</ele></trkpt>
   <trkpt lon="1.840847" lat="48.679171"><ele>176.0</ele></trkpt>
   <trkpt lon="1.840892" lat="48.679007"><ele>176.0</ele></trkpt>
   <trkpt lon="1.840917" lat="48.678873"><ele>176.0</ele></trkpt>
   <trkpt lon="1.840937" lat="48.678737"><ele>176.0</ele></trkpt>
   <trkpt lon="1.840943" lat="48.678622"><ele>176.0</ele></trkpt>
   <trkpt lon="1.840937" lat="48.678461"><ele>176.0</ele></trkpt>
   <trkpt lon="1.840923" lat="48.678329"><ele>176.0</ele></trkpt>
   <trkpt lon="1.840831" lat="48.677996"><ele>175.75</ele></trkpt>
   <trkpt lon="1.840870" lat="48.677885"><ele>176.0</ele></trkpt>
   <trkpt lon="1.840636" lat="48.677148"><ele>175.25</ele></trkpt>
   <trkpt lon="1.840188" lat="48.675763"><ele>175.0</ele></trkpt>
   <trkpt lon="1.840065" lat="48.675382"><ele>175.0</ele></trkpt>
   <trkpt lon="1.838922" lat="48.671841"><ele>172.75</ele></trkpt>
   <trkpt lon="1.837798" lat="48.668350"><ele>171.0</ele></trkpt>
   <trkpt lon="1.837725" lat="48.668129"><ele>170.75</ele></trkpt>
   <trkpt lon="1.837300" lat="48.666787"><ele>170.0</ele></trkpt>
   <trkpt lon="1.837079" lat="48.666034"><ele>170.0</ele></trkpt>
   <trkpt lon="1.836966" lat="48.665870"><ele>170.0</ele></trkpt>
   <trkpt lon="1.836805" lat="48.665192"><ele>167.75</ele></trkpt>
   <trkpt lon="1.836758" lat="48.665028"><ele>167.75</ele></trkpt>
   <trkpt lon="1.836712" lat="48.664912"><ele>167.25</ele></trkpt>
   <trkpt lon="1.836646" lat="48.664796"><ele>167.0</ele></trkpt>
   <trkpt lon="1.836566" lat="48.664687"><ele>165.75</ele></trkpt>
   <trkpt lon="1.836509" lat="48.664622"><ele>165.0</ele></trkpt>
   <trkpt lon="1.836425" lat="48.664551"><ele>164.75</ele></trkpt>
   <trkpt lon="1.836327" lat="48.664482"><ele>164.75</ele></trkpt>
   <trkpt lon="1.836225" lat="48.664422"><ele>164.75</ele></trkpt>
   <trkpt lon="1.835649" lat="48.664116"><ele>162.75</ele></trkpt>
   <trkpt lon="1.835216" lat="48.663895"><ele>163.25</ele></trkpt>
   <trkpt lon="1.834422" lat="48.663435"><ele>162.75</ele></trkpt>
   <trkpt lon="1.832991" lat="48.662714"><ele>162.25</ele></trkpt>
   <trkpt lon="1.832346" lat="48.662404"><ele>160.5</ele></trkpt>
   <trkpt lon="1.832053" lat="48.662254"><ele>160.0</ele></trkpt>
   <trkpt lon="1.831766" lat="48.662084"><ele>160.0</ele></trkpt>
   <trkpt lon="1.831689" lat="48.662079"><ele>160.0</ele></trkpt>
   <trkpt lon="1.831618" lat="48.662060"><ele>159.75</ele></trkpt>
   <trkpt lon="1.831559" lat="48.662028"><ele>159.75</ele></trkpt>
   <trkpt lon="1.831517" lat="48.661985"><ele>159.5</ele></trkpt>
   <trkpt lon="1.831498" lat="48.661945"><ele>159.25</ele></trkpt>
   <trkpt lon="1.831495" lat="48.661902"><ele>158.75</ele></trkpt>
   <trkpt lon="1.831508" lat="48.661861"><ele>158.5</ele></trkpt>
   <trkpt lon="1.831537" lat="48.661823"><ele>158.25</ele></trkpt>
   <trkpt lon="1.831583" lat="48.661789"><ele>158.25</ele></trkpt>
   <trkpt lon="1.831641" lat="48.661764"><ele>158.5</ele></trkpt>
   <trkpt lon="1.831707" lat="48.661750"><ele>158.5</ele></trkpt>
   <trkpt lon="1.831965" lat="48.661574"><ele>156.75</ele></trkpt>
   <trkpt lon="1.834406" lat="48.659629"><ele>162.0</ele></trkpt>
   <trkpt lon="1.834562" lat="48.659431"><ele>162.25</ele></trkpt>
   <trkpt lon="1.834606" lat="48.659326"><ele>162.75</ele></trkpt>
   <trkpt lon="1.834637" lat="48.659196"><ele>162.75</ele></trkpt>
   <trkpt lon="1.834636" lat="48.659137"><ele>163.0</ele></trkpt>
   <trkpt lon="1.834613" lat="48.658961"><ele>163.25</ele></trkpt>
   <trkpt lon="1.834587" lat="48.658885"><ele>163.5</ele></trkpt>
   <trkpt lon="1.834363" lat="48.658597"><ele>163.5</ele></trkpt>
   <trkpt lon="1.833806" lat="48.657863"><ele>164.0</ele></trkpt>
   <trkpt lon="1.832716" lat="48.656372"><ele>163.75</ele></trkpt>
   <trkpt lon="1.832416" lat="48.655816"><ele>163.0</ele></trkpt>
   <trkpt lon="1.832133" lat="48.654988"><ele>162.0</ele></trkpt>
   <trkpt lon="1.831999" lat="48.654477"><ele>161.25</ele></trkpt>
   <trkpt lon="1.831622" lat="48.653137"><ele>159.0</ele></trkpt>
   <trkpt lon="1.831546" lat="48.652868"><ele>159.0</ele></trkpt>
   <trkpt lon="1.831428" lat="48.652473"><ele>157.25</ele></trkpt>
   <trkpt lon="1.831421" lat="48.652449"><ele>157.0</ele></trkpt>
   <trkpt lon="1.831397" lat="48.652368"><ele>157.0</ele></trkpt>
   <trkpt lon="1.831351" lat="48.652201"><ele>156.75</ele></trkpt>
   <trkpt lon="1.831336" lat="48.652148"><ele>156.5</ele></trkpt>
   <trkpt lon="1.831295" lat="48.652004"><ele>156.0</ele></trkpt>
   <trkpt lon="1.831247" lat="48.651919"><ele>155.75</ele></trkpt>
   <trkpt lon="1.831234" lat="48.651903"><ele>155.75</ele></trkpt>
   <trkpt lon="1.831226" lat="48.651879"><ele>155.75</ele></trkpt>
   <trkpt lon="1.831144" lat="48.651636"><ele>154.25</ele></trkpt>
   <trkpt lon="1.831083" lat="48.651560"><ele>154.0</ele></trkpt>
   <trkpt lon="1.831028" lat="48.651444"><ele>154.0</ele></trkpt>
   <trkpt lon="1.830929" lat="48.651188"><ele>153.25</ele></trkpt>
   <trkpt lon="1.830907" lat="48.651133"><ele>153.0</ele></trkpt>
   <trkpt lon="1.830844" lat="48.650963"><ele>153.5</ele></trkpt>
   <trkpt lon="1.830801" lat="48.650945"><ele>153.5</ele></trkpt>
   <trkpt lon="1.830753" lat="48.650913"><ele>153.5</ele></trkpt>
   <trkpt lon="1.830725" lat="48.650872"><ele>153.5</ele></trkpt>
   <trkpt lon="1.830720" lat="48.650838"><ele>153.5</ele></trkpt>
   <trkpt lon="1.830735" lat="48.650785"><ele>153.5</ele></trkpt>
   <trkpt lon="1.830771" lat="48.650748"><ele>153.5</ele></trkpt>
   <trkpt lon="1.830823" lat="48.650721"><ele>153.5</ele></trkpt>
   <trkpt lon="1.830826" lat="48.650583"><ele>153.0</ele></trkpt>
   <trkpt lon="1.830781" lat="48.650213"><ele>154.0</ele></trkpt>
   <trkpt lon="1.830796" lat="48.650083"><ele>154.0</ele></trkpt>
   <trkpt lon="1.830816" lat="48.649991"><ele>154.0</ele></trkpt>
   <trkpt lon="1.830808" lat="48.649851"><ele>154.0</ele></trkpt>
   <trkpt lon="1.830772" lat="48.649212"><ele>154.0</ele></trkpt>
   <trkpt lon="1.830744" lat="48.648659"><ele>155.0</ele></trkpt>
   <trkpt lon="1.830741" lat="48.648590"><ele>155.0</ele></trkpt>
   <trkpt lon="1.830646" lat="48.648561"><ele>155.0</ele></trkpt>
   <trkpt lon="1.830528" lat="48.648526"><ele>155.25</ele></trkpt>
   <trkpt lon="1.830079" lat="48.648276"><ele>156.75</ele></trkpt>
   <trkpt lon="1.828878" lat="48.647601"><ele>160.0</ele></trkpt>
   <trkpt lon="1.828844" lat="48.647582"><ele>160.0</ele></trkpt>
   <trkpt lon="1.828812" lat="48.647564"><ele>160.0</ele></trkpt>
   <trkpt lon="1.828746" lat="48.647515"><ele>160.0</ele></trkpt>
   <trkpt lon="1.827711" lat="48.646938"><ele>162.0</ele></trkpt>
   <trkpt lon="1.827672" lat="48.646915"><ele>162.25</ele></trkpt>
   <trkpt lon="1.827432" lat="48.646775"><ele>162.5</ele></trkpt>
   <trkpt lon="1.827396" lat="48.646754"><ele>162.5</ele></trkpt>
   <trkpt lon="1.827196" lat="48.646640"><ele>163.0</ele></trkpt>
   <trkpt lon="1.826489" lat="48.646237"><ele>163.0</ele></trkpt>
   <trkpt lon="1.826467" lat="48.646215"><ele>163.0</ele></trkpt>
   <trkpt lon="1.826438" lat="48.646187"><ele>163.0</ele></trkpt>
   <trkpt lon="1.826520" lat="48.646137"><ele>163.0</ele></trkpt>
   <trkpt lon="1.826880" lat="48.645928"><ele>162.25</ele></trkpt>
   <trkpt lon="1.828256" lat="48.645128"><ele>161.75</ele></trkpt>
   <trkpt lon="1.828301" lat="48.645103"><ele>161.75</ele></trkpt>
   <trkpt lon="1.828400" lat="48.645053"><ele>161.75</ele></trkpt>
   <trkpt lon="1.828991" lat="48.644752"><ele>160.75</ele></trkpt>
   <trkpt lon="1.829677" lat="48.644403"><ele>159.75</ele></trkpt>
   <trkpt lon="1.829867" lat="48.644306"><ele>159.5</ele></trkpt>
   <trkpt lon="1.829839" lat="48.644282"><ele>159.75</ele></trkpt>
   <trkpt lon="1.829651" lat="48.644375"><ele>159.75</ele></trkpt>
   <trkpt lon="1.829506" lat="48.644447"><ele>161.0</ele></trkpt>
  </trkseg>
 </trk>
</gpx>
