<?xml version="1.0" encoding="UTF-8"?>
<!-- track-length = 28406 filtered ascend = 193 plain-ascend = 2 cost=47401 energy=.1kwh time=1h 28m 47s -->
<gpx 
 xmlns="http://www.topografix.com/GPX/1/1" 
 xmlns:xsi="http://www.w3.org/2001/XMLSchema-instance" 
 xsi:schemaLocation="http://www.topografix.com/GPX/1/1 http://www.topografix.com/GPX/1/1/gpx.xsd" 
 creator="BRouter-1.7.10" version="1.1">
 <trk>
  <name>Longchamp et Meudon</name>
  <trkseg>
   <trkpt lon="2.223292" lat="48.871363"><ele>51.5</ele></trkpt>
   <trkpt lon="2.224044" lat="48.871177"><ele>46.5</ele></trkpt>
   <trkpt lon="2.224088" lat="48.871166"><ele>46.25</ele></trkpt>
   <trkpt lon="2.224116" lat="48.871159"><ele>46.25</ele></trkpt>
   <trkpt lon="2.224207" lat="48.871076"><ele>45.5</ele></trkpt>
   <trkpt lon="2.224473" lat="48.870873"><ele>43.0</ele></trkpt>
   <trkpt lon="2.224547" lat="48.870813"><ele>42.75</ele></trkpt>
   <trkpt lon="2.224499" lat="48.870722"><ele>42.5</ele></trkpt>
   <trkpt lon="2.224345" lat="48.870438"><ele>42.0</ele></trkpt>
   <trkpt lon="2.224204" lat="48.870177"><ele>41.5</ele></trkpt>
   <trkpt lon="2.224181" lat="48.870105"><ele>41.25</ele></trkpt>
   <trkpt lon="2.224171" lat="48.870077"><ele>41.25</ele></trkpt>
   <trkpt lon="2.224134" lat="48.869963"><ele>41.0</ele></trkpt>
   <trkpt lon="2.224129" lat="48.869947"><ele>41.0</ele></trkpt>
   <trkpt lon="2.224096" lat="48.869823"><ele>41.25</ele></trkpt>
   <trkpt lon="2.223990" lat="48.869420"><ele>40.5</ele></trkpt>
   <trkpt lon="2.223972" lat="48.869355"><ele>40.25</ele></trkpt>
   <trkpt lon="2.223892" lat="48.869059"><ele>40.0</ele></trkpt>
   <trkpt lon="2.223788" lat="48.868718"><ele>40.0</ele></trkpt>
   <trkpt lon="2.223782" lat="48.868699"><ele>40.0</ele></trkpt>
   <trkpt lon="2.223771" lat="48.868660"><ele>40.0</ele></trkpt>
   <trkpt lon="2.223861" lat="48.868653"><ele>40.0</ele></trkpt>
   <trkpt lon="2.223912" lat="48.868649"><ele>39.75</ele></trkpt>
   <trkpt lon="2.223979" lat="48.868643"><ele>39.5</ele></trkpt>
   <trkpt lon="2.224038" lat="48.868638"><ele>39.5</ele></trkpt>
   <trkpt lon="2.224072" lat="48.868636"><ele>39.25</ele></trkpt>
   <trkpt lon="2.224115" lat="48.868620"><ele>39.0</ele></trkpt>
   <trkpt lon="2.224121" lat="48.868591"><ele>39.0</ele></trkpt>
   <trkpt lon="2.224144" lat="48.868570"><ele>39.0</ele></trkpt>
   <trkpt lon="2.224204" lat="48.868550"><ele>38.75</ele></trkpt>
   <trkpt lon="2.224257" lat="48.868533"><ele>38.75</ele></trkpt>
   <trkpt lon="2.224386" lat="48.868492"><ele>38.5</ele></trkpt>
   <trkpt lon="2.224461" lat="48.868468"><ele>38.25</ele></trkpt>
   <trkpt lon="2.224738" lat="48.868379"><ele>37.0</ele></trkpt>
   <trkpt lon="2.224976" lat="48.868302"><ele>36.0</ele></trkpt>
   <trkpt lon="2.225014" lat="48.868290"><ele>35.75</ele></trkpt>
   <trkpt lon="2.225344" lat="48.868183"><ele>35.0</ele></trkpt>
   <trkpt lon="2.225358" lat="48.868179"><ele>35.0</ele></trkpt>
   <trkpt lon="2.225403" lat="48.868164"><ele>34.75</ele></trkpt>
   <trkpt lon="2.225487" lat="48.868138"><ele>34.25</ele></trkpt>
   <trkpt lon="2.225506" lat="48.868132"><ele>34.0</ele></trkpt>
   <trkpt lon="2.226109" lat="48.867938"><ele>33.5</ele></trkpt>
   <trkpt lon="2.226141" lat="48.867928"><ele>33.25</ele></trkpt>
   <trkpt lon="2.226342" lat="48.867863"><ele>33.0</ele></trkpt>
   <trkpt lon="2.226381" lat="48.867850"><ele>33.0</ele></trkpt>
   <trkpt lon="2.226435" lat="48.867833"><ele>32.75</ele></trkpt>
   <trkpt lon="2.226480" lat="48.867818"><ele>32.75</ele></trkpt>
   <trkpt lon="2.226506" lat="48.867810"><ele>32.75</ele></trkpt>
   <trkpt lon="2.227218" lat="48.867581"><ele>33.5</ele></trkpt>
   <trkpt lon="2.227359" lat="48.867561"><ele>34.25</ele></trkpt>
   <trkpt lon="2.227484" lat="48.867563"><ele>34.5</ele></trkpt>
   <trkpt lon="2.227519" lat="48.867539"><ele>34.75</ele></trkpt>
   <trkpt lon="2.227565" lat="48.867507"><ele>34.75</ele></trkpt>
   <trkpt lon="2.227633" lat="48.867475"><ele>35.0</ele></trkpt>
   <trkpt lon="2.227715" lat="48.867458"><ele>35.0</ele></trkpt>
   <trkpt lon="2.227842" lat="48.867433"><ele>34.75</ele></trkpt>
   <trkpt lon="2.227900" lat="48.867418"><ele>34.75</ele></trkpt>
   <trkpt lon="2.228323" lat="48.867306"><ele>34.75</ele></trkpt>
   <trkpt lon="2.228421" lat="48.867280"><ele>34.75</ele></trkpt>
   <trkpt lon="2.230979" lat="48.866596"><ele>35.25</ele></trkpt>
   <trkpt lon="2.231121" lat="48.866558"><ele>35.25</ele></trkpt>
   <trkpt lon="2.231442" lat="48.866467"><ele>33.5</ele></trkpt>
   <trkpt lon="2.231799" lat="48.866359"><ele>32.5</ele></trkpt>
   <trkpt lon="2.232298" lat="48.866202"><ele>32.5</ele></trkpt>
   <trkpt lon="2.232575" lat="48.866102"><ele>32.5</ele></trkpt>
   <trkpt lon="2.232857" lat="48.865990"><ele>31.5</ele></trkpt>
   <trkpt lon="2.233459" lat="48.865715"><ele>30.0</ele></trkpt>
   <trkpt lon="2.234052" lat="48.865434"><ele>29.25</ele></trkpt>
   <trkpt lon="2.234466" lat="48.865238"><ele>29.0</ele></trkpt>
   <trkpt lon="2.234526" lat="48.865209"><ele>29.0</ele></trkpt>
   <trkpt lon="2.234598" lat="48.865174"><ele>29.0</ele></trkpt>
   <trkpt lon="2.234685" lat="48.865131"><ele>29.0</ele></trkpt>
   <trkpt lon="2.234656" lat="48.865103"><ele>29.0</ele></trkpt>
   <trkpt lon="2.234581" lat="48.865037"><ele>28.75</ele></trkpt>
   <trkpt lon="2.234482" lat="48.864947"><ele>28.75</ele></trkpt>
   <trkpt lon="2.234441" lat="48.864916"><ele>28.5</ele></trkpt>
   <trkpt lon="2.234374" lat="48.864882"><ele>28.5</ele></trkpt>
   <trkpt lon="2.234327" lat="48.864861"><ele>28.25</ele></trkpt>
   <trkpt lon="2.233512" lat="48.864265"><ele>28.0</ele></trkpt>
   <trkpt lon="2.233455" lat="48.864225"><ele>28.25</ele></trkpt>
   <trkpt lon="2.233446" lat="48.864206"><ele>28.5</ele></trkpt>
   <trkpt lon="2.233425" lat="48.863955"><ele>28.75</ele></trkpt>
   <trkpt lon="2.233429" lat="48.863924"><ele>28.75</ele></trkpt>
   <trkpt lon="2.233679" lat="48.863973"><ele>28.75</ele></trkpt>
   <trkpt lon="2.234056" lat="48.864023"><ele>29.0</ele></trkpt>
   <trkpt lon="2.234340" lat="48.864046"><ele>29.0</ele></trkpt>
   <trkpt lon="2.234696" lat="48.864076"><ele>29.0</ele></trkpt>
   <trkpt lon="2.235333" lat="48.864102"><ele>29.5</ele></trkpt>
   <trkpt lon="2.235572" lat="48.864096"><ele>29.0</ele></trkpt>
   <trkpt lon="2.235790" lat="48.864070"><ele>29.0</ele></trkpt>
   <trkpt lon="2.236115" lat="48.864028"><ele>29.0</ele></trkpt>
   <trkpt lon="2.236676" lat="48.863852"><ele>29.75</ele></trkpt>
   <trkpt lon="2.236717" lat="48.863835"><ele>29.75</ele></trkpt>
   <trkpt lon="2.236920" lat="48.863755"><ele>29.75</ele></trkpt>
   <trkpt lon="2.237068" lat="48.863671"><ele>30.0</ele></trkpt>
   <trkpt lon="2.237244" lat="48.863534"><ele>29.5</ele></trkpt>
   <trkpt lon="2.237353" lat="48.863448"><ele>29.25</ele></trkpt>
   <trkpt lon="2.237615" lat="48.863176"><ele>29.0</ele></trkpt>
   <trkpt lon="2.237707" lat="48.863056"><ele>29.0</ele></trkpt>
   <trkpt lon="2.238049" lat="48.862610"><ele>29.0</ele></trkpt>
   <trkpt lon="2.238065" lat="48.862538"><ele>29.0</ele></trkpt>
   <trkpt lon="2.238087" lat="48.862498"><ele>29.0</ele></trkpt>
   <trkpt lon="2.238311" lat="48.862292"><ele>29.75</ele></trkpt>
   <trkpt lon="2.238245" lat="48.862207"><ele>30.0</ele></trkpt>
   <trkpt lon="2.238223" lat="48.862173"><ele>30.0</ele></trkpt>
   <trkpt lon="2.238209" lat="48.862159"><ele>30.0</ele></trkpt>
   <trkpt lon="2.238105" lat="48.862022"><ele>30.0</ele></trkpt>
   <trkpt lon="2.237932" lat="48.861822"><ele>30.0</ele></trkpt>
   <trkpt lon="2.237595" lat="48.861276"><ele>30.0</ele></trkpt>
   <trkpt lon="2.237386" lat="48.860912"><ele>30.25</ele></trkpt>
   <trkpt lon="2.237175" lat="48.860437"><ele>30.25</ele></trkpt>
   <trkpt lon="2.237014" lat="48.859961"><ele>31.0</ele></trkpt>
   <trkpt lon="2.236957" lat="48.859590"><ele>31.0</ele></trkpt>
   <trkpt lon="2.236945" lat="48.859373"><ele>31.0</ele></trkpt>
   <trkpt lon="2.236976" lat="48.858944"><ele>31.75</ele></trkpt>
   <trkpt lon="2.236987" lat="48.858869"><ele>32.0</ele></trkpt>
   <trkpt lon="2.236997" lat="48.858820"><ele>32.75</ele></trkpt>
   <trkpt lon="2.237168" lat="48.858008"><ele>32.75</ele></trkpt>
   <trkpt lon="2.237493" lat="48.856570"><ele>36.0</ele></trkpt>
   <trkpt lon="2.237534" lat="48.856165"><ele>36.75</ele></trkpt>
   <trkpt lon="2.237539" lat="48.855377"><ele>38.5</ele></trkpt>
   <trkpt lon="2.237481" lat="48.854826"><ele>39.0</ele></trkpt>
   <trkpt lon="2.237410" lat="48.854323"><ele>39.0</ele></trkpt>
   <trkpt lon="2.237253" lat="48.853788"><ele>39.0</ele></trkpt>
   <trkpt lon="2.236896" lat="48.852911"><ele>37.25</ele></trkpt>
   <trkpt lon="2.236824" lat="48.852665"><ele>37.0</ele></trkpt>
   <trkpt lon="2.236788" lat="48.852489"><ele>36.75</ele></trkpt>
   <trkpt lon="2.236787" lat="48.852482"><ele>36.75</ele></trkpt>
   <trkpt lon="2.236798" lat="48.852167"><ele>36.25</ele></trkpt>
   <trkpt lon="2.236866" lat="48.851925"><ele>35.75</ele></trkpt>
   <trkpt lon="2.236823" lat="48.851805"><ele>35.25</ele></trkpt>
   <trkpt lon="2.236776" lat="48.851684"><ele>35.0</ele></trkpt>
   <trkpt lon="2.236724" lat="48.851621"><ele>34.75</ele></trkpt>
   <trkpt lon="2.236655" lat="48.851572"><ele>34.5</ele></trkpt>
   <trkpt lon="2.236589" lat="48.851533"><ele>34.5</ele></trkpt>
   <trkpt lon="2.236198" lat="48.851397"><ele>33.25</ele></trkpt>
   <trkpt lon="2.235549" lat="48.851408"><ele>32.75</ele></trkpt>
   <trkpt lon="2.234978" lat="48.851451"><ele>32.0</ele></trkpt>
   <trkpt lon="2.234335" lat="48.851530"><ele>31.25</ele></trkpt>
   <trkpt lon="2.233595" lat="48.851651"><ele>30.75</ele></trkpt>
   <trkpt lon="2.232884" lat="48.851804"><ele>30.25</ele></trkpt>
   <trkpt lon="2.232180" lat="48.851985"><ele>30.0</ele></trkpt>
   <trkpt lon="2.231472" lat="48.852210"><ele>30.0</ele></trkpt>
   <trkpt lon="2.231062" lat="48.852385"><ele>29.75</ele></trkpt>
   <trkpt lon="2.230654" lat="48.852596"><ele>29.0</ele></trkpt>
   <trkpt lon="2.230255" lat="48.852853"><ele>29.0</ele></trkpt>
   <trkpt lon="2.229941" lat="48.853216"><ele>29.0</ele></trkpt>
   <trkpt lon="2.229659" lat="48.853507"><ele>29.0</ele></trkpt>
   <trkpt lon="2.229618" lat="48.853554"><ele>29.0</ele></trkpt>
   <trkpt lon="2.229388" lat="48.853822"><ele>29.0</ele></trkpt>
   <trkpt lon="2.229173" lat="48.854123"><ele>29.0</ele></trkpt>
   <trkpt lon="2.228930" lat="48.854573"><ele>29.0</ele></trkpt>
   <trkpt lon="2.228661" lat="48.855336"><ele>29.0</ele></trkpt>
   <trkpt lon="2.228588" lat="48.855642"><ele>29.0</ele></trkpt>
   <trkpt lon="2.228534" lat="48.855973"><ele>29.0</ele></trkpt>
   <trkpt lon="2.228523" lat="48.856277"><ele>28.5</ele></trkpt>
   <trkpt lon="2.228553" lat="48.856728"><ele>28.0</ele></trkpt>
   <trkpt lon="2.228619" lat="48.857003"><ele>28.0</ele></trkpt>
   <trkpt lon="2.228672" lat="48.857318"><ele>28.0</ele></trkpt>
   <trkpt lon="2.228742" lat="48.857593"><ele>28.0</ele></trkpt>
   <trkpt lon="2.228911" lat="48.858124"><ele>28.75</ele></trkpt>
   <trkpt lon="2.229220" lat="48.858909"><ele>29.0</ele></trkpt>
   <trkpt lon="2.229568" lat="48.859752"><ele>29.0</ele></trkpt>
   <trkpt lon="2.229570" lat="48.859757"><ele>29.0</ele></trkpt>
   <trkpt lon="2.229743" lat="48.860238"><ele>29.0</ele></trkpt>
   <trkpt lon="2.229876" lat="48.860658"><ele>29.0</ele></trkpt>
   <trkpt lon="2.230003" lat="48.860968"><ele>29.0</ele></trkpt>
   <trkpt lon="2.230142" lat="48.861218"><ele>29.5</ele></trkpt>
   <trkpt lon="2.230219" lat="48.861376"><ele>29.0</ele></trkpt>
   <trkpt lon="2.230541" lat="48.861963"><ele>30.0</ele></trkpt>
   <trkpt lon="2.230630" lat="48.862125"><ele>29.75</ele></trkpt>
   <trkpt lon="2.230553" lat="48.862148"><ele>30.0</ele></trkpt>
   <trkpt lon="2.230683" lat="48.862431"><ele>29.0</ele></trkpt>
   <trkpt lon="2.230957" lat="48.862717"><ele>29.0</ele></trkpt>
   <trkpt lon="2.231489" lat="48.863146"><ele>29.0</ele></trkpt>
   <trkpt lon="2.231757" lat="48.863322"><ele>29.0</ele></trkpt>
   <trkpt lon="2.232058" lat="48.863484"><ele>29.0</ele></trkpt>
   <trkpt lon="2.232471" lat="48.863677"><ele>28.75</ele></trkpt>
   <trkpt lon="2.232598" lat="48.863730"><ele>29.0</ele></trkpt>
   <trkpt lon="2.233291" lat="48.863894"><ele>28.75</ele></trkpt>
   <trkpt lon="2.233429" lat="48.863924"><ele>28.75</ele></trkpt>
   <trkpt lon="2.233679" lat="48.863973"><ele>28.75</ele></trkpt>
   <trkpt lon="2.233858" lat="48.863996"><ele>29.0</ele></trkpt>
   <trkpt lon="2.234056" lat="48.864023"><ele>29.0</ele></trkpt>
   <trkpt lon="2.234696" lat="48.864076"><ele>29.0</ele></trkpt>
   <trkpt lon="2.235333" lat="48.864102"><ele>29.5</ele></trkpt>
   <trkpt lon="2.235572" lat="48.864096"><ele>29.0</ele></trkpt>
   <trkpt lon="2.235790" lat="48.864070"><ele>29.0</ele></trkpt>
   <trkpt lon="2.236115" lat="48.864028"><ele>29.0</ele></trkpt>
   <trkpt lon="2.236676" lat="48.863852"><ele>29.75</ele></trkpt>
   <trkpt lon="2.236717" lat="48.863835"><ele>29.75</ele></trkpt>
   <trkpt lon="2.236920" lat="48.863755"><ele>29.75</ele></trkpt>
   <trkpt lon="2.237068" lat="48.863671"><ele>30.0</ele></trkpt>
   <trkpt lon="2.237244" lat="48.863534"><ele>29.5</ele></trkpt>
   <trkpt lon="2.237353" lat="48.863448"><ele>29.25</ele></trkpt>
   <trkpt lon="2.237615" lat="48.863176"><ele>29.0</ele></trkpt>
   <trkpt lon="2.237707" lat="48.863056"><ele>29.0</ele></trkpt>
   <trkpt lon="2.238049" lat="48.862610"><ele>29.0</ele></trkpt>
   <trkpt lon="2.238065" lat="48.862538"><ele>29.0</ele></trkpt>
   <trkpt lon="2.238087" lat="48.862498"><ele>29.0</ele></trkpt>
   <trkpt lon="2.238311" lat="48.862292"><ele>29.75</ele></trkpt>
   <trkpt lon="2.238245" lat="48.862207"><ele>30.0</ele></trkpt>
   <trkpt lon="2.238223" lat="48.862173"><ele>30.0</ele></trkpt>
   <trkpt lon="2.238209" lat="48.862159"><ele>30.0</ele></trkpt>
   <trkpt lon="2.238105" lat="48.862022"><ele>30.0</ele></trkpt>
   <trkpt lon="2.237932" lat="48.861822"><ele>30.0</ele></trkpt>
   <trkpt lon="2.237595" lat="48.861276"><ele>30.0</ele></trkpt>
   <trkpt lon="2.237386" lat="48.860912"><ele>30.25</ele></trkpt>
   <trkpt lon="2.237175" lat="48.860437"><ele>30.25</ele></trkpt>
   <trkpt lon="2.237014" lat="48.859961"><ele>31.0</ele></trkpt>
   <trkpt lon="2.236957" lat="48.859590"><ele>31.0</ele></trkpt>
   <trkpt lon="2.236945" lat="48.859373"><ele>31.0</ele></trkpt>
   <trkpt lon="2.236976" lat="48.858944"><ele>31.75</ele></trkpt>
   <trkpt lon="2.236987" lat="48.858869"><ele>32.0</ele></trkpt>
   <trkpt lon="2.236997" lat="48.858820"><ele>32.75</ele></trkpt>
   <trkpt lon="2.237168" lat="48.858008"><ele>32.75</ele></trkpt>
   <trkpt lon="2.237493" lat="48.856570"><ele>36.0</ele></trkpt>
   <trkpt lon="2.237534" lat="48.856165"><ele>36.75</ele></trkpt>
   <trkpt lon="2.237539" lat="48.855377"><ele>38.5</ele></trkpt>
   <trkpt lon="2.237481" lat="48.854826"><ele>39.0</ele></trkpt>
   <trkpt lon="2.237410" lat="48.854323"><ele>39.0</ele></trkpt>
   <trkpt lon="2.237253" lat="48.853788"><ele>39.0</ele></trkpt>
   <trkpt lon="2.236896" lat="48.852911"><ele>37.25</ele></trkpt>
   <trkpt lon="2.236824" lat="48.852665"><ele>37.0</ele></trkpt>
   <trkpt lon="2.236788" lat="48.852489"><ele>36.75</ele></trkpt>
   <trkpt lon="2.236787" lat="48.852482"><ele>36.75</ele></trkpt>
   <trkpt lon="2.236798" lat="48.852167"><ele>36.25</ele></trkpt>
   <trkpt lon="2.236866" lat="48.851925"><ele>35.75</ele></trkpt>
   <trkpt lon="2.236823" lat="48.851805"><ele>35.25</ele></trkpt>
   <trkpt lon="2.236776" lat="48.851684"><ele>35.0</ele></trkpt>
   <trkpt lon="2.236724" lat="48.851621"><ele>34.75</ele></trkpt>
   <trkpt lon="2.236655" lat="48.851572"><ele>34.5</ele></trkpt>
   <trkpt lon="2.236589" lat="48.851533"><ele>34.5</ele></trkpt>
   <trkpt lon="2.236198" lat="48.851397"><ele>33.25</ele></trkpt>
   <trkpt lon="2.235549" lat="48.851408"><ele>32.75</ele></trkpt>
   <trkpt lon="2.234978" lat="48.851451"><ele>32.0</ele></trkpt>
   <trkpt lon="2.234335" lat="48.851530"><ele>31.25</ele></trkpt>
   <trkpt lon="2.233595" lat="48.851651"><ele>30.75</ele></trkpt>
   <trkpt lon="2.232884" lat="48.851804"><ele>30.25</ele></trkpt>
   <trkpt lon="2.232180" lat="48.851985"><ele>30.0</ele></trkpt>
   <trkpt lon="2.231472" lat="48.852210"><ele>30.0</ele></trkpt>
   <trkpt lon="2.231062" lat="48.852385"><ele>29.75</ele></trkpt>
   <trkpt lon="2.230654" lat="48.852596"><ele>29.0</ele></trkpt>
   <trkpt lon="2.230255" lat="48.852853"><ele>29.0</ele></trkpt>
   <trkpt lon="2.229941" lat="48.853216"><ele>29.0</ele></trkpt>
   <trkpt lon="2.229659" lat="48.853507"><ele>29.0</ele></trkpt>
   <trkpt lon="2.229618" lat="48.853554"><ele>29.0</ele></trkpt>
   <trkpt lon="2.229388" lat="48.853822"><ele>29.0</ele></trkpt>
   <trkpt lon="2.229173" lat="48.854123"><ele>29.0</ele></trkpt>
   <trkpt lon="2.228930" lat="48.854573"><ele>29.0</ele></trkpt>
   <trkpt lon="2.228661" lat="48.855336"><ele>29.0</ele></trkpt>
   <trkpt lon="2.228588" lat="48.855642"><ele>29.0</ele></trkpt>
   <trkpt lon="2.228534" lat="48.855973"><ele>29.0</ele></trkpt>
   <trkpt lon="2.228523" lat="48.856277"><ele>28.5</ele></trkpt>
   <trkpt lon="2.228553" lat="48.856728"><ele>28.0</ele></trkpt>
   <trkpt lon="2.228619" lat="48.857003"><ele>28.0</ele></trkpt>
   <trkpt lon="2.228672" lat="48.857318"><ele>28.0</ele></trkpt>
   <trkpt lon="2.228742" lat="48.857593"><ele>28.0</ele></trkpt>
   <trkpt lon="2.228911" lat="48.858124"><ele>28.75</ele></trkpt>
   <trkpt lon="2.229220" lat="48.858909"><ele>29.0</ele></trkpt>
   <trkpt lon="2.229568" lat="48.859752"><ele>29.0</ele></trkpt>
   <trkpt lon="2.229570" lat="48.859757"><ele>29.0</ele></trkpt>
   <trkpt lon="2.229743" lat="48.860238"><ele>29.0</ele></trkpt>
   <trkpt lon="2.229876" lat="48.860658"><ele>29.0</ele></trkpt>
   <trkpt lon="2.230003" lat="48.860968"><ele>29.0</ele></trkpt>
   <trkpt lon="2.230142" lat="48.861218"><ele>29.5</ele></trkpt>
   <trkpt lon="2.230219" lat="48.861376"><ele>29.0</ele></trkpt>
   <trkpt lon="2.230541" lat="48.861963"><ele>30.0</ele></trkpt>
   <trkpt lon="2.230630" lat="48.862125"><ele>29.75</ele></trkpt>
   <trkpt lon="2.230553" lat="48.862148"><ele>30.0</ele></trkpt>
   <trkpt lon="2.230683" lat="48.862431"><ele>29.0</ele></trkpt>
   <trkpt lon="2.230957" lat="48.862717"><ele>29.0</ele></trkpt>
   <trkpt lon="2.231489" lat="48.863146"><ele>29.0</ele></trkpt>
   <trkpt lon="2.231757" lat="48.863322"><ele>29.0</ele></trkpt>
   <trkpt lon="2.232058" lat="48.863484"><ele>29.0</ele></trkpt>
   <trkpt lon="2.232471" lat="48.863677"><ele>28.75</ele></trkpt>
   <trkpt lon="2.232598" lat="48.863730"><ele>29.0</ele></trkpt>
   <trkpt lon="2.233291" lat="48.863894"><ele>28.75</ele></trkpt>
   <trkpt lon="2.233429" lat="48.863924"><ele>28.75</ele></trkpt>
   <trkpt lon="2.233679" lat="48.863973"><ele>28.75</ele></trkpt>
   <trkpt lon="2.233858" lat="48.863996"><ele>29.0</ele></trkpt>
   <trkpt lon="2.234056" lat="48.864023"><ele>29.0</ele></trkpt>
   <trkpt lon="2.234696" lat="48.864076"><ele>29.0</ele></trkpt>
   <trkpt lon="2.235333" lat="48.864102"><ele>29.5</ele></trkpt>
   <trkpt lon="2.235572" lat="48.864096"><ele>29.0</ele></trkpt>
   <trkpt lon="2.235790" lat="48.864070"><ele>29.0</ele></trkpt>
   <trkpt lon="2.235940" lat="48.864050"><ele>29.0</ele></trkpt>
   <trkpt lon="2.236115" lat="48.864028"><ele>29.0</ele></trkpt>
   <trkpt lon="2.236676" lat="48.863852"><ele>29.75</ele></trkpt>
   <trkpt lon="2.236920" lat="48.863755"><ele>29.75</ele></trkpt>
   <trkpt lon="2.237068" lat="48.863671"><ele>30.0</ele></trkpt>
   <trkpt lon="2.237244" lat="48.863534"><ele>29.5</ele></trkpt>
   <trkpt lon="2.237353" lat="48.863448"><ele>29.25</ele></trkpt>
   <trkpt lon="2.237615" lat="48.863176"><ele>29.0</ele></trkpt>
   <trkpt lon="2.237707" lat="48.863056"><ele>29.0</ele></trkpt>
   <trkpt lon="2.238049" lat="48.862610"><ele>29.0</ele></trkpt>
   <trkpt lon="2.238121" lat="48.862564"><ele>29.0</ele></trkpt>
   <trkpt lon="2.238156" lat="48.862540"><ele>29.25</ele></trkpt>
   <trkpt lon="2.238224" lat="48.862501"><ele>29.5</ele></trkpt>
   <trkpt lon="2.238273" lat="48.862495"><ele>29.75</ele></trkpt>
   <trkpt lon="2.238323" lat="48.862501"><ele>29.75</ele></trkpt>
   <trkpt lon="2.238432" lat="48.862529"><ele>30.25</ele></trkpt>
   <trkpt lon="2.238851" lat="48.863052"><ele>30.0</ele></trkpt>
   <trkpt lon="2.238954" lat="48.863164"><ele>30.0</ele></trkpt>
   <trkpt lon="2.239021" lat="48.863301"><ele>30.25</ele></trkpt>
   <trkpt lon="2.239038" lat="48.863378"><ele>30.5</ele></trkpt>
   <trkpt lon="2.239038" lat="48.863397"><ele>30.5</ele></trkpt>
   <trkpt lon="2.239024" lat="48.863482"><ele>30.75</ele></trkpt>
   <trkpt lon="2.239017" lat="48.863576"><ele>30.75</ele></trkpt>
   <trkpt lon="2.238811" lat="48.863544"><ele>30.25</ele></trkpt>
   <trkpt lon="2.238458" lat="48.863569"><ele>29.75</ele></trkpt>
   <trkpt lon="2.237632" lat="48.863693"><ele>30.0</ele></trkpt>
   <trkpt lon="2.237257" lat="48.863787"><ele>30.0</ele></trkpt>
   <trkpt lon="2.236605" lat="48.864009"><ele>29.75</ele></trkpt>
   <trkpt lon="2.236345" lat="48.864107"><ele>29.5</ele></trkpt>
   <trkpt lon="2.235821" lat="48.864318"><ele>29.0</ele></trkpt>
   <trkpt lon="2.235270" lat="48.864591"><ele>29.0</ele></trkpt>
   <trkpt lon="2.235181" lat="48.864685"><ele>29.0</ele></trkpt>
   <trkpt lon="2.235143" lat="48.864722"><ele>29.0</ele></trkpt>
   <trkpt lon="2.235087" lat="48.864758"><ele>29.0</ele></trkpt>
   <trkpt lon="2.234650" lat="48.865001"><ele>29.0</ele></trkpt>
   <trkpt lon="2.234581" lat="48.865037"><ele>28.75</ele></trkpt>
   <trkpt lon="2.234494" lat="48.865083"><ele>29.0</ele></trkpt>
   <trkpt lon="2.234362" lat="48.865151"><ele>29.0</ele></trkpt>
   <trkpt lon="2.233813" lat="48.865413"><ele>29.75</ele></trkpt>
   <trkpt lon="2.233237" lat="48.865672"><ele>31.0</ele></trkpt>
   <trkpt lon="2.232804" lat="48.865874"><ele>31.75</ele></trkpt>
   <trkpt lon="2.232592" lat="48.865962"><ele>32.5</ele></trkpt>
   <trkpt lon="2.232039" lat="48.866163"><ele>33.75</ele></trkpt>
   <trkpt lon="2.231749" lat="48.866258"><ele>32.75</ele></trkpt>
   <trkpt lon="2.231378" lat="48.866370"><ele>33.75</ele></trkpt>
   <trkpt lon="2.231049" lat="48.866465"><ele>35.25</ele></trkpt>
   <trkpt lon="2.230901" lat="48.866504"><ele>35.0</ele></trkpt>
   <trkpt lon="2.228587" lat="48.867111"><ele>35.0</ele></trkpt>
   <trkpt lon="2.228435" lat="48.867192"><ele>35.0</ele></trkpt>
   <trkpt lon="2.228373" lat="48.867218"><ele>35.0</ele></trkpt>
   <trkpt lon="2.228307" lat="48.867240"><ele>35.0</ele></trkpt>
   <trkpt lon="2.227837" lat="48.867365"><ele>35.0</ele></trkpt>
   <trkpt lon="2.227808" lat="48.867374"><ele>35.0</ele></trkpt>
   <trkpt lon="2.227682" lat="48.867404"><ele>35.0</ele></trkpt>
   <trkpt lon="2.227455" lat="48.867453"><ele>34.75</ele></trkpt>
   <trkpt lon="2.227190" lat="48.867498"><ele>33.75</ele></trkpt>
   <trkpt lon="2.227053" lat="48.867510"><ele>33.75</ele></trkpt>
   <trkpt lon="2.226839" lat="48.867545"><ele>33.5</ele></trkpt>
   <trkpt lon="2.226531" lat="48.867628"><ele>33.0</ele></trkpt>
   <trkpt lon="2.226448" lat="48.867660"><ele>33.0</ele></trkpt>
   <trkpt lon="2.226303" lat="48.867706"><ele>33.0</ele></trkpt>
   <trkpt lon="2.226057" lat="48.867788"><ele>33.0</ele></trkpt>
   <trkpt lon="2.226045" lat="48.867793"><ele>33.25</ele></trkpt>
   <trkpt lon="2.226006" lat="48.867804"><ele>33.25</ele></trkpt>
   <trkpt lon="2.225904" lat="48.867838"><ele>33.75</ele></trkpt>
   <trkpt lon="2.225514" lat="48.867973"><ele>34.25</ele></trkpt>
   <trkpt lon="2.225309" lat="48.868039"><ele>34.75</ele></trkpt>
   <trkpt lon="2.225222" lat="48.868066"><ele>35.0</ele></trkpt>
   <trkpt lon="2.224879" lat="48.868184"><ele>36.25</ele></trkpt>
   <trkpt lon="2.224298" lat="48.868379"><ele>38.5</ele></trkpt>
   <trkpt lon="2.224199" lat="48.868412"><ele>38.75</ele></trkpt>
   <trkpt lon="2.224173" lat="48.868422"><ele>38.75</ele></trkpt>
   <trkpt lon="2.224146" lat="48.868433"><ele>39.0</ele></trkpt>
   <trkpt lon="2.223985" lat="48.868511"><ele>39.5</ele></trkpt>
   <trkpt lon="2.223970" lat="48.868535"><ele>39.5</ele></trkpt>
   <trkpt lon="2.223942" lat="48.868558"><ele>39.75</ele></trkpt>
   <trkpt lon="2.223979" lat="48.868643"><ele>39.5</ele></trkpt>
   <trkpt lon="2.223986" lat="48.868674"><ele>39.5</ele></trkpt>
   <trkpt lon="2.224035" lat="48.868917"><ele>40.0</ele></trkpt>
   <trkpt lon="2.224064" lat="48.869060"><ele>40.0</ele></trkpt>
   <trkpt lon="2.224095" lat="48.869212"><ele>40.0</ele></trkpt>
   <trkpt lon="2.224211" lat="48.869713"><ele>40.75</ele></trkpt>
   <trkpt lon="2.224224" lat="48.869766"><ele>40.75</ele></trkpt>
   <trkpt lon="2.224231" lat="48.869797"><ele>40.75</ele></trkpt>
   <trkpt lon="2.224281" lat="48.869978"><ele>40.5</ele></trkpt>
   <trkpt lon="2.224284" lat="48.869990"><ele>40.5</ele></trkpt>
   <trkpt lon="2.224337" lat="48.870145"><ele>41.0</ele></trkpt>
   <trkpt lon="2.224392" lat="48.870246"><ele>41.75</ele></trkpt>
   <trkpt lon="2.224591" lat="48.870605"><ele>42.0</ele></trkpt>
   <trkpt lon="2.224612" lat="48.870650"><ele>42.25</ele></trkpt>
   <trkpt lon="2.224620" lat="48.870676"><ele>42.25</ele></trkpt>
   <trkpt lon="2.224614" lat="48.870802"><ele>42.75</ele></trkpt>
   <trkpt lon="2.224592" lat="48.870864"><ele>43.0</ele></trkpt>
   <trkpt lon="2.224492" lat="48.870998"><ele>43.25</ele></trkpt>
   <trkpt lon="2.224360" lat="48.871090"><ele>44.5</ele></trkpt>
   <trkpt lon="2.224153" lat="48.871148"><ele>46.0</ele></trkpt>
   <trkpt lon="2.224116" lat="48.871159"><ele>46.25</ele></trkpt>
   <trkpt lon="2.224088" lat="48.871166"><ele>46.25</ele></trkpt>
   <trkpt lon="2.224044" lat="48.871177"><ele>46.5</ele></trkpt>
   <trkpt lon="2.223292" lat="48.871363"><ele>53.5</ele></trkpt>
   <trkpt lon="2.224044" lat="48.871177"><ele>46.5</ele></trkpt>
   <trkpt lon="2.224088" lat="48.871166"><ele>46.25</ele></trkpt>
   <trkpt lon="2.224116" lat="48.871159"><ele>46.25</ele></trkpt>
   <trkpt lon="2.224207" lat="48.871076"><ele>45.5</ele></trkpt>
   <trkpt lon="2.224473" lat="48.870873"><ele>43.0</ele></trkpt>
   <trkpt lon="2.224547" lat="48.870813"><ele>42.75</ele></trkpt>
   <trkpt lon="2.224499" lat="48.870722"><ele>42.5</ele></trkpt>
   <trkpt lon="2.224345" lat="48.870438"><ele>42.0</ele></trkpt>
   <trkpt lon="2.224204" lat="48.870177"><ele>41.5</ele></trkpt>
   <trkpt lon="2.224181" lat="48.870105"><ele>41.25</ele></trkpt>
   <trkpt lon="2.224171" lat="48.870077"><ele>41.25</ele></trkpt>
   <trkpt lon="2.224134" lat="48.869963"><ele>41.0</ele></trkpt>
   <trkpt lon="2.224129" lat="48.869947"><ele>41.0</ele></trkpt>
   <trkpt lon="2.224096" lat="48.869823"><ele>41.25</ele></trkpt>
   <trkpt lon="2.223990" lat="48.869420"><ele>40.5</ele></trkpt>
   <trkpt lon="2.223972" lat="48.869355"><ele>40.25</ele></trkpt>
   <trkpt lon="2.223892" lat="48.869059"><ele>40.0</ele></trkpt>
   <trkpt lon="2.223788" lat="48.868718"><ele>40.0</ele></trkpt>
   <trkpt lon="2.223782" lat="48.868699"><ele>40.0</ele></trkpt>
   <trkpt lon="2.223771" lat="48.868660"><ele>40.0</ele></trkpt>
   <trkpt lon="2.223745" lat="48.868565"><ele>40.0</ele></trkpt>
   <trkpt lon="2.223698" lat="48.868527"><ele>40.0</ele></trkpt>
   <trkpt lon="2.223685" lat="48.868491"><ele>40.0</ele></trkpt>
   <trkpt lon="2.223460" lat="48.868444"><ele>40.75</ele></trkpt>
   <trkpt lon="2.223119" lat="48.868362"><ele>41.0</ele></trkpt>
   <trkpt lon="2.223026" lat="48.868329"><ele>41.0</ele></trkpt>
   <trkpt lon="2.223013" lat="48.868325"><ele>41.25</ele></trkpt>
   <trkpt lon="2.222919" lat="48.868295"><ele>41.75</ele></trkpt>
   <trkpt lon="2.222790" lat="48.868259"><ele>42.5</ele></trkpt>
   <trkpt lon="2.222403" lat="48.868094"><ele>44.0</ele></trkpt>
   <trkpt lon="2.222125" lat="48.867944"><ele>45.25</ele></trkpt>
   <trkpt lon="2.221885" lat="48.867798"><ele>46.25</ele></trkpt>
   <trkpt lon="2.221786" lat="48.867727"><ele>47.25</ele></trkpt>
   <trkpt lon="2.221761" lat="48.867706"><ele>47.5</ele></trkpt>
   <trkpt lon="2.221722" lat="48.867671"><ele>47.75</ele></trkpt>
   <trkpt lon="2.221615" lat="48.867588"><ele>47.5</ele></trkpt>
   <trkpt lon="2.221655" lat="48.867574"><ele>47.0</ele></trkpt>
   <trkpt lon="2.221718" lat="48.867544"><ele>46.25</ele></trkpt>
   <trkpt lon="2.221769" lat="48.867527"><ele>45.75</ele></trkpt>
   <trkpt lon="2.221791" lat="48.867510"><ele>45.5</ele></trkpt>
   <trkpt lon="2.221807" lat="48.867496"><ele>45.5</ele></trkpt>
   <trkpt lon="2.221960" lat="48.867309"><ele>45.5</ele></trkpt>
   <trkpt lon="2.222036" lat="48.867272"><ele>44.75</ele></trkpt>
   <trkpt lon="2.222006" lat="48.867233"><ele>45.25</ele></trkpt>
   <trkpt lon="2.222010" lat="48.867205"><ele>45.25</ele></trkpt>
   <trkpt lon="2.222059" lat="48.866796"><ele>45.0</ele></trkpt>
   <trkpt lon="2.222035" lat="48.866356"><ele>44.0</ele></trkpt>
   <trkpt lon="2.221975" lat="48.865959"><ele>41.75</ele></trkpt>
   <trkpt lon="2.221863" lat="48.865659"><ele>42.0</ele></trkpt>
   <trkpt lon="2.221533" lat="48.865089"><ele>42.75</ele></trkpt>
   <trkpt lon="2.221545" lat="48.865043"><ele>42.0</ele></trkpt>
   <trkpt lon="2.221628" lat="48.864966"><ele>40.25</ele></trkpt>
   <trkpt lon="2.221728" lat="48.864931"><ele>39.75</ele></trkpt>
   <trkpt lon="2.222217" lat="48.864772"><ele>38.0</ele></trkpt>
   <trkpt lon="2.222722" lat="48.864607"><ele>37.0</ele></trkpt>
   <trkpt lon="2.222852" lat="48.864565"><ele>36.5</ele></trkpt>
   <trkpt lon="2.222997" lat="48.864517"><ele>36.0</ele></trkpt>
   <trkpt lon="2.222961" lat="48.864451"><ele>36.25</ele></trkpt>
   <trkpt lon="2.222908" lat="48.864378"><ele>36.25</ele></trkpt>
   <trkpt lon="2.222893" lat="48.864317"><ele>36.25</ele></trkpt>
   <trkpt lon="2.222909" lat="48.864231"><ele>36.0</ele></trkpt>
   <trkpt lon="2.222948" lat="48.864153"><ele>36.0</ele></trkpt>
   <trkpt lon="2.222991" lat="48.864053"><ele>36.0</ele></trkpt>
   <trkpt lon="2.223008" lat="48.864010"><ele>36.0</ele></trkpt>
   <trkpt lon="2.223003" lat="48.863971"><ele>36.0</ele></trkpt>
   <trkpt lon="2.222584" lat="48.863101"><ele>35.5</ele></trkpt>
   <trkpt lon="2.222561" lat="48.863052"><ele>35.75</ele></trkpt>
   <trkpt lon="2.222537" lat="48.863004"><ele>35.75</ele></trkpt>
   <trkpt lon="2.222188" lat="48.862274"><ele>36.0</ele></trkpt>
   <trkpt lon="2.221983" lat="48.861573"><ele>35.25</ele></trkpt>
   <trkpt lon="2.221962" lat="48.861494"><ele>35.25</ele></trkpt>
   <trkpt lon="2.221831" lat="48.861064"><ele>35.25</ele></trkpt>
   <trkpt lon="2.221702" lat="48.860641"><ele>34.75</ele></trkpt>
   <trkpt lon="2.221521" lat="48.860030"><ele>35.0</ele></trkpt>
   <trkpt lon="2.221514" lat="48.860009"><ele>35.0</ele></trkpt>
   <trkpt lon="2.221505" lat="48.859956"><ele>35.0</ele></trkpt>
   <trkpt lon="2.221496" lat="48.859915"><ele>35.0</ele></trkpt>
   <trkpt lon="2.221494" lat="48.859906"><ele>35.0</ele></trkpt>
   <trkpt lon="2.221485" lat="48.859827"><ele>35.25</ele></trkpt>
   <trkpt lon="2.221300" lat="48.858274"><ele>38.5</ele></trkpt>
   <trkpt lon="2.221239" lat="48.857746"><ele>38.5</ele></trkpt>
   <trkpt lon="2.221220" lat="48.857586"><ele>39.25</ele></trkpt>
   <trkpt lon="2.221199" lat="48.857470"><ele>39.5</ele></trkpt>
   <trkpt lon="2.221048" lat="48.856895"><ele>38.25</ele></trkpt>
   <trkpt lon="2.221099" lat="48.856809"><ele>38.0</ele></trkpt>
   <trkpt lon="2.221066" lat="48.856803"><ele>38.25</ele></trkpt>
   <trkpt lon="2.221039" lat="48.856789"><ele>38.5</ele></trkpt>
   <trkpt lon="2.221017" lat="48.856760"><ele>38.75</ele></trkpt>
   <trkpt lon="2.221012" lat="48.856742"><ele>38.75</ele></trkpt>
   <trkpt lon="2.221020" lat="48.856720"><ele>38.75</ele></trkpt>
   <trkpt lon="2.221062" lat="48.856689"><ele>38.5</ele></trkpt>
   <trkpt lon="2.221094" lat="48.856682"><ele>38.0</ele></trkpt>
   <trkpt lon="2.221144" lat="48.856685"><ele>37.5</ele></trkpt>
   <trkpt lon="2.221173" lat="48.856696"><ele>37.25</ele></trkpt>
   <trkpt lon="2.221195" lat="48.856713"><ele>37.0</ele></trkpt>
   <trkpt lon="2.221207" lat="48.856743"><ele>37.0</ele></trkpt>
   <trkpt lon="2.221351" lat="48.856733"><ele>35.75</ele></trkpt>
   <trkpt lon="2.221982" lat="48.856706"><ele>31.5</ele></trkpt>
   <trkpt lon="2.222061" lat="48.856702"><ele>31.5</ele></trkpt>
   <trkpt lon="2.222156" lat="48.856697"><ele>31.0</ele></trkpt>
   <trkpt lon="2.223102" lat="48.856652"><ele>29.75</ele></trkpt>
   <trkpt lon="2.223154" lat="48.856649"><ele>29.75</ele></trkpt>
   <trkpt lon="2.223303" lat="48.856642"><ele>29.75</ele></trkpt>
   <trkpt lon="2.223271" lat="48.856500"><ele>29.5</ele></trkpt>
   <trkpt lon="2.223022" lat="48.855754"><ele>29.5</ele></trkpt>
   <trkpt lon="2.223006" lat="48.855702"><ele>29.5</ele></trkpt>
   <trkpt lon="2.222870" lat="48.855245"><ele>29.5</ele></trkpt>
   <trkpt lon="2.222714" lat="48.854677"><ele>29.75</ele></trkpt>
   <trkpt lon="2.222699" lat="48.854620"><ele>29.75</ele></trkpt>
   <trkpt lon="2.222663" lat="48.854304"><ele>29.5</ele></trkpt>
   <trkpt lon="2.222643" lat="48.854123"><ele>29.5</ele></trkpt>
   <trkpt lon="2.222625" lat="48.853866"><ele>30.0</ele></trkpt>
   <trkpt lon="2.222656" lat="48.853568"><ele>30.0</ele></trkpt>
   <trkpt lon="2.222702" lat="48.853339"><ele>30.0</ele></trkpt>
   <trkpt lon="2.222778" lat="48.853076"><ele>29.75</ele></trkpt>
   <trkpt lon="2.222821" lat="48.852964"><ele>29.25</ele></trkpt>
   <trkpt lon="2.222890" lat="48.852780"><ele>28.75</ele></trkpt>
   <trkpt lon="2.222929" lat="48.852672"><ele>28.75</ele></trkpt>
   <trkpt lon="2.223015" lat="48.852415"><ele>30.0</ele></trkpt>
   <trkpt lon="2.223008" lat="48.852379"><ele>30.0</ele></trkpt>
   <trkpt lon="2.223037" lat="48.852253"><ele>30.0</ele></trkpt>
   <trkpt lon="2.223309" lat="48.851575"><ele>30.0</ele></trkpt>
   <trkpt lon="2.223336" lat="48.851508"><ele>29.75</ele></trkpt>
   <trkpt lon="2.223503" lat="48.851189"><ele>29.25</ele></trkpt>
   <trkpt lon="2.223638" lat="48.850822"><ele>29.5</ele></trkpt>
   <trkpt lon="2.223685" lat="48.850622"><ele>29.0</ele></trkpt>
   <trkpt lon="2.223800" lat="48.850124"><ele>29.5</ele></trkpt>
   <trkpt lon="2.223839" lat="48.849871"><ele>30.0</ele></trkpt>
   <trkpt lon="2.223825" lat="48.849694"><ele>30.0</ele></trkpt>
   <trkpt lon="2.223851" lat="48.849493"><ele>30.0</ele></trkpt>
   <trkpt lon="2.223863" lat="48.849431"><ele>30.0</ele></trkpt>
   <trkpt lon="2.223907" lat="48.849215"><ele>29.75</ele></trkpt>
   <trkpt lon="2.223944" lat="48.849025"><ele>29.25</ele></trkpt>
   <trkpt lon="2.223963" lat="48.848693"><ele>29.25</ele></trkpt>
   <trkpt lon="2.223893" lat="48.848089"><ele>29.75</ele></trkpt>
   <trkpt lon="2.223824" lat="48.847481"><ele>30.0</ele></trkpt>
   <trkpt lon="2.223787" lat="48.847163"><ele>30.0</ele></trkpt>
   <trkpt lon="2.223690" lat="48.846713"><ele>30.0</ele></trkpt>
   <trkpt lon="2.223657" lat="48.846562"><ele>30.0</ele></trkpt>
   <trkpt lon="2.223639" lat="48.846505"><ele>30.0</ele></trkpt>
   <trkpt lon="2.223537" lat="48.846175"><ele>30.0</ele></trkpt>
   <trkpt lon="2.223416" lat="48.845819"><ele>30.0</ele></trkpt>
   <trkpt lon="2.223379" lat="48.845672"><ele>30.0</ele></trkpt>
   <trkpt lon="2.223234" lat="48.845187"><ele>30.0</ele></trkpt>
   <trkpt lon="2.222952" lat="48.844218"><ele>30.25</ele></trkpt>
   <trkpt lon="2.223067" lat="48.843745"><ele>30.75</ele></trkpt>
   <trkpt lon="2.223073" lat="48.843706"><ele>30.75</ele></trkpt>
   <trkpt lon="2.223079" lat="48.843668"><ele>30.75</ele></trkpt>
   <trkpt lon="2.223108" lat="48.843538"><ele>30.25</ele></trkpt>
   <trkpt lon="2.223076" lat="48.843346"><ele>30.5</ele></trkpt>
   <trkpt lon="2.222956" lat="48.843034"><ele>30.75</ele></trkpt>
   <trkpt lon="2.222720" lat="48.842264"><ele>31.25</ele></trkpt>
   <trkpt lon="2.222513" lat="48.841595"><ele>31.0</ele></trkpt>
   <trkpt lon="2.222375" lat="48.841194"><ele>31.25</ele></trkpt>
   <trkpt lon="2.222149" lat="48.840524"><ele>33.0</ele></trkpt>
   <trkpt lon="2.222071" lat="48.840393"><ele>33.25</ele></trkpt>
   <trkpt lon="2.221738" lat="48.839998"><ele>34.0</ele></trkpt>
   <trkpt lon="2.221582" lat="48.839780"><ele>33.75</ele></trkpt>
   <trkpt lon="2.221504" lat="48.839523"><ele>32.5</ele></trkpt>
   <trkpt lon="2.221433" lat="48.839210"><ele>31.75</ele></trkpt>
   <trkpt lon="2.221401" lat="48.838920"><ele>31.0</ele></trkpt>
   <trkpt lon="2.221440" lat="48.838510"><ele>30.5</ele></trkpt>
   <trkpt lon="2.221503" lat="48.838131"><ele>30.0</ele></trkpt>
   <trkpt lon="2.222096" lat="48.835307"><ele>29.5</ele></trkpt>
   <trkpt lon="2.222116" lat="48.835095"><ele>29.5</ele></trkpt>
   <trkpt lon="2.222117" lat="48.834793"><ele>29.5</ele></trkpt>
   <trkpt lon="2.222117" lat="48.834482"><ele>29.5</ele></trkpt>
   <trkpt lon="2.222117" lat="48.834290"><ele>29.5</ele></trkpt>
   <trkpt lon="2.222117" lat="48.834150"><ele>29.5</ele></trkpt>
   <trkpt lon="2.222117" lat="48.834098"><ele>29.5</ele></trkpt>
   <trkpt lon="2.222117" lat="48.833330"><ele>29.5</ele></trkpt>
   <trkpt lon="2.222133" lat="48.832864"><ele>29.5</ele></trkpt>
   <trkpt lon="2.222182" lat="48.832503"><ele>29.75</ele></trkpt>
   <trkpt lon="2.222275" lat="48.832098"><ele>30.0</ele></trkpt>
   <trkpt lon="2.222466" lat="48.831382"><ele>29.75</ele></trkpt>
   <trkpt lon="2.222541" lat="48.831184"><ele>29.25</ele></trkpt>
   <trkpt lon="2.222637" lat="48.830976"><ele>29.25</ele></trkpt>
   <trkpt lon="2.222799" lat="48.830723"><ele>30.0</ele></trkpt>
   <trkpt lon="2.223358" lat="48.830084"><ele>30.25</ele></trkpt>
   <trkpt lon="2.223704" lat="48.829714"><ele>30.25</ele></trkpt>
   <trkpt lon="2.223934" lat="48.829435"><ele>31.0</ele></trkpt>
   <trkpt lon="2.223967" lat="48.829349"><ele>31.0</ele></trkpt>
   <trkpt lon="2.223951" lat="48.829243"><ele>31.0</ele></trkpt>
   <trkpt lon="2.223949" lat="48.829186"><ele>31.0</ele></trkpt>
   <trkpt lon="2.223933" lat="48.829147"><ele>31.0</ele></trkpt>
   <trkpt lon="2.223867" lat="48.829092"><ele>31.25</ele></trkpt>
   <trkpt lon="2.223818" lat="48.829030"><ele>31.25</ele></trkpt>
   <trkpt lon="2.223797" lat="48.828961"><ele>31.5</ele></trkpt>
   <trkpt lon="2.223806" lat="48.828904"><ele>31.75</ele></trkpt>
   <trkpt lon="2.223821" lat="48.828866"><ele>32.0</ele></trkpt>
   <trkpt lon="2.223846" lat="48.828834"><ele>32.0</ele></trkpt>
   <trkpt lon="2.223871" lat="48.828811"><ele>32.0</ele></trkpt>
   <trkpt lon="2.223969" lat="48.828752"><ele>32.0</ele></trkpt>
   <trkpt lon="2.224069" lat="48.828726"><ele>32.0</ele></trkpt>
   <trkpt lon="2.224286" lat="48.828612"><ele>31.75</ele></trkpt>
   <trkpt lon="2.224475" lat="48.828514"><ele>31.75</ele></trkpt>
   <trkpt lon="2.224543" lat="48.828476"><ele>31.5</ele></trkpt>
   <trkpt lon="2.224911" lat="48.828273"><ele>31.5</ele></trkpt>
   <trkpt lon="2.225080" lat="48.828081"><ele>33.5</ele></trkpt>
   <trkpt lon="2.225657" lat="48.827262"><ele>32.5</ele></trkpt>
   <trkpt lon="2.225956" lat="48.827092"><ele>31.5</ele></trkpt>
   <trkpt lon="2.226267" lat="48.826852"><ele>31.0</ele></trkpt>
   <trkpt lon="2.226727" lat="48.826397"><ele>30.75</ele></trkpt>
   <trkpt lon="2.226815" lat="48.826384"><ele>31.0</ele></trkpt>
   <trkpt lon="2.227181" lat="48.826058"><ele>31.5</ele></trkpt>
   <trkpt lon="2.227496" lat="48.825790"><ele>32.0</ele></trkpt>
   <trkpt lon="2.228071" lat="48.825288"><ele>31.5</ele></trkpt>
   <trkpt lon="2.228241" lat="48.825128"><ele>30.5</ele></trkpt>
   <trkpt lon="2.228739" lat="48.824626"><ele>31.0</ele></trkpt>
   <trkpt lon="2.229210" lat="48.824201"><ele>30.75</ele></trkpt>
   <trkpt lon="2.229445" lat="48.823990"><ele>30.75</ele></trkpt>
   <trkpt lon="2.229664" lat="48.823792"><ele>31.5</ele></trkpt>
   <trkpt lon="2.230074" lat="48.823443"><ele>31.25</ele></trkpt>
   <trkpt lon="2.230235" lat="48.823300"><ele>32.0</ele></trkpt>
   <trkpt lon="2.230477" lat="48.823136"><ele>32.25</ele></trkpt>
   <trkpt lon="2.231056" lat="48.822857"><ele>30.25</ele></trkpt>
   <trkpt lon="2.232144" lat="48.822386"><ele>29.75</ele></trkpt>
   <trkpt lon="2.232598" lat="48.822178"><ele>30.25</ele></trkpt>
   <trkpt lon="2.233524" lat="48.821777"><ele>29.0</ele></trkpt>
   <trkpt lon="2.234225" lat="48.821506"><ele>29.25</ele></trkpt>
   <trkpt lon="2.234699" lat="48.821333"><ele>30.0</ele></trkpt>
   <trkpt lon="2.234756" lat="48.821293"><ele>30.25</ele></trkpt>
   <trkpt lon="2.234807" lat="48.821276"><ele>30.25</ele></trkpt>
   <trkpt lon="2.234933" lat="48.821235"><ele>30.0</ele></trkpt>
   <trkpt lon="2.235037" lat="48.821200"><ele>29.75</ele></trkpt>
   <trkpt lon="2.235093" lat="48.821189"><ele>29.75</ele></trkpt>
   <trkpt lon="2.235678" lat="48.820988"><ele>30.25</ele></trkpt>
   <trkpt lon="2.236289" lat="48.820856"><ele>30.75</ele></trkpt>
   <trkpt lon="2.236502" lat="48.820802"><ele>31.0</ele></trkpt>
   <trkpt lon="2.236831" lat="48.820743"><ele>31.5</ele></trkpt>
   <trkpt lon="2.236983" lat="48.820711"><ele>31.75</ele></trkpt>
   <trkpt lon="2.237881" lat="48.820551"><ele>30.5</ele></trkpt>
   <trkpt lon="2.238743" lat="48.820407"><ele>28.5</ele></trkpt>
   <trkpt lon="2.239121" lat="48.820345"><ele>29.0</ele></trkpt>
   <trkpt lon="2.239588" lat="48.820284"><ele>29.75</ele></trkpt>
   <trkpt lon="2.239954" lat="48.820227"><ele>30.0</ele></trkpt>
   <trkpt lon="2.240342" lat="48.820196"><ele>30.0</ele></trkpt>
   <trkpt lon="2.240475" lat="48.820194"><ele>29.75</ele></trkpt>
   <trkpt lon="2.240841" lat="48.820188"><ele>28.75</ele></trkpt>
   <trkpt lon="2.241301" lat="48.820191"><ele>30.0</ele></trkpt>
   <trkpt lon="2.241623" lat="48.820210"><ele>30.0</ele></trkpt>
   <trkpt lon="2.241977" lat="48.820239"><ele>30.0</ele></trkpt>
   <trkpt lon="2.242524" lat="48.820263"><ele>30.0</ele></trkpt>
   <trkpt lon="2.242516" lat="48.820230"><ele>30.0</ele></trkpt>
   <trkpt lon="2.242509" lat="48.820196"><ele>30.25</ele></trkpt>
   <trkpt lon="2.242495" lat="48.820161"><ele>30.25</ele></trkpt>
   <trkpt lon="2.242486" lat="48.820140"><ele>30.5</ele></trkpt>
   <trkpt lon="2.242471" lat="48.820101"><ele>30.5</ele></trkpt>
   <trkpt lon="2.242543" lat="48.820076"><ele>30.5</ele></trkpt>
   <trkpt lon="2.242647" lat="48.820004"><ele>30.75</ele></trkpt>
   <trkpt lon="2.242671" lat="48.819961"><ele>31.25</ele></trkpt>
   <trkpt lon="2.242714" lat="48.819925"><ele>31.5</ele></trkpt>
   <trkpt lon="2.242683" lat="48.819810"><ele>32.25</ele></trkpt>
   <trkpt lon="2.242652" lat="48.819617"><ele>34.0</ele></trkpt>
   <trkpt lon="2.242626" lat="48.819314"><ele>36.0</ele></trkpt>
   <trkpt lon="2.242619" lat="48.819220"><ele>36.0</ele></trkpt>
   <trkpt lon="2.242616" lat="48.819192"><ele>36.0</ele></trkpt>
   <trkpt lon="2.242615" lat="48.819177"><ele>36.0</ele></trkpt>
   <trkpt lon="2.242599" lat="48.819032"><ele>36.75</ele></trkpt>
   <trkpt lon="2.242524" lat="48.819002"><ele>37.0</ele></trkpt>
   <trkpt lon="2.242489" lat="48.818994"><ele>37.25</ele></trkpt>
   <trkpt lon="2.242349" lat="48.818972"><ele>37.5</ele></trkpt>
   <trkpt lon="2.242309" lat="48.818966"><ele>37.75</ele></trkpt>
   <trkpt lon="2.241114" lat="48.818798"><ele>44.25</ele></trkpt>
   <trkpt lon="2.240860" lat="48.818769"><ele>46.0</ele></trkpt>
   <trkpt lon="2.240627" lat="48.818751"><ele>47.5</ele></trkpt>
   <trkpt lon="2.239733" lat="48.818777"><ele>51.5</ele></trkpt>
   <trkpt lon="2.239569" lat="48.818783"><ele>52.5</ele></trkpt>
   <trkpt lon="2.239517" lat="48.818785"><ele>52.75</ele></trkpt>
   <trkpt lon="2.239487" lat="48.818786"><ele>53.0</ele></trkpt>
   <trkpt lon="2.239374" lat="48.818790"><ele>53.5</ele></trkpt>
   <trkpt lon="2.239239" lat="48.818794"><ele>54.0</ele></trkpt>
   <trkpt lon="2.239212" lat="48.818795"><ele>54.0</ele></trkpt>
   <trkpt lon="2.239170" lat="48.818796"><ele>54.25</ele></trkpt>
   <trkpt lon="2.238772" lat="48.818810"><ele>54.75</ele></trkpt>
   <trkpt lon="2.238555" lat="48.818809"><ele>55.5</ele></trkpt>
   <trkpt lon="2.237880" lat="48.818810"><ele>57.25</ele></trkpt>
   <trkpt lon="2.236952" lat="48.818893"><ele>59.5</ele></trkpt>
   <trkpt lon="2.236619" lat="48.818907"><ele>60.0</ele></trkpt>
   <trkpt lon="2.236468" lat="48.818906"><ele>61.25</ele></trkpt>
   <trkpt lon="2.236385" lat="48.818906"><ele>61.75</ele></trkpt>
   <trkpt lon="2.235693" lat="48.818896"><ele>65.25</ele></trkpt>
   <trkpt lon="2.235377" lat="48.818872"><ele>71.5</ele></trkpt>
   <trkpt lon="2.234799" lat="48.818830"><ele>71.5</ele></trkpt>
   <trkpt lon="2.234683" lat="48.818825"><ele>72.5</ele></trkpt>
   <trkpt lon="2.234555" lat="48.818830"><ele>73.25</ele></trkpt>
   <trkpt lon="2.234463" lat="48.818849"><ele>73.5</ele></trkpt>
   <trkpt lon="2.234362" lat="48.818876"><ele>74.0</ele></trkpt>
   <trkpt lon="2.234131" lat="48.818944"><ele>75.25</ele></trkpt>
   <trkpt lon="2.233807" lat="48.819012"><ele>77.5</ele></trkpt>
   <trkpt lon="2.233380" lat="48.819037"><ele>81.0</ele></trkpt>
   <trkpt lon="2.233004" lat="48.819018"><ele>85.25</ele></trkpt>
   <trkpt lon="2.232654" lat="48.818980"><ele>86.75</ele></trkpt>
   <trkpt lon="2.232369" lat="48.818946"><ele>88.25</ele></trkpt>
   <trkpt lon="2.232319" lat="48.818940"><ele>88.5</ele></trkpt>
   <trkpt lon="2.232047" lat="48.818896"><ele>90.25</ele></trkpt>
   <trkpt lon="2.231823" lat="48.818831"><ele>92.5</ele></trkpt>
   <trkpt lon="2.231572" lat="48.818723"><ele>95.5</ele></trkpt>
   <trkpt lon="2.231489" lat="48.818677"><ele>97.0</ele></trkpt>
   <trkpt lon="2.231456" lat="48.818658"><ele>97.5</ele></trkpt>
   <trkpt lon="2.231344" lat="48.818595"><ele>98.25</ele></trkpt>
   <trkpt lon="2.231291" lat="48.818565"><ele>97.5</ele></trkpt>
   <trkpt lon="2.231254" lat="48.818545"><ele>97.0</ele></trkpt>
   <trkpt lon="2.231229" lat="48.818533"><ele>97.0</ele></trkpt>
   <trkpt lon="2.231200" lat="48.818517"><ele>97.0</ele></trkpt>
   <trkpt lon="2.231170" lat="48.818501"><ele>97.25</ele></trkpt>
   <trkpt lon="2.230947" lat="48.818378"><ele>97.75</ele></trkpt>
   <trkpt lon="2.230732" lat="48.818257"><ele>98.0</ele></trkpt>
   <trkpt lon="2.230662" lat="48.818218"><ele>98.0</ele></trkpt>
   <trkpt lon="2.230308" lat="48.817995"><ele>99.0</ele></trkpt>
   <trkpt lon="2.230285" lat="48.817980"><ele>99.0</ele></trkpt>
   <trkpt lon="2.230261" lat="48.817965"><ele>99.25</ele></trkpt>
   <trkpt lon="2.230131" lat="48.817908"><ele>100.0</ele></trkpt>
   <trkpt lon="2.230107" lat="48.817923"><ele>100.0</ele></trkpt>
   <trkpt lon="2.230047" lat="48.817942"><ele>100.0</ele></trkpt>
   <trkpt lon="2.229999" lat="48.817944"><ele>100.25</ele></trkpt>
   <trkpt lon="2.229952" lat="48.817936"><ele>100.5</ele></trkpt>
   <trkpt lon="2.229911" lat="48.817920"><ele>100.5</ele></trkpt>
   <trkpt lon="2.229880" lat="48.817896"><ele>100.75</ele></trkpt>
   <trkpt lon="2.229862" lat="48.817870"><ele>100.75</ele></trkpt>
   <trkpt lon="2.229855" lat="48.817841"><ele>101.0</ele></trkpt>
   <trkpt lon="2.229685" lat="48.817649"><ele>102.5</ele></trkpt>
   <trkpt lon="2.229577" lat="48.817563"><ele>103.0</ele></trkpt>
   <trkpt lon="2.229425" lat="48.817488"><ele>104.0</ele></trkpt>
   <trkpt lon="2.229014" lat="48.817384"><ele>104.5</ele></trkpt>
   <trkpt lon="2.228886" lat="48.817347"><ele>105.0</ele></trkpt>
   <trkpt lon="2.228732" lat="48.817288"><ele>105.75</ele></trkpt>
   <trkpt lon="2.228634" lat="48.817251"><ele>105.75</ele></trkpt>
   <trkpt lon="2.227990" lat="48.816985"><ele>106.5</ele></trkpt>
   <trkpt lon="2.227684" lat="48.816856"><ele>107.25</ele></trkpt>
   <trkpt lon="2.227565" lat="48.816805"><ele>107.0</ele></trkpt>
   <trkpt lon="2.227456" lat="48.816759"><ele>107.25</ele></trkpt>
   <trkpt lon="2.227314" lat="48.816700"><ele>107.5</ele></trkpt>
   <trkpt lon="2.227204" lat="48.816660"><ele>107.75</ele></trkpt>
   <trkpt lon="2.227112" lat="48.816627"><ele>107.5</ele></trkpt>
   <trkpt lon="2.227158" lat="48.816593"><ele>108.0</ele></trkpt>
   <trkpt lon="2.227211" lat="48.816545"><ele>108.75</ele></trkpt>
   <trkpt lon="2.227252" lat="48.816482"><ele>109.25</ele></trkpt>
   <trkpt lon="2.227270" lat="48.816454"><ele>109.5</ele></trkpt>
   <trkpt lon="2.227336" lat="48.816347"><ele>110.25</ele></trkpt>
   <trkpt lon="2.227496" lat="48.816088"><ele>113.0</ele></trkpt>
   <trkpt lon="2.227509" lat="48.816068"><ele>113.25</ele></trkpt>
   <trkpt lon="2.227768" lat="48.815650"><ele>117.5</ele></trkpt>
   <trkpt lon="2.227935" lat="48.815437"><ele>119.5</ele></trkpt>
   <trkpt lon="2.227990" lat="48.815366"><ele>120.0</ele></trkpt>
   <trkpt lon="2.228051" lat="48.815288"><ele>120.75</ele></trkpt>
   <trkpt lon="2.229071" lat="48.813955"><ele>129.25</ele></trkpt>
   <trkpt lon="2.229129" lat="48.813867"><ele>130.0</ele></trkpt>
   <trkpt lon="2.229138" lat="48.813857"><ele>130.25</ele></trkpt>
   <trkpt lon="2.229628" lat="48.813217"><ele>139.5</ele></trkpt>
   <trkpt lon="2.229832" lat="48.812951"><ele>139.5</ele></trkpt>
   <trkpt lon="2.229881" lat="48.812872"><ele>139.5</ele></trkpt>
   <trkpt lon="2.229937" lat="48.812743"><ele>139.75</ele></trkpt>
   <trkpt lon="2.230003" lat="48.812463"><ele>140.25</ele></trkpt>
   <trkpt lon="2.230012" lat="48.812432"><ele>140.5</ele></trkpt>
   <trkpt lon="2.230028" lat="48.812372"><ele>140.75</ele></trkpt>
   <trkpt lon="2.230112" lat="48.812117"><ele>141.5</ele></trkpt>
   <trkpt lon="2.230189" lat="48.811923"><ele>141.75</ele></trkpt>
   <trkpt lon="2.230143" lat="48.811902"><ele>142.25</ele></trkpt>
   <trkpt lon="2.230096" lat="48.811850"><ele>142.75</ele></trkpt>
   <trkpt lon="2.230101" lat="48.811790"><ele>143.25</ele></trkpt>
   <trkpt lon="2.230145" lat="48.811428"><ele>145.5</ele></trkpt>
   <trkpt lon="2.230222" lat="48.810804"><ele>149.0</ele></trkpt>
   <trkpt lon="2.230265" lat="48.810459"><ele>153.25</ele></trkpt>
   <trkpt lon="2.230260" lat="48.810381"><ele>154.5</ele></trkpt>
   <trkpt lon="2.230233" lat="48.810348"><ele>155.0</ele></trkpt>
   <trkpt lon="2.230160" lat="48.810319"><ele>155.75</ele></trkpt>
   <trkpt lon="2.230071" lat="48.810305"><ele>156.25</ele></trkpt>
   <trkpt lon="2.230068" lat="48.810305"><ele>156.25</ele></trkpt>
   <trkpt lon="2.229543" lat="48.810252"><ele>158.5</ele></trkpt>
   <trkpt lon="2.229188" lat="48.810216"><ele>160.75</ele></trkpt>
   <trkpt lon="2.228589" lat="48.810152"><ele>162.25</ele></trkpt>
   <trkpt lon="2.228066" lat="48.810096"><ele>163.75</ele></trkpt>
   <trkpt lon="2.227965" lat="48.810087"><ele>164.0</ele></trkpt>
   <trkpt lon="2.228066" lat="48.810096"><ele>163.75</ele></trkpt>
   <trkpt lon="2.228404" lat="48.810132"><ele>162.25</ele></trkpt>
   <trkpt lon="2.228589" lat="48.810152"><ele>162.25</ele></trkpt>
   <trkpt lon="2.229188" lat="48.810216"><ele>160.75</ele></trkpt>
   <trkpt lon="2.229543" lat="48.810252"><ele>158.5</ele></trkpt>
   <trkpt lon="2.230068" lat="48.810305"><ele>156.25</ele></trkpt>
   <trkpt lon="2.230160" lat="48.810319"><ele>155.75</ele></trkpt>
   <trkpt lon="2.230233" lat="48.810348"><ele>155.0</ele></trkpt>
   <trkpt lon="2.230260" lat="48.810381"><ele>154.5</ele></trkpt>
   <trkpt lon="2.230265" lat="48.810459"><ele>153.25</ele></trkpt>
   <trkpt lon="2.230222" lat="48.810804"><ele>149.0</ele></trkpt>
   <trkpt lon="2.230145" lat="48.811428"><ele>145.5</ele></trkpt>
   <trkpt lon="2.230101" lat="48.811790"><ele>143.25</ele></trkpt>
   <trkpt lon="2.230096" lat="48.811850"><ele>142.75</ele></trkpt>
   <trkpt lon="2.230143" lat="48.811902"><ele>142.25</ele></trkpt>
   <trkpt lon="2.230189" lat="48.811923"><ele>141.75</ele></trkpt>
   <trkpt lon="2.230112" lat="48.812117"><ele>141.5</ele></trkpt>
   <trkpt lon="2.230028" lat="48.812372"><ele>140.75</ele></trkpt>
   <trkpt lon="2.230012" lat="48.812432"><ele>140.5</ele></trkpt>
   <trkpt lon="2.230003" lat="48.812463"><ele>140.25</ele></trkpt>
   <trkpt lon="2.229937" lat="48.812743"><ele>139.75</ele></trkpt>
   <trkpt lon="2.229881" lat="48.812872"><ele>139.5</ele></trkpt>
   <trkpt lon="2.229832" lat="48.812951"><ele>139.5</ele></trkpt>
   <trkpt lon="2.229138" lat="48.813857"><ele>130.25</ele></trkpt>
   <trkpt lon="2.229129" lat="48.813867"><ele>130.0</ele></trkpt>
   <trkpt lon="2.229071" lat="48.813955"><ele>129.25</ele></trkpt>
   <trkpt lon="2.228051" lat="48.815288"><ele>120.75</ele></trkpt>
   <trkpt lon="2.227990" lat="48.815366"><ele>120.0</ele></trkpt>
   <trkpt lon="2.227935" lat="48.815437"><ele>119.5</ele></trkpt>
   <trkpt lon="2.227768" lat="48.815650"><ele>117.5</ele></trkpt>
   <trkpt lon="2.227509" lat="48.816068"><ele>113.25</ele></trkpt>
   <trkpt lon="2.227496" lat="48.816088"><ele>113.0</ele></trkpt>
   <trkpt lon="2.227336" lat="48.816347"><ele>110.25</ele></trkpt>
   <trkpt lon="2.227270" lat="48.816454"><ele>109.5</ele></trkpt>
   <trkpt lon="2.227252" lat="48.816482"><ele>109.25</ele></trkpt>
   <trkpt lon="2.227211" lat="48.816545"><ele>108.75</ele></trkpt>
   <trkpt lon="2.227158" lat="48.816593"><ele>108.0</ele></trkpt>
   <trkpt lon="2.227112" lat="48.816627"><ele>107.5</ele></trkpt>
   <trkpt lon="2.227204" lat="48.816660"><ele>107.75</ele></trkpt>
   <trkpt lon="2.227314" lat="48.816700"><ele>107.5</ele></trkpt>
   <trkpt lon="2.227456" lat="48.816759"><ele>107.25</ele></trkpt>
   <trkpt lon="2.227565" lat="48.816805"><ele>107.0</ele></trkpt>
   <trkpt lon="2.227684" lat="48.816856"><ele>107.25</ele></trkpt>
   <trkpt lon="2.227990" lat="48.816985"><ele>106.5</ele></trkpt>
   <trkpt lon="2.228634" lat="48.817251"><ele>105.75</ele></trkpt>
   <trkpt lon="2.228886" lat="48.817347"><ele>105.0</ele></trkpt>
   <trkpt lon="2.229014" lat="48.817384"><ele>104.5</ele></trkpt>
   <trkpt lon="2.229425" lat="48.817488"><ele>104.0</ele></trkpt>
   <trkpt lon="2.229524" lat="48.817499"><ele>103.5</ele></trkpt>
   <trkpt lon="2.229555" lat="48.817505"><ele>103.5</ele></trkpt>
   <trkpt lon="2.229586" lat="48.817511"><ele>103.25</ele></trkpt>
   <trkpt lon="2.229761" lat="48.817572"><ele>102.5</ele></trkpt>
   <trkpt lon="2.229918" lat="48.817647"><ele>102.0</ele></trkpt>
   <trkpt lon="2.229948" lat="48.817669"><ele>101.75</ele></trkpt>
   <trkpt lon="2.230046" lat="48.817740"><ele>101.0</ele></trkpt>
   <trkpt lon="2.230100" lat="48.817755"><ele>100.75</ele></trkpt>
   <trkpt lon="2.230136" lat="48.817777"><ele>100.5</ele></trkpt>
   <trkpt lon="2.230160" lat="48.817806"><ele>100.25</ele></trkpt>
   <trkpt lon="2.230169" lat="48.817838"><ele>100.0</ele></trkpt>
   <trkpt lon="2.230163" lat="48.817871"><ele>100.0</ele></trkpt>
   <trkpt lon="2.230131" lat="48.817908"><ele>100.0</ele></trkpt>
   <trkpt lon="2.230107" lat="48.817923"><ele>100.0</ele></trkpt>
   <trkpt lon="2.230047" lat="48.817942"><ele>100.0</ele></trkpt>
   <trkpt lon="2.229868" lat="48.818079"><ele>99.75</ele></trkpt>
   <trkpt lon="2.229600" lat="48.818260"><ele>99.25</ele></trkpt>
   <trkpt lon="2.229516" lat="48.818614"><ele>98.5</ele></trkpt>
   <trkpt lon="2.229459" lat="48.818855"><ele>98.0</ele></trkpt>
   <trkpt lon="2.229442" lat="48.818941"><ele>97.75</ele></trkpt>
   <trkpt lon="2.229382" lat="48.819186"><ele>95.75</ele></trkpt>
   <trkpt lon="2.229353" lat="48.819305"><ele>95.5</ele></trkpt>
   <trkpt lon="2.229333" lat="48.819390"><ele>95.75</ele></trkpt>
   <trkpt lon="2.229202" lat="48.819942"><ele>92.0</ele></trkpt>
   <trkpt lon="2.229139" lat="48.820102"><ele>91.5</ele></trkpt>
   <trkpt lon="2.229085" lat="48.820166"><ele>91.0</ele></trkpt>
   <trkpt lon="2.228986" lat="48.820240"><ele>90.25</ele></trkpt>
   <trkpt lon="2.228942" lat="48.820268"><ele>90.0</ele></trkpt>
   <trkpt lon="2.228895" lat="48.820299"><ele>90.0</ele></trkpt>
   <trkpt lon="2.228108" lat="48.820836"><ele>88.75</ele></trkpt>
   <trkpt lon="2.228040" lat="48.820882"><ele>88.75</ele></trkpt>
   <trkpt lon="2.227698" lat="48.821120"><ele>88.0</ele></trkpt>
   <trkpt lon="2.227649" lat="48.821155"><ele>87.75</ele></trkpt>
   <trkpt lon="2.227307" lat="48.821390"><ele>87.75</ele></trkpt>
   <trkpt lon="2.227240" lat="48.821436"><ele>87.75</ele></trkpt>
   <trkpt lon="2.227175" lat="48.821476"><ele>87.5</ele></trkpt>
   <trkpt lon="2.227120" lat="48.821512"><ele>87.5</ele></trkpt>
   <trkpt lon="2.226264" lat="48.822104"><ele>87.0</ele></trkpt>
   <trkpt lon="2.225651" lat="48.822524"><ele>85.75</ele></trkpt>
   <trkpt lon="2.225415" lat="48.822702"><ele>85.25</ele></trkpt>
   <trkpt lon="2.225315" lat="48.822766"><ele>85.0</ele></trkpt>
   <trkpt lon="2.225241" lat="48.822811"><ele>84.75</ele></trkpt>
   <trkpt lon="2.225150" lat="48.822868"><ele>84.5</ele></trkpt>
   <trkpt lon="2.225069" lat="48.822922"><ele>84.25</ele></trkpt>
   <trkpt lon="2.224773" lat="48.823124"><ele>83.25</ele></trkpt>
   <trkpt lon="2.224596" lat="48.823210"><ele>82.75</ele></trkpt>
   <trkpt lon="2.224522" lat="48.823233"><ele>82.25</ele></trkpt>
   <trkpt lon="2.224382" lat="48.823269"><ele>81.5</ele></trkpt>
   <trkpt lon="2.224155" lat="48.823299"><ele>80.0</ele></trkpt>
   <trkpt lon="2.223923" lat="48.823294"><ele>79.25</ele></trkpt>
   <trkpt lon="2.223628" lat="48.823253"><ele>78.25</ele></trkpt>
   <trkpt lon="2.223430" lat="48.823199"><ele>77.75</ele></trkpt>
   <trkpt lon="2.223258" lat="48.823141"><ele>76.5</ele></trkpt>
   <trkpt lon="2.223128" lat="48.823090"><ele>75.0</ele></trkpt>
   <trkpt lon="2.222893" lat="48.823013"><ele>73.5</ele></trkpt>
   <trkpt lon="2.222785" lat="48.822967"><ele>73.0</ele></trkpt>
   <trkpt lon="2.222729" lat="48.822974"><ele>73.0</ele></trkpt>
   <trkpt lon="2.222687" lat="48.822967"><ele>73.0</ele></trkpt>
   <trkpt lon="2.222650" lat="48.822952"><ele>73.25</ele></trkpt>
   <trkpt lon="2.222506" lat="48.822903"><ele>73.25</ele></trkpt>
   <trkpt lon="2.222457" lat="48.822908"><ele>73.25</ele></trkpt>
   <trkpt lon="2.222186" lat="48.822934"><ele>72.0</ele></trkpt>
   <trkpt lon="2.221976" lat="48.822953"><ele>70.5</ele></trkpt>
   <trkpt lon="2.221738" lat="48.822985"><ele>69.25</ele></trkpt>
   <trkpt lon="2.221584" lat="48.823019"><ele>68.25</ele></trkpt>
   <trkpt lon="2.221485" lat="48.823051"><ele>67.25</ele></trkpt>
   <trkpt lon="2.220849" lat="48.823290"><ele>62.75</ele></trkpt>
   <trkpt lon="2.220800" lat="48.823319"><ele>62.0</ele></trkpt>
   <trkpt lon="2.220768" lat="48.823338"><ele>61.5</ele></trkpt>
   <trkpt lon="2.220663" lat="48.823402"><ele>60.75</ele></trkpt>
   <trkpt lon="2.220655" lat="48.823505"><ele>60.0</ele></trkpt>
   <trkpt lon="2.220590" lat="48.823607"><ele>59.0</ele></trkpt>
   <trkpt lon="2.220452" lat="48.823988"><ele>55.0</ele></trkpt>
   <trkpt lon="2.220284" lat="48.824451"><ele>49.0</ele></trkpt>
   <trkpt lon="2.220148" lat="48.824665"><ele>48.75</ele></trkpt>
   <trkpt lon="2.219865" lat="48.825442"><ele>42.75</ele></trkpt>
   <trkpt lon="2.219783" lat="48.825679"><ele>41.75</ele></trkpt>
   <trkpt lon="2.219741" lat="48.825855"><ele>40.75</ele></trkpt>
   <trkpt lon="2.219694" lat="48.825917"><ele>40.25</ele></trkpt>
   <trkpt lon="2.219619" lat="48.825981"><ele>40.0</ele></trkpt>
   <trkpt lon="2.219501" lat="48.826326"><ele>38.0</ele></trkpt>
   <trkpt lon="2.219488" lat="48.826364"><ele>38.0</ele></trkpt>
   <trkpt lon="2.219482" lat="48.826385"><ele>37.75</ele></trkpt>
   <trkpt lon="2.219457" lat="48.826475"><ele>37.75</ele></trkpt>
   <trkpt lon="2.219447" lat="48.826519"><ele>37.75</ele></trkpt>
   <trkpt lon="2.219423" lat="48.826555"><ele>38.0</ele></trkpt>
   <trkpt lon="2.219343" lat="48.826620"><ele>38.25</ele></trkpt>
   <trkpt lon="2.219326" lat="48.826653"><ele>38.25</ele></trkpt>
   <trkpt lon="2.219321" lat="48.826669"><ele>38.25</ele></trkpt>
   <trkpt lon="2.219315" lat="48.826683"><ele>38.5</ele></trkpt>
   <trkpt lon="2.219242" lat="48.826876"><ele>40.75</ele></trkpt>
   <trkpt lon="2.219206" lat="48.826987"><ele>42.0</ele></trkpt>
   <trkpt lon="2.219139" lat="48.827099"><ele>44.0</ele></trkpt>
   <trkpt lon="2.219165" lat="48.827148"><ele>44.0</ele></trkpt>
   <trkpt lon="2.219180" lat="48.827159"><ele>44.25</ele></trkpt>
   <trkpt lon="2.219290" lat="48.827240"><ele>45.0</ele></trkpt>
   <trkpt lon="2.219494" lat="48.827408"><ele>45.0</ele></trkpt>
   <trkpt lon="2.220754" lat="48.828507"><ele>40.5</ele></trkpt>
   <trkpt lon="2.221408" lat="48.829077"><ele>34.25</ele></trkpt>
   <trkpt lon="2.221823" lat="48.829468"><ele>32.25</ele></trkpt>
   <trkpt lon="2.223103" lat="48.829779"><ele>30.0</ele></trkpt>
   <trkpt lon="2.223207" lat="48.829591"><ele>30.0</ele></trkpt>
   <trkpt lon="2.223231" lat="48.829547"><ele>30.0</ele></trkpt>
   <trkpt lon="2.223474" lat="48.829600"><ele>30.0</ele></trkpt>
   <trkpt lon="2.223713" lat="48.829162"><ele>31.0</ele></trkpt>
   <trkpt lon="2.223774" lat="48.829116"><ele>31.0</ele></trkpt>
   <trkpt lon="2.223867" lat="48.829092"><ele>31.25</ele></trkpt>
   <trkpt lon="2.223933" lat="48.829147"><ele>31.0</ele></trkpt>
   <trkpt lon="2.223949" lat="48.829186"><ele>31.0</ele></trkpt>
   <trkpt lon="2.223951" lat="48.829243"><ele>31.0</ele></trkpt>
   <trkpt lon="2.223967" lat="48.829349"><ele>31.0</ele></trkpt>
   <trkpt lon="2.223934" lat="48.829435"><ele>31.0</ele></trkpt>
   <trkpt lon="2.223704" lat="48.829714"><ele>30.25</ele></trkpt>
   <trkpt lon="2.223358" lat="48.830084"><ele>30.25</ele></trkpt>
   <trkpt lon="2.222799" lat="48.830723"><ele>30.0</ele></trkpt>
   <trkpt lon="2.222827" lat="48.830903"><ele>30.0</ele></trkpt>
   <trkpt lon="2.222760" lat="48.831005"><ele>29.75</ele></trkpt>
   <trkpt lon="2.222601" lat="48.831397"><ele>30.0</ele></trkpt>
   <trkpt lon="2.222399" lat="48.832107"><ele>30.0</ele></trkpt>
   <trkpt lon="2.222313" lat="48.832512"><ele>30.25</ele></trkpt>
   <trkpt lon="2.222266" lat="48.832867"><ele>30.0</ele></trkpt>
   <trkpt lon="2.222251" lat="48.833178"><ele>30.0</ele></trkpt>
   <trkpt lon="2.222246" lat="48.833572"><ele>30.0</ele></trkpt>
   <trkpt lon="2.222240" lat="48.834035"><ele>30.0</ele></trkpt>
   <trkpt lon="2.222242" lat="48.834065"><ele>30.0</ele></trkpt>
   <trkpt lon="2.222246" lat="48.834302"><ele>30.0</ele></trkpt>
   <trkpt lon="2.222251" lat="48.834707"><ele>30.0</ele></trkpt>
   <trkpt lon="2.222245" lat="48.835098"><ele>30.0</ele></trkpt>
   <trkpt lon="2.222219" lat="48.835314"><ele>29.75</ele></trkpt>
   <trkpt lon="2.221614" lat="48.838138"><ele>30.0</ele></trkpt>
   <trkpt lon="2.221551" lat="48.838524"><ele>30.25</ele></trkpt>
   <trkpt lon="2.221529" lat="48.838918"><ele>30.5</ele></trkpt>
   <trkpt lon="2.221552" lat="48.839205"><ele>31.5</ele></trkpt>
   <trkpt lon="2.221618" lat="48.839511"><ele>33.0</ele></trkpt>
   <trkpt lon="2.221690" lat="48.839764"><ele>33.75</ele></trkpt>
   <trkpt lon="2.221813" lat="48.839976"><ele>33.0</ele></trkpt>
   <trkpt lon="2.222143" lat="48.840366"><ele>31.75</ele></trkpt>
   <trkpt lon="2.222233" lat="48.840505"><ele>32.0</ele></trkpt>
   <trkpt lon="2.222465" lat="48.841219"><ele>29.25</ele></trkpt>
   <trkpt lon="2.222584" lat="48.841554"><ele>29.5</ele></trkpt>
   <trkpt lon="2.223098" lat="48.843137"><ele>30.0</ele></trkpt>
   <trkpt lon="2.223366" lat="48.844008"><ele>29.5</ele></trkpt>
   <trkpt lon="2.223481" lat="48.844409"><ele>27.75</ele></trkpt>
   <trkpt lon="2.223486" lat="48.844555"><ele>28.25</ele></trkpt>
   <trkpt lon="2.223640" lat="48.845095"><ele>28.75</ele></trkpt>
   <trkpt lon="2.223822" lat="48.845758"><ele>29.0</ele></trkpt>
   <trkpt lon="2.223877" lat="48.846019"><ele>29.5</ele></trkpt>
   <trkpt lon="2.223844" lat="48.846109"><ele>29.75</ele></trkpt>
   <trkpt lon="2.223851" lat="48.846274"><ele>30.0</ele></trkpt>
   <trkpt lon="2.223829" lat="48.846376"><ele>30.0</ele></trkpt>
   <trkpt lon="2.223783" lat="48.846457"><ele>29.75</ele></trkpt>
   <trkpt lon="2.223657" lat="48.846562"><ele>30.0</ele></trkpt>
   <trkpt lon="2.223443" lat="48.846669"><ele>30.0</ele></trkpt>
   <trkpt lon="2.223258" lat="48.846774"><ele>30.0</ele></trkpt>
   <trkpt lon="2.223076" lat="48.846918"><ele>29.0</ele></trkpt>
   <trkpt lon="2.222989" lat="48.847028"><ele>29.25</ele></trkpt>
   <trkpt lon="2.222952" lat="48.847122"><ele>29.5</ele></trkpt>
   <trkpt lon="2.222699" lat="48.847773"><ele>30.0</ele></trkpt>
   <trkpt lon="2.222535" lat="48.848237"><ele>30.5</ele></trkpt>
   <trkpt lon="2.222487" lat="48.848374"><ele>30.75</ele></trkpt>
   <trkpt lon="2.222339" lat="48.848834"><ele>31.75</ele></trkpt>
   <trkpt lon="2.222321" lat="48.848931"><ele>31.75</ele></trkpt>
   <trkpt lon="2.222353" lat="48.848981"><ele>31.75</ele></trkpt>
   <trkpt lon="2.222362" lat="48.849046"><ele>31.5</ele></trkpt>
   <trkpt lon="2.222356" lat="48.849095"><ele>31.5</ele></trkpt>
   <trkpt lon="2.222349" lat="48.849150"><ele>31.5</ele></trkpt>
   <trkpt lon="2.222329" lat="48.849190"><ele>31.5</ele></trkpt>
   <trkpt lon="2.222307" lat="48.849215"><ele>31.5</ele></trkpt>
   <trkpt lon="2.222149" lat="48.849303"><ele>31.5</ele></trkpt>
   <trkpt lon="2.222100" lat="48.849392"><ele>31.5</ele></trkpt>
   <trkpt lon="2.222089" lat="48.849420"><ele>31.5</ele></trkpt>
   <trkpt lon="2.222067" lat="48.849480"><ele>31.25</ele></trkpt>
   <trkpt lon="2.222028" lat="48.849586"><ele>31.25</ele></trkpt>
   <trkpt lon="2.221805" lat="48.850199"><ele>30.75</ele></trkpt>
   <trkpt lon="2.221779" lat="48.850268"><ele>30.5</ele></trkpt>
   <trkpt lon="2.221723" lat="48.850393"><ele>30.75</ele></trkpt>
   <trkpt lon="2.221604" lat="48.850801"><ele>31.25</ele></trkpt>
   <trkpt lon="2.221535" lat="48.850834"><ele>31.25</ele></trkpt>
   <trkpt lon="2.221458" lat="48.850845"><ele>31.5</ele></trkpt>
   <trkpt lon="2.221473" lat="48.850907"><ele>31.5</ele></trkpt>
   <trkpt lon="2.221487" lat="48.851037"><ele>31.0</ele></trkpt>
   <trkpt lon="2.221447" lat="48.851321"><ele>30.75</ele></trkpt>
   <trkpt lon="2.221440" lat="48.851364"><ele>30.75</ele></trkpt>
   <trkpt lon="2.221390" lat="48.851620"><ele>30.75</ele></trkpt>
   <trkpt lon="2.221333" lat="48.852010"><ele>31.25</ele></trkpt>
   <trkpt lon="2.221277" lat="48.852141"><ele>31.75</ele></trkpt>
   <trkpt lon="2.221230" lat="48.852203"><ele>31.75</ele></trkpt>
   <trkpt lon="2.221038" lat="48.852593"><ele>34.0</ele></trkpt>
   <trkpt lon="2.220951" lat="48.852804"><ele>35.0</ele></trkpt>
   <trkpt lon="2.220880" lat="48.852919"><ele>36.0</ele></trkpt>
   <trkpt lon="2.220707" lat="48.853133"><ele>37.75</ele></trkpt>
   <trkpt lon="2.220566" lat="48.853331"><ele>38.75</ele></trkpt>
   <trkpt lon="2.220479" lat="48.853477"><ele>39.5</ele></trkpt>
   <trkpt lon="2.220432" lat="48.853595"><ele>39.75</ele></trkpt>
   <trkpt lon="2.220399" lat="48.853752"><ele>40.25</ele></trkpt>
   <trkpt lon="2.220379" lat="48.853913"><ele>40.75</ele></trkpt>
   <trkpt lon="2.220371" lat="48.854151"><ele>41.25</ele></trkpt>
   <trkpt lon="2.220402" lat="48.854611"><ele>43.25</ele></trkpt>
   <trkpt lon="2.220403" lat="48.854680"><ele>43.25</ele></trkpt>
   <trkpt lon="2.220401" lat="48.854751"><ele>43.5</ele></trkpt>
   <trkpt lon="2.220399" lat="48.854830"><ele>43.25</ele></trkpt>
   <trkpt lon="2.220404" lat="48.855009"><ele>42.5</ele></trkpt>
   <trkpt lon="2.220469" lat="48.855375"><ele>42.25</ele></trkpt>
   <trkpt lon="2.220555" lat="48.855604"><ele>41.75</ele></trkpt>
   <trkpt lon="2.220579" lat="48.855667"><ele>41.25</ele></trkpt>
   <trkpt lon="2.220575" lat="48.855741"><ele>41.0</ele></trkpt>
   <trkpt lon="2.220973" lat="48.856588"><ele>39.0</ele></trkpt>
   <trkpt lon="2.221062" lat="48.856689"><ele>38.5</ele></trkpt>
   <trkpt lon="2.221094" lat="48.856682"><ele>38.0</ele></trkpt>
   <trkpt lon="2.221144" lat="48.856685"><ele>37.5</ele></trkpt>
   <trkpt lon="2.221173" lat="48.856696"><ele>37.25</ele></trkpt>
   <trkpt lon="2.221195" lat="48.856713"><ele>37.0</ele></trkpt>
   <trkpt lon="2.221207" lat="48.856743"><ele>37.0</ele></trkpt>
   <trkpt lon="2.221187" lat="48.856785"><ele>37.25</ele></trkpt>
   <trkpt lon="2.221161" lat="48.856800"><ele>37.5</ele></trkpt>
   <trkpt lon="2.221099" lat="48.856809"><ele>38.0</ele></trkpt>
   <trkpt lon="2.221048" lat="48.856895"><ele>38.25</ele></trkpt>
   <trkpt lon="2.221199" lat="48.857470"><ele>39.5</ele></trkpt>
   <trkpt lon="2.221220" lat="48.857586"><ele>39.25</ele></trkpt>
   <trkpt lon="2.221239" lat="48.857746"><ele>38.5</ele></trkpt>
   <trkpt lon="2.221300" lat="48.858274"><ele>38.5</ele></trkpt>
   <trkpt lon="2.221485" lat="48.859827"><ele>35.25</ele></trkpt>
   <trkpt lon="2.221494" lat="48.859906"><ele>35.0</ele></trkpt>
   <trkpt lon="2.221496" lat="48.859915"><ele>35.0</ele></trkpt>
   <trkpt lon="2.221505" lat="48.859956"><ele>35.0</ele></trkpt>
   <trkpt lon="2.221514" lat="48.860009"><ele>35.0</ele></trkpt>
   <trkpt lon="2.221521" lat="48.860030"><ele>35.0</ele></trkpt>
   <trkpt lon="2.221702" lat="48.860641"><ele>34.75</ele></trkpt>
   <trkpt lon="2.221831" lat="48.861064"><ele>35.25</ele></trkpt>
   <trkpt lon="2.221962" lat="48.861494"><ele>35.25</ele></trkpt>
   <trkpt lon="2.221983" lat="48.861573"><ele>35.25</ele></trkpt>
   <trkpt lon="2.222188" lat="48.862274"><ele>36.0</ele></trkpt>
   <trkpt lon="2.222537" lat="48.863004"><ele>35.75</ele></trkpt>
   <trkpt lon="2.222561" lat="48.863052"><ele>35.75</ele></trkpt>
   <trkpt lon="2.222584" lat="48.863101"><ele>35.5</ele></trkpt>
   <trkpt lon="2.223003" lat="48.863971"><ele>36.0</ele></trkpt>
   <trkpt lon="2.223008" lat="48.864010"><ele>36.0</ele></trkpt>
   <trkpt lon="2.222991" lat="48.864053"><ele>36.0</ele></trkpt>
   <trkpt lon="2.222948" lat="48.864153"><ele>36.0</ele></trkpt>
   <trkpt lon="2.222909" lat="48.864231"><ele>36.0</ele></trkpt>
   <trkpt lon="2.222893" lat="48.864317"><ele>36.25</ele></trkpt>
   <trkpt lon="2.222908" lat="48.864378"><ele>36.25</ele></trkpt>
   <trkpt lon="2.222961" lat="48.864451"><ele>36.25</ele></trkpt>
   <trkpt lon="2.222997" lat="48.864517"><ele>36.0</ele></trkpt>
   <trkpt lon="2.223048" lat="48.864606"><ele>36.0</ele></trkpt>
   <trkpt lon="2.223110" lat="48.864685"><ele>35.75</ele></trkpt>
   <trkpt lon="2.223220" lat="48.864765"><ele>36.0</ele></trkpt>
   <trkpt lon="2.223521" lat="48.865133"><ele>35.75</ele></trkpt>
   <trkpt lon="2.223559" lat="48.865180"><ele>35.75</ele></trkpt>
   <trkpt lon="2.224097" lat="48.865836"><ele>35.75</ele></trkpt>
   <trkpt lon="2.224093" lat="48.865933"><ele>36.0</ele></trkpt>
   <trkpt lon="2.224161" lat="48.865946"><ele>36.0</ele></trkpt>
   <trkpt lon="2.224212" lat="48.865978"><ele>35.75</ele></trkpt>
   <trkpt lon="2.224235" lat="48.866025"><ele>35.75</ele></trkpt>
   <trkpt lon="2.224232" lat="48.866050"><ele>35.75</ele></trkpt>
   <trkpt lon="2.224311" lat="48.866084"><ele>35.75</ele></trkpt>
   <trkpt lon="2.224516" lat="48.866330"><ele>35.5</ele></trkpt>
   <trkpt lon="2.224599" lat="48.866436"><ele>35.25</ele></trkpt>
   <trkpt lon="2.224714" lat="48.866567"><ele>35.0</ele></trkpt>
   <trkpt lon="2.224975" lat="48.866796"><ele>35.0</ele></trkpt>
   <trkpt lon="2.225034" lat="48.866844"><ele>34.75</ele></trkpt>
   <trkpt lon="2.225062" lat="48.866868"><ele>34.75</ele></trkpt>
   <trkpt lon="2.225079" lat="48.866880"><ele>34.75</ele></trkpt>
   <trkpt lon="2.225236" lat="48.867003"><ele>35.0</ele></trkpt>
   <trkpt lon="2.225259" lat="48.867019"><ele>35.0</ele></trkpt>
   <trkpt lon="2.225396" lat="48.867098"><ele>34.5</ele></trkpt>
   <trkpt lon="2.225594" lat="48.867309"><ele>34.0</ele></trkpt>
   <trkpt lon="2.225661" lat="48.867387"><ele>34.0</ele></trkpt>
   <trkpt lon="2.225717" lat="48.867455"><ele>34.0</ele></trkpt>
   <trkpt lon="2.225728" lat="48.867490"><ele>34.0</ele></trkpt>
   <trkpt lon="2.225816" lat="48.867608"><ele>34.0</ele></trkpt>
   <trkpt lon="2.225828" lat="48.867635"><ele>34.0</ele></trkpt>
   <trkpt lon="2.225865" lat="48.867733"><ele>33.75</ele></trkpt>
   <trkpt lon="2.225905" lat="48.867799"><ele>33.75</ele></trkpt>
   <trkpt lon="2.225904" lat="48.867838"><ele>33.75</ele></trkpt>
   <trkpt lon="2.225514" lat="48.867973"><ele>34.25</ele></trkpt>
   <trkpt lon="2.225309" lat="48.868039"><ele>34.75</ele></trkpt>
   <trkpt lon="2.225222" lat="48.868066"><ele>35.0</ele></trkpt>
   <trkpt lon="2.224879" lat="48.868184"><ele>36.25</ele></trkpt>
   <trkpt lon="2.224298" lat="48.868379"><ele>38.5</ele></trkpt>
   <trkpt lon="2.224199" lat="48.868412"><ele>38.75</ele></trkpt>
   <trkpt lon="2.224173" lat="48.868422"><ele>38.75</ele></trkpt>
   <trkpt lon="2.224146" lat="48.868433"><ele>39.0</ele></trkpt>
   <trkpt lon="2.223985" lat="48.868511"><ele>39.5</ele></trkpt>
   <trkpt lon="2.223970" lat="48.868535"><ele>39.5</ele></trkpt>
   <trkpt lon="2.223942" lat="48.868558"><ele>39.75</ele></trkpt>
   <trkpt lon="2.223979" lat="48.868643"><ele>39.5</ele></trkpt>
   <trkpt lon="2.223986" lat="48.868674"><ele>39.5</ele></trkpt>
   <trkpt lon="2.224035" lat="48.868917"><ele>40.0</ele></trkpt>
   <trkpt lon="2.224064" lat="48.869060"><ele>40.0</ele></trkpt>
   <trkpt lon="2.224095" lat="48.869212"><ele>40.0</ele></trkpt>
   <trkpt lon="2.224211" lat="48.869713"><ele>40.75</ele></trkpt>
   <trkpt lon="2.224224" lat="48.869766"><ele>40.75</ele></trkpt>
   <trkpt lon="2.224231" lat="48.869797"><ele>40.75</ele></trkpt>
   <trkpt lon="2.224281" lat="48.869978"><ele>40.5</ele></trkpt>
   <trkpt lon="2.224284" lat="48.869990"><ele>40.5</ele></trkpt>
   <trkpt lon="2.224337" lat="48.870145"><ele>41.0</ele></trkpt>
   <trkpt lon="2.224392" lat="48.870246"><ele>41.75</ele></trkpt>
   <trkpt lon="2.224591" lat="48.870605"><ele>42.0</ele></trkpt>
   <trkpt lon="2.224612" lat="48.870650"><ele>42.25</ele></trkpt>
   <trkpt lon="2.224620" lat="48.870676"><ele>42.25</ele></trkpt>
   <trkpt lon="2.224614" lat="48.870802"><ele>42.75</ele></trkpt>
   <trkpt lon="2.224592" lat="48.870864"><ele>43.0</ele></trkpt>
   <trkpt lon="2.224492" lat="48.870998"><ele>43.25</ele></trkpt>
   <trkpt lon="2.224360" lat="48.871090"><ele>44.5</ele></trkpt>
   <trkpt lon="2.224153" lat="48.871148"><ele>46.0</ele></trkpt>
   <trkpt lon="2.224116" lat="48.871159"><ele>46.25</ele></trkpt>
   <trkpt lon="2.224088" lat="48.871166"><ele>46.25</ele></trkpt>
   <trkpt lon="2.224044" lat="48.871177"><ele>46.5</ele></trkpt>
   <trkpt lon="2.223292" lat="48.871363"><ele>53.5</ele></trkpt>
  </trkseg>
 </trk>
</gpx>
