<?xml version="1.0" encoding="UTF-8"?>
<!-- track-length = 40226 filtered ascend = 255 plain-ascend = -1 cost=86751 energy=.2kwh time=2h 15m 23s -->
<gpx 
 xmlns="http://www.topografix.com/GPX/1/1" 
 xmlns:xsi="http://www.w3.org/2001/XMLSchema-instance" 
 xsi:schemaLocation="http://www.topografix.com/GPX/1/1 http://www.topografix.com/GPX/1/1/gpx.xsd" 
 creator="BRouter-1.7.10" version="1.1">
 <trk>
  <name>Vallée de Chevreuse</name>
  <trkseg>
   <trkpt lon="2.071636" lat="48.702294"><ele>85.75</ele></trkpt>
   <trkpt lon="2.071037" lat="48.702239"><ele>87.25</ele></trkpt>
   <trkpt lon="2.069746" lat="48.702145"><ele>83.5</ele></trkpt>
   <trkpt lon="2.069613" lat="48.702135"><ele>83.5</ele></trkpt>
   <trkpt lon="2.069612" lat="48.702267"><ele>82.75</ele></trkpt>
   <trkpt lon="2.069609" lat="48.702489"><ele>81.5</ele></trkpt>
   <trkpt lon="2.069567" lat="48.702575"><ele>80.75</ele></trkpt>
   <trkpt lon="2.069614" lat="48.702717"><ele>80.0</ele></trkpt>
   <trkpt lon="2.069613" lat="48.702788"><ele>79.5</ele></trkpt>
   <trkpt lon="2.069612" lat="48.702906"><ele>79.0</ele></trkpt>
   <trkpt lon="2.069607" lat="48.703095"><ele>78.0</ele></trkpt>
   <trkpt lon="2.069449" lat="48.703089"><ele>77.75</ele></trkpt>
   <trkpt lon="2.069304" lat="48.703065"><ele>77.25</ele></trkpt>
   <trkpt lon="2.069191" lat="48.703037"><ele>77.0</ele></trkpt>
   <trkpt lon="2.069062" lat="48.702989"><ele>77.0</ele></trkpt>
   <trkpt lon="2.068936" lat="48.702919"><ele>76.5</ele></trkpt>
   <trkpt lon="2.068691" lat="48.702757"><ele>77.25</ele></trkpt>
   <trkpt lon="2.068572" lat="48.702705"><ele>77.75</ele></trkpt>
   <trkpt lon="2.068429" lat="48.702670"><ele>78.0</ele></trkpt>
   <trkpt lon="2.067263" lat="48.702514"><ele>76.75</ele></trkpt>
   <trkpt lon="2.066090" lat="48.702283"><ele>78.0</ele></trkpt>
   <trkpt lon="2.065703" lat="48.702195"><ele>77.5</ele></trkpt>
   <trkpt lon="2.065509" lat="48.702173"><ele>78.25</ele></trkpt>
   <trkpt lon="2.065341" lat="48.702159"><ele>79.0</ele></trkpt>
   <trkpt lon="2.065216" lat="48.702149"><ele>79.0</ele></trkpt>
   <trkpt lon="2.065105" lat="48.702157"><ele>78.5</ele></trkpt>
   <trkpt lon="2.065064" lat="48.702160"><ele>78.25</ele></trkpt>
   <trkpt lon="2.063228" lat="48.702200"><ele>80.25</ele></trkpt>
   <trkpt lon="2.062982" lat="48.702217"><ele>81.0</ele></trkpt>
   <trkpt lon="2.062784" lat="48.702243"><ele>80.75</ele></trkpt>
   <trkpt lon="2.062538" lat="48.702296"><ele>81.25</ele></trkpt>
   <trkpt lon="2.062201" lat="48.702383"><ele>80.75</ele></trkpt>
   <trkpt lon="2.061992" lat="48.702433"><ele>80.5</ele></trkpt>
   <trkpt lon="2.061743" lat="48.702466"><ele>80.25</ele></trkpt>
   <trkpt lon="2.060405" lat="48.702517"><ele>82.25</ele></trkpt>
   <trkpt lon="2.059504" lat="48.702523"><ele>83.75</ele></trkpt>
   <trkpt lon="2.057701" lat="48.702556"><ele>84.5</ele></trkpt>
   <trkpt lon="2.057406" lat="48.702536"><ele>83.75</ele></trkpt>
   <trkpt lon="2.056187" lat="48.702267"><ele>82.0</ele></trkpt>
   <trkpt lon="2.055737" lat="48.702179"><ele>82.0</ele></trkpt>
   <trkpt lon="2.055721" lat="48.702176"><ele>81.75</ele></trkpt>
   <trkpt lon="2.055616" lat="48.702161"><ele>81.75</ele></trkpt>
   <trkpt lon="2.055448" lat="48.702144"><ele>81.75</ele></trkpt>
   <trkpt lon="2.054838" lat="48.702071"><ele>82.75</ele></trkpt>
   <trkpt lon="2.053939" lat="48.701989"><ele>84.5</ele></trkpt>
   <trkpt lon="2.053652" lat="48.701976"><ele>85.5</ele></trkpt>
   <trkpt lon="2.053414" lat="48.701977"><ele>85.5</ele></trkpt>
   <trkpt lon="2.053268" lat="48.701985"><ele>85.75</ele></trkpt>
   <trkpt lon="2.052966" lat="48.702016"><ele>86.75</ele></trkpt>
   <trkpt lon="2.052198" lat="48.702108"><ele>88.25</ele></trkpt>
   <trkpt lon="2.050988" lat="48.702226"><ele>91.25</ele></trkpt>
   <trkpt lon="2.049415" lat="48.702269"><ele>94.75</ele></trkpt>
   <trkpt lon="2.049044" lat="48.702259"><ele>95.5</ele></trkpt>
   <trkpt lon="2.048318" lat="48.702215"><ele>96.0</ele></trkpt>
   <trkpt lon="2.048046" lat="48.702219"><ele>95.75</ele></trkpt>
   <trkpt lon="2.047748" lat="48.702241"><ele>94.75</ele></trkpt>
   <trkpt lon="2.047351" lat="48.702285"><ele>93.5</ele></trkpt>
   <trkpt lon="2.046967" lat="48.702319"><ele>92.5</ele></trkpt>
   <trkpt lon="2.046300" lat="48.702333"><ele>90.25</ele></trkpt>
   <trkpt lon="2.046101" lat="48.702350"><ele>89.5</ele></trkpt>
   <trkpt lon="2.045946" lat="48.702388"><ele>89.0</ele></trkpt>
   <trkpt lon="2.045724" lat="48.702458"><ele>89.0</ele></trkpt>
   <trkpt lon="2.044841" lat="48.702814"><ele>87.25</ele></trkpt>
   <trkpt lon="2.044640" lat="48.702947"><ele>87.5</ele></trkpt>
   <trkpt lon="2.044242" lat="48.703099"><ele>88.5</ele></trkpt>
   <trkpt lon="2.044235" lat="48.703124"><ele>88.75</ele></trkpt>
   <trkpt lon="2.044216" lat="48.703147"><ele>88.75</ele></trkpt>
   <trkpt lon="2.044188" lat="48.703165"><ele>88.75</ele></trkpt>
   <trkpt lon="2.044151" lat="48.703176"><ele>89.0</ele></trkpt>
   <trkpt lon="2.044111" lat="48.703179"><ele>89.0</ele></trkpt>
   <trkpt lon="2.044071" lat="48.703173"><ele>89.25</ele></trkpt>
   <trkpt lon="2.044037" lat="48.703159"><ele>89.5</ele></trkpt>
   <trkpt lon="2.043492" lat="48.703328"><ele>89.0</ele></trkpt>
   <trkpt lon="2.043181" lat="48.703425"><ele>88.25</ele></trkpt>
   <trkpt lon="2.042987" lat="48.703502"><ele>87.75</ele></trkpt>
   <trkpt lon="2.042932" lat="48.703547"><ele>87.25</ele></trkpt>
   <trkpt lon="2.042772" lat="48.703731"><ele>86.5</ele></trkpt>
   <trkpt lon="2.042688" lat="48.703802"><ele>86.0</ele></trkpt>
   <trkpt lon="2.042603" lat="48.703862"><ele>85.5</ele></trkpt>
   <trkpt lon="2.042508" lat="48.703908"><ele>84.75</ele></trkpt>
   <trkpt lon="2.042389" lat="48.703941"><ele>84.5</ele></trkpt>
   <trkpt lon="2.042330" lat="48.703951"><ele>84.25</ele></trkpt>
   <trkpt lon="2.042246" lat="48.703967"><ele>84.0</ele></trkpt>
   <trkpt lon="2.042110" lat="48.703982"><ele>84.25</ele></trkpt>
   <trkpt lon="2.041885" lat="48.703981"><ele>84.5</ele></trkpt>
   <trkpt lon="2.041774" lat="48.703982"><ele>84.75</ele></trkpt>
   <trkpt lon="2.041729" lat="48.703985"><ele>84.75</ele></trkpt>
   <trkpt lon="2.041590" lat="48.703996"><ele>85.0</ele></trkpt>
   <trkpt lon="2.041400" lat="48.704022"><ele>85.0</ele></trkpt>
   <trkpt lon="2.040456" lat="48.704166"><ele>85.0</ele></trkpt>
   <trkpt lon="2.040158" lat="48.704209"><ele>84.5</ele></trkpt>
   <trkpt lon="2.039557" lat="48.704341"><ele>83.0</ele></trkpt>
   <trkpt lon="2.039428" lat="48.704372"><ele>83.25</ele></trkpt>
   <trkpt lon="2.039353" lat="48.704390"><ele>83.0</ele></trkpt>
   <trkpt lon="2.039238" lat="48.704417"><ele>83.0</ele></trkpt>
   <trkpt lon="2.038896" lat="48.704492"><ele>82.25</ele></trkpt>
   <trkpt lon="2.038799" lat="48.704503"><ele>81.75</ele></trkpt>
   <trkpt lon="2.038276" lat="48.704533"><ele>81.25</ele></trkpt>
   <trkpt lon="2.038024" lat="48.704546"><ele>81.0</ele></trkpt>
   <trkpt lon="2.037841" lat="48.704556"><ele>80.5</ele></trkpt>
   <trkpt lon="2.037781" lat="48.704571"><ele>80.5</ele></trkpt>
   <trkpt lon="2.037740" lat="48.704583"><ele>80.5</ele></trkpt>
   <trkpt lon="2.037752" lat="48.704604"><ele>80.25</ele></trkpt>
   <trkpt lon="2.037742" lat="48.704646"><ele>80.25</ele></trkpt>
   <trkpt lon="2.037722" lat="48.704663"><ele>80.0</ele></trkpt>
   <trkpt lon="2.037694" lat="48.704675"><ele>80.0</ele></trkpt>
   <trkpt lon="2.037662" lat="48.704679"><ele>80.0</ele></trkpt>
   <trkpt lon="2.037664" lat="48.704708"><ele>80.0</ele></trkpt>
   <trkpt lon="2.037672" lat="48.704865"><ele>79.75</ele></trkpt>
   <trkpt lon="2.037671" lat="48.704971"><ele>79.5</ele></trkpt>
   <trkpt lon="2.037671" lat="48.705019"><ele>79.5</ele></trkpt>
   <trkpt lon="2.037670" lat="48.705045"><ele>79.5</ele></trkpt>
   <trkpt lon="2.037664" lat="48.705220"><ele>79.5</ele></trkpt>
   <trkpt lon="2.037662" lat="48.705424"><ele>79.25</ele></trkpt>
   <trkpt lon="2.037663" lat="48.705535"><ele>79.25</ele></trkpt>
   <trkpt lon="2.037675" lat="48.705721"><ele>79.25</ele></trkpt>
   <trkpt lon="2.037707" lat="48.705876"><ele>79.25</ele></trkpt>
   <trkpt lon="2.037791" lat="48.706071"><ele>79.75</ele></trkpt>
   <trkpt lon="2.037872" lat="48.706202"><ele>79.75</ele></trkpt>
   <trkpt lon="2.037848" lat="48.706274"><ele>79.75</ele></trkpt>
   <trkpt lon="2.037664" lat="48.706838"><ele>81.0</ele></trkpt>
   <trkpt lon="2.037603" lat="48.707025"><ele>81.25</ele></trkpt>
   <trkpt lon="2.037535" lat="48.707246"><ele>82.0</ele></trkpt>
   <trkpt lon="2.037483" lat="48.707322"><ele>82.0</ele></trkpt>
   <trkpt lon="2.037434" lat="48.707361"><ele>82.0</ele></trkpt>
   <trkpt lon="2.037320" lat="48.707322"><ele>82.0</ele></trkpt>
   <trkpt lon="2.037234" lat="48.707271"><ele>82.0</ele></trkpt>
   <trkpt lon="2.036702" lat="48.706852"><ele>81.5</ele></trkpt>
   <trkpt lon="2.036486" lat="48.706708"><ele>81.75</ele></trkpt>
   <trkpt lon="2.036357" lat="48.706644"><ele>82.0</ele></trkpt>
   <trkpt lon="2.036160" lat="48.706585"><ele>82.0</ele></trkpt>
   <trkpt lon="2.035867" lat="48.706522"><ele>82.75</ele></trkpt>
   <trkpt lon="2.035508" lat="48.706473"><ele>83.25</ele></trkpt>
   <trkpt lon="2.034186" lat="48.706353"><ele>86.75</ele></trkpt>
   <trkpt lon="2.034057" lat="48.706338"><ele>87.0</ele></trkpt>
   <trkpt lon="2.033955" lat="48.706319"><ele>87.5</ele></trkpt>
   <trkpt lon="2.033829" lat="48.706281"><ele>87.5</ele></trkpt>
   <trkpt lon="2.033418" lat="48.706141"><ele>88.0</ele></trkpt>
   <trkpt lon="2.032651" lat="48.705876"><ele>88.5</ele></trkpt>
   <trkpt lon="2.032431" lat="48.705801"><ele>89.0</ele></trkpt>
   <trkpt lon="2.032290" lat="48.705750"><ele>89.0</ele></trkpt>
   <trkpt lon="2.032209" lat="48.705721"><ele>89.0</ele></trkpt>
   <trkpt lon="2.031931" lat="48.705618"><ele>89.25</ele></trkpt>
   <trkpt lon="2.031740" lat="48.705541"><ele>89.5</ele></trkpt>
   <trkpt lon="2.031505" lat="48.705447"><ele>89.75</ele></trkpt>
   <trkpt lon="2.031426" lat="48.705414"><ele>89.75</ele></trkpt>
   <trkpt lon="2.031355" lat="48.705383"><ele>89.75</ele></trkpt>
   <trkpt lon="2.031204" lat="48.705320"><ele>89.75</ele></trkpt>
   <trkpt lon="2.030941" lat="48.705189"><ele>90.25</ele></trkpt>
   <trkpt lon="2.030874" lat="48.705155"><ele>90.25</ele></trkpt>
   <trkpt lon="2.030641" lat="48.705029"><ele>90.75</ele></trkpt>
   <trkpt lon="2.030023" lat="48.704698"><ele>92.75</ele></trkpt>
   <trkpt lon="2.029910" lat="48.704639"><ele>93.0</ele></trkpt>
   <trkpt lon="2.029785" lat="48.704574"><ele>93.0</ele></trkpt>
   <trkpt lon="2.029762" lat="48.704562"><ele>93.25</ele></trkpt>
   <trkpt lon="2.029738" lat="48.704551"><ele>93.25</ele></trkpt>
   <trkpt lon="2.029303" lat="48.704331"><ele>94.25</ele></trkpt>
   <trkpt lon="2.029102" lat="48.704227"><ele>94.25</ele></trkpt>
   <trkpt lon="2.028792" lat="48.704091"><ele>94.75</ele></trkpt>
   <trkpt lon="2.028521" lat="48.704020"><ele>95.0</ele></trkpt>
   <trkpt lon="2.028229" lat="48.703967"><ele>95.25</ele></trkpt>
   <trkpt lon="2.028087" lat="48.703945"><ele>95.0</ele></trkpt>
   <trkpt lon="2.027777" lat="48.703931"><ele>95.25</ele></trkpt>
   <trkpt lon="2.027446" lat="48.703945"><ele>95.5</ele></trkpt>
   <trkpt lon="2.026685" lat="48.704007"><ele>96.75</ele></trkpt>
   <trkpt lon="2.026125" lat="48.704046"><ele>98.5</ele></trkpt>
   <trkpt lon="2.025631" lat="48.704075"><ele>100.0</ele></trkpt>
   <trkpt lon="2.025146" lat="48.704065"><ele>101.5</ele></trkpt>
   <trkpt lon="2.023413" lat="48.703922"><ele>103.5</ele></trkpt>
   <trkpt lon="2.022810" lat="48.703907"><ele>104.25</ele></trkpt>
   <trkpt lon="2.019917" lat="48.703763"><ele>104.0</ele></trkpt>
   <trkpt lon="2.018516" lat="48.703707"><ele>99.25</ele></trkpt>
   <trkpt lon="2.017677" lat="48.703608"><ele>95.25</ele></trkpt>
   <trkpt lon="2.017196" lat="48.703500"><ele>94.0</ele></trkpt>
   <trkpt lon="2.017093" lat="48.703476"><ele>93.75</ele></trkpt>
   <trkpt lon="2.017009" lat="48.703464"><ele>93.5</ele></trkpt>
   <trkpt lon="2.016889" lat="48.703446"><ele>93.0</ele></trkpt>
   <trkpt lon="2.016666" lat="48.703432"><ele>92.5</ele></trkpt>
   <trkpt lon="2.016405" lat="48.703434"><ele>92.5</ele></trkpt>
   <trkpt lon="2.015599" lat="48.703467"><ele>92.25</ele></trkpt>
   <trkpt lon="2.014860" lat="48.703452"><ele>92.5</ele></trkpt>
   <trkpt lon="2.014446" lat="48.703457"><ele>92.75</ele></trkpt>
   <trkpt lon="2.014292" lat="48.703464"><ele>93.0</ele></trkpt>
   <trkpt lon="2.014227" lat="48.703471"><ele>93.25</ele></trkpt>
   <trkpt lon="2.014160" lat="48.703486"><ele>93.5</ele></trkpt>
   <trkpt lon="2.013999" lat="48.703528"><ele>94.0</ele></trkpt>
   <trkpt lon="2.013858" lat="48.703575"><ele>94.25</ele></trkpt>
   <trkpt lon="2.013492" lat="48.703737"><ele>95.75</ele></trkpt>
   <trkpt lon="2.013285" lat="48.703838"><ele>96.75</ele></trkpt>
   <trkpt lon="2.013017" lat="48.703898"><ele>97.0</ele></trkpt>
   <trkpt lon="2.012683" lat="48.703941"><ele>97.5</ele></trkpt>
   <trkpt lon="2.012559" lat="48.703948"><ele>97.25</ele></trkpt>
   <trkpt lon="2.012076" lat="48.703981"><ele>96.75</ele></trkpt>
   <trkpt lon="2.009418" lat="48.704116"><ele>99.75</ele></trkpt>
   <trkpt lon="2.009231" lat="48.704137"><ele>99.5</ele></trkpt>
   <trkpt lon="2.009058" lat="48.704165"><ele>99.5</ele></trkpt>
   <trkpt lon="2.008869" lat="48.704205"><ele>99.5</ele></trkpt>
   <trkpt lon="2.006847" lat="48.704607"><ele>100.75</ele></trkpt>
   <trkpt lon="2.003181" lat="48.705324"><ele>104.0</ele></trkpt>
   <trkpt lon="2.001882" lat="48.705569"><ele>102.5</ele></trkpt>
   <trkpt lon="2.000573" lat="48.705837"><ele>105.0</ele></trkpt>
   <trkpt lon="1.999871" lat="48.706020"><ele>103.75</ele></trkpt>
   <trkpt lon="1.996667" lat="48.706946"><ele>99.0</ele></trkpt>
   <trkpt lon="1.995843" lat="48.707184"><ele>96.75</ele></trkpt>
   <trkpt lon="1.995737" lat="48.707204"><ele>96.25</ele></trkpt>
   <trkpt lon="1.995668" lat="48.707209"><ele>95.75</ele></trkpt>
   <trkpt lon="1.994937" lat="48.707189"><ele>92.5</ele></trkpt>
   <trkpt lon="1.994859" lat="48.707187"><ele>92.25</ele></trkpt>
   <trkpt lon="1.992365" lat="48.707121"><ele>88.25</ele></trkpt>
   <trkpt lon="1.991781" lat="48.707106"><ele>88.75</ele></trkpt>
   <trkpt lon="1.991690" lat="48.707103"><ele>88.75</ele></trkpt>
   <trkpt lon="1.990849" lat="48.707079"><ele>90.75</ele></trkpt>
   <trkpt lon="1.990322" lat="48.707068"><ele>92.25</ele></trkpt>
   <trkpt lon="1.989744" lat="48.707056"><ele>94.75</ele></trkpt>
   <trkpt lon="1.989624" lat="48.707039"><ele>95.0</ele></trkpt>
   <trkpt lon="1.989303" lat="48.706948"><ele>96.0</ele></trkpt>
   <trkpt lon="1.989226" lat="48.706934"><ele>96.5</ele></trkpt>
   <trkpt lon="1.989118" lat="48.706919"><ele>96.75</ele></trkpt>
   <trkpt lon="1.989171" lat="48.706850"><ele>96.5</ele></trkpt>
   <trkpt lon="1.989242" lat="48.706759"><ele>95.75</ele></trkpt>
   <trkpt lon="1.988997" lat="48.706689"><ele>96.5</ele></trkpt>
   <trkpt lon="1.989060" lat="48.706545"><ele>95.75</ele></trkpt>
   <trkpt lon="1.989144" lat="48.706352"><ele>94.75</ele></trkpt>
   <trkpt lon="1.989005" lat="48.706332"><ele>95.25</ele></trkpt>
   <trkpt lon="1.988645" lat="48.706291"><ele>95.5</ele></trkpt>
   <trkpt lon="1.988619" lat="48.706284"><ele>95.5</ele></trkpt>
   <trkpt lon="1.988578" lat="48.706272"><ele>95.5</ele></trkpt>
   <trkpt lon="1.988061" lat="48.706001"><ele>94.5</ele></trkpt>
   <trkpt lon="1.987954" lat="48.705951"><ele>94.5</ele></trkpt>
   <trkpt lon="1.987651" lat="48.705787"><ele>93.5</ele></trkpt>
   <trkpt lon="1.987472" lat="48.705699"><ele>93.0</ele></trkpt>
   <trkpt lon="1.987165" lat="48.705515"><ele>92.75</ele></trkpt>
   <trkpt lon="1.986880" lat="48.705350"><ele>92.75</ele></trkpt>
   <trkpt lon="1.986689" lat="48.705219"><ele>92.75</ele></trkpt>
   <trkpt lon="1.986919" lat="48.705019"><ele>91.0</ele></trkpt>
   <trkpt lon="1.986658" lat="48.704856"><ele>93.0</ele></trkpt>
   <trkpt lon="1.987178" lat="48.704447"><ele>90.0</ele></trkpt>
   <trkpt lon="1.986897" lat="48.704322"><ele>91.0</ele></trkpt>
   <trkpt lon="1.986610" lat="48.704224"><ele>91.25</ele></trkpt>
   <trkpt lon="1.986260" lat="48.704092"><ele>91.25</ele></trkpt>
   <trkpt lon="1.986033" lat="48.703971"><ele>90.0</ele></trkpt>
   <trkpt lon="1.986260" lat="48.704092"><ele>91.25</ele></trkpt>
   <trkpt lon="1.986610" lat="48.704224"><ele>91.25</ele></trkpt>
   <trkpt lon="1.986897" lat="48.704322"><ele>91.0</ele></trkpt>
   <trkpt lon="1.987178" lat="48.704447"><ele>90.0</ele></trkpt>
   <trkpt lon="1.986658" lat="48.704856"><ele>93.0</ele></trkpt>
   <trkpt lon="1.986919" lat="48.705019"><ele>91.0</ele></trkpt>
   <trkpt lon="1.986689" lat="48.705219"><ele>92.75</ele></trkpt>
   <trkpt lon="1.986880" lat="48.705350"><ele>92.75</ele></trkpt>
   <trkpt lon="1.987165" lat="48.705515"><ele>92.75</ele></trkpt>
   <trkpt lon="1.987472" lat="48.705699"><ele>93.0</ele></trkpt>
   <trkpt lon="1.987651" lat="48.705787"><ele>93.5</ele></trkpt>
   <trkpt lon="1.987954" lat="48.705951"><ele>94.5</ele></trkpt>
   <trkpt lon="1.988061" lat="48.706001"><ele>94.5</ele></trkpt>
   <trkpt lon="1.988578" lat="48.706272"><ele>95.5</ele></trkpt>
   <trkpt lon="1.988619" lat="48.706284"><ele>95.5</ele></trkpt>
   <trkpt lon="1.988645" lat="48.706291"><ele>95.5</ele></trkpt>
   <trkpt lon="1.989005" lat="48.706332"><ele>95.25</ele></trkpt>
   <trkpt lon="1.989144" lat="48.706352"><ele>94.75</ele></trkpt>
   <trkpt lon="1.989060" lat="48.706545"><ele>95.75</ele></trkpt>
   <trkpt lon="1.988997" lat="48.706689"><ele>96.5</ele></trkpt>
   <trkpt lon="1.989242" lat="48.706759"><ele>95.75</ele></trkpt>
   <trkpt lon="1.989171" lat="48.706850"><ele>96.5</ele></trkpt>
   <trkpt lon="1.989118" lat="48.706919"><ele>96.75</ele></trkpt>
   <trkpt lon="1.989019" lat="48.706879"><ele>96.75</ele></trkpt>
   <trkpt lon="1.988986" lat="48.706858"><ele>96.75</ele></trkpt>
   <trkpt lon="1.988943" lat="48.706838"><ele>96.75</ele></trkpt>
   <trkpt lon="1.988836" lat="48.706799"><ele>97.0</ele></trkpt>
   <trkpt lon="1.988391" lat="48.706658"><ele>98.5</ele></trkpt>
   <trkpt lon="1.987988" lat="48.706495"><ele>98.75</ele></trkpt>
   <trkpt lon="1.987837" lat="48.706432"><ele>98.75</ele></trkpt>
   <trkpt lon="1.987724" lat="48.706388"><ele>98.75</ele></trkpt>
   <trkpt lon="1.987703" lat="48.706380"><ele>98.75</ele></trkpt>
   <trkpt lon="1.987521" lat="48.706290"><ele>98.25</ele></trkpt>
   <trkpt lon="1.987142" lat="48.706056"><ele>96.75</ele></trkpt>
   <trkpt lon="1.986964" lat="48.705946"><ele>96.5</ele></trkpt>
   <trkpt lon="1.986857" lat="48.705880"><ele>96.5</ele></trkpt>
   <trkpt lon="1.986762" lat="48.705822"><ele>96.5</ele></trkpt>
   <trkpt lon="1.986699" lat="48.705783"><ele>96.5</ele></trkpt>
   <trkpt lon="1.986583" lat="48.705711"><ele>96.5</ele></trkpt>
   <trkpt lon="1.986495" lat="48.705657"><ele>96.5</ele></trkpt>
   <trkpt lon="1.986355" lat="48.705557"><ele>97.25</ele></trkpt>
   <trkpt lon="1.986260" lat="48.705440"><ele>98.25</ele></trkpt>
   <trkpt lon="1.986194" lat="48.705334"><ele>99.0</ele></trkpt>
   <trkpt lon="1.986056" lat="48.705080"><ele>99.5</ele></trkpt>
   <trkpt lon="1.985956" lat="48.704957"><ele>99.25</ele></trkpt>
   <trkpt lon="1.985805" lat="48.704779"><ele>100.0</ele></trkpt>
   <trkpt lon="1.985765" lat="48.704729"><ele>100.0</ele></trkpt>
   <trkpt lon="1.985717" lat="48.704689"><ele>99.5</ele></trkpt>
   <trkpt lon="1.985635" lat="48.704637"><ele>99.0</ele></trkpt>
   <trkpt lon="1.985545" lat="48.704592"><ele>98.5</ele></trkpt>
   <trkpt lon="1.984981" lat="48.704346"><ele>96.25</ele></trkpt>
   <trkpt lon="1.984805" lat="48.704255"><ele>95.5</ele></trkpt>
   <trkpt lon="1.984683" lat="48.704181"><ele>95.0</ele></trkpt>
   <trkpt lon="1.984606" lat="48.704124"><ele>95.0</ele></trkpt>
   <trkpt lon="1.984517" lat="48.704036"><ele>94.75</ele></trkpt>
   <trkpt lon="1.984448" lat="48.703939"><ele>94.25</ele></trkpt>
   <trkpt lon="1.984128" lat="48.703525"><ele>94.0</ele></trkpt>
   <trkpt lon="1.984088" lat="48.703485"><ele>94.25</ele></trkpt>
   <trkpt lon="1.984041" lat="48.703440"><ele>94.25</ele></trkpt>
   <trkpt lon="1.983876" lat="48.703297"><ele>94.0</ele></trkpt>
   <trkpt lon="1.983713" lat="48.703183"><ele>95.0</ele></trkpt>
   <trkpt lon="1.983333" lat="48.702940"><ele>96.0</ele></trkpt>
   <trkpt lon="1.982902" lat="48.702682"><ele>96.5</ele></trkpt>
   <trkpt lon="1.982646" lat="48.702535"><ele>97.0</ele></trkpt>
   <trkpt lon="1.982618" lat="48.702516"><ele>97.0</ele></trkpt>
   <trkpt lon="1.982446" lat="48.702407"><ele>96.75</ele></trkpt>
   <trkpt lon="1.981970" lat="48.702129"><ele>96.75</ele></trkpt>
   <trkpt lon="1.981658" lat="48.701927"><ele>95.75</ele></trkpt>
   <trkpt lon="1.981534" lat="48.701833"><ele>95.75</ele></trkpt>
   <trkpt lon="1.981445" lat="48.701740"><ele>95.5</ele></trkpt>
   <trkpt lon="1.981337" lat="48.701612"><ele>94.75</ele></trkpt>
   <trkpt lon="1.980980" lat="48.701087"><ele>94.25</ele></trkpt>
   <trkpt lon="1.980930" lat="48.701008"><ele>94.25</ele></trkpt>
   <trkpt lon="1.980698" lat="48.700651"><ele>93.5</ele></trkpt>
   <trkpt lon="1.980129" lat="48.699792"><ele>98.25</ele></trkpt>
   <trkpt lon="1.979923" lat="48.699483"><ele>99.75</ele></trkpt>
   <trkpt lon="1.979811" lat="48.699318"><ele>100.25</ele></trkpt>
   <trkpt lon="1.979511" lat="48.698873"><ele>102.0</ele></trkpt>
   <trkpt lon="1.979460" lat="48.698797"><ele>102.25</ele></trkpt>
   <trkpt lon="1.979103" lat="48.698271"><ele>104.25</ele></trkpt>
   <trkpt lon="1.978885" lat="48.698026"><ele>105.0</ele></trkpt>
   <trkpt lon="1.978826" lat="48.697940"><ele>105.5</ele></trkpt>
   <trkpt lon="1.978798" lat="48.697892"><ele>105.5</ele></trkpt>
   <trkpt lon="1.978591" lat="48.697561"><ele>106.75</ele></trkpt>
   <trkpt lon="1.978410" lat="48.697287"><ele>107.5</ele></trkpt>
   <trkpt lon="1.978335" lat="48.697116"><ele>107.75</ele></trkpt>
   <trkpt lon="1.978197" lat="48.696916"><ele>108.5</ele></trkpt>
   <trkpt lon="1.977615" lat="48.696009"><ele>110.25</ele></trkpt>
   <trkpt lon="1.976717" lat="48.694669"><ele>108.5</ele></trkpt>
   <trkpt lon="1.976332" lat="48.694038"><ele>108.0</ele></trkpt>
   <trkpt lon="1.974692" lat="48.691194"><ele>109.0</ele></trkpt>
   <trkpt lon="1.974530" lat="48.690880"><ele>109.25</ele></trkpt>
   <trkpt lon="1.974466" lat="48.690699"><ele>109.75</ele></trkpt>
   <trkpt lon="1.974506" lat="48.690678"><ele>109.5</ele></trkpt>
   <trkpt lon="1.974765" lat="48.690539"><ele>108.75</ele></trkpt>
   <trkpt lon="1.975042" lat="48.690422"><ele>107.75</ele></trkpt>
   <trkpt lon="1.975335" lat="48.690322"><ele>106.75</ele></trkpt>
   <trkpt lon="1.976709" lat="48.689886"><ele>103.75</ele></trkpt>
   <trkpt lon="1.977587" lat="48.689558"><ele>100.5</ele></trkpt>
   <trkpt lon="1.977681" lat="48.689507"><ele>100.25</ele></trkpt>
   <trkpt lon="1.977716" lat="48.689488"><ele>100.0</ele></trkpt>
   <trkpt lon="1.978134" lat="48.689265"><ele>98.5</ele></trkpt>
   <trkpt lon="1.978950" lat="48.688722"><ele>96.0</ele></trkpt>
   <trkpt lon="1.979736" lat="48.688277"><ele>95.0</ele></trkpt>
   <trkpt lon="1.979965" lat="48.688159"><ele>95.75</ele></trkpt>
   <trkpt lon="1.980404" lat="48.687944"><ele>97.0</ele></trkpt>
   <trkpt lon="1.980754" lat="48.687767"><ele>98.5</ele></trkpt>
   <trkpt lon="1.980900" lat="48.687695"><ele>99.25</ele></trkpt>
   <trkpt lon="1.981090" lat="48.687567"><ele>100.75</ele></trkpt>
   <trkpt lon="1.981160" lat="48.687483"><ele>101.25</ele></trkpt>
   <trkpt lon="1.981200" lat="48.687380"><ele>101.75</ele></trkpt>
   <trkpt lon="1.981251" lat="48.687197"><ele>102.5</ele></trkpt>
   <trkpt lon="1.981287" lat="48.687029"><ele>102.5</ele></trkpt>
   <trkpt lon="1.981299" lat="48.686875"><ele>102.75</ele></trkpt>
   <trkpt lon="1.981302" lat="48.686542"><ele>104.0</ele></trkpt>
   <trkpt lon="1.981289" lat="48.686105"><ele>106.5</ele></trkpt>
   <trkpt lon="1.981289" lat="48.685899"><ele>108.0</ele></trkpt>
   <trkpt lon="1.981337" lat="48.685476"><ele>112.0</ele></trkpt>
   <trkpt lon="1.981349" lat="48.685073"><ele>114.25</ele></trkpt>
   <trkpt lon="1.981374" lat="48.684634"><ele>116.0</ele></trkpt>
   <trkpt lon="1.981551" lat="48.684232"><ele>118.75</ele></trkpt>
   <trkpt lon="1.981895" lat="48.683548"><ele>119.25</ele></trkpt>
   <trkpt lon="1.982200" lat="48.683010"><ele>125.0</ele></trkpt>
   <trkpt lon="1.982297" lat="48.682740"><ele>128.75</ele></trkpt>
   <trkpt lon="1.982450" lat="48.682439"><ele>130.0</ele></trkpt>
   <trkpt lon="1.982553" lat="48.682192"><ele>130.75</ele></trkpt>
   <trkpt lon="1.982574" lat="48.681964"><ele>130.25</ele></trkpt>
   <trkpt lon="1.982553" lat="48.681781"><ele>131.0</ele></trkpt>
   <trkpt lon="1.982367" lat="48.681393"><ele>135.0</ele></trkpt>
   <trkpt lon="1.982242" lat="48.681078"><ele>137.25</ele></trkpt>
   <trkpt lon="1.982242" lat="48.680936"><ele>137.25</ele></trkpt>
   <trkpt lon="1.982297" lat="48.680790"><ele>138.25</ele></trkpt>
   <trkpt lon="1.982629" lat="48.680429"><ele>141.75</ele></trkpt>
   <trkpt lon="1.983072" lat="48.680014"><ele>142.75</ele></trkpt>
   <trkpt lon="1.983757" lat="48.679548"><ele>147.5</ele></trkpt>
   <trkpt lon="1.985680" lat="48.678383"><ele>158.75</ele></trkpt>
   <trkpt lon="1.986039" lat="48.678096"><ele>162.0</ele></trkpt>
   <trkpt lon="1.986344" lat="48.677689"><ele>163.25</ele></trkpt>
   <trkpt lon="1.986952" lat="48.676820"><ele>170.75</ele></trkpt>
   <trkpt lon="1.987176" lat="48.676498"><ele>173.25</ele></trkpt>
   <trkpt lon="1.985478" lat="48.675748"><ele>176.25</ele></trkpt>
   <trkpt lon="1.984627" lat="48.675382"><ele>177.0</ele></trkpt>
   <trkpt lon="1.984079" lat="48.675178"><ele>177.0</ele></trkpt>
   <trkpt lon="1.983578" lat="48.675038"><ele>177.0</ele></trkpt>
   <trkpt lon="1.983081" lat="48.674920"><ele>176.5</ele></trkpt>
   <trkpt lon="1.982469" lat="48.674821"><ele>176.0</ele></trkpt>
   <trkpt lon="1.982284" lat="48.674795"><ele>176.0</ele></trkpt>
   <trkpt lon="1.981991" lat="48.674762"><ele>176.0</ele></trkpt>
   <trkpt lon="1.981557" lat="48.674737"><ele>175.75</ele></trkpt>
   <trkpt lon="1.980934" lat="48.674712"><ele>175.25</ele></trkpt>
   <trkpt lon="1.980795" lat="48.674704"><ele>175.0</ele></trkpt>
   <trkpt lon="1.980526" lat="48.674695"><ele>175.0</ele></trkpt>
   <trkpt lon="1.980336" lat="48.674703"><ele>175.0</ele></trkpt>
   <trkpt lon="1.979874" lat="48.674725"><ele>174.5</ele></trkpt>
   <trkpt lon="1.979545" lat="48.674743"><ele>174.0</ele></trkpt>
   <trkpt lon="1.979290" lat="48.674757"><ele>174.0</ele></trkpt>
   <trkpt lon="1.979005" lat="48.674769"><ele>174.0</ele></trkpt>
   <trkpt lon="1.978128" lat="48.674769"><ele>173.0</ele></trkpt>
   <trkpt lon="1.977822" lat="48.674744"><ele>173.0</ele></trkpt>
   <trkpt lon="1.977415" lat="48.674688"><ele>173.0</ele></trkpt>
   <trkpt lon="1.976732" lat="48.674568"><ele>172.5</ele></trkpt>
   <trkpt lon="1.976643" lat="48.674547"><ele>172.25</ele></trkpt>
   <trkpt lon="1.976233" lat="48.674403"><ele>172.0</ele></trkpt>
   <trkpt lon="1.975415" lat="48.674041"><ele>171.5</ele></trkpt>
   <trkpt lon="1.975391" lat="48.674031"><ele>171.5</ele></trkpt>
   <trkpt lon="1.974946" lat="48.673826"><ele>170.5</ele></trkpt>
   <trkpt lon="1.974431" lat="48.673579"><ele>168.75</ele></trkpt>
   <trkpt lon="1.974351" lat="48.673542"><ele>168.5</ele></trkpt>
   <trkpt lon="1.974213" lat="48.673539"><ele>168.5</ele></trkpt>
   <trkpt lon="1.974029" lat="48.673534"><ele>168.0</ele></trkpt>
   <trkpt lon="1.973716" lat="48.673529"><ele>167.5</ele></trkpt>
   <trkpt lon="1.973667" lat="48.673530"><ele>167.25</ele></trkpt>
   <trkpt lon="1.973617" lat="48.673482"><ele>167.0</ele></trkpt>
   <trkpt lon="1.973213" lat="48.673166"><ele>164.25</ele></trkpt>
   <trkpt lon="1.973077" lat="48.673002"><ele>163.75</ele></trkpt>
   <trkpt lon="1.972994" lat="48.672885"><ele>163.25</ele></trkpt>
   <trkpt lon="1.972981" lat="48.672835"><ele>163.0</ele></trkpt>
   <trkpt lon="1.972961" lat="48.672762"><ele>163.0</ele></trkpt>
   <trkpt lon="1.972897" lat="48.672528"><ele>163.25</ele></trkpt>
   <trkpt lon="1.972874" lat="48.672483"><ele>163.75</ele></trkpt>
   <trkpt lon="1.972779" lat="48.672288"><ele>163.75</ele></trkpt>
   <trkpt lon="1.972509" lat="48.671806"><ele>164.25</ele></trkpt>
   <trkpt lon="1.972482" lat="48.671757"><ele>164.5</ele></trkpt>
   <trkpt lon="1.972442" lat="48.671685"><ele>164.75</ele></trkpt>
   <trkpt lon="1.972402" lat="48.671621"><ele>165.0</ele></trkpt>
   <trkpt lon="1.972332" lat="48.671509"><ele>165.0</ele></trkpt>
   <trkpt lon="1.971987" lat="48.670955"><ele>166.5</ele></trkpt>
   <trkpt lon="1.971852" lat="48.670737"><ele>167.25</ele></trkpt>
   <trkpt lon="1.971517" lat="48.670218"><ele>169.25</ele></trkpt>
   <trkpt lon="1.970965" lat="48.669411"><ele>172.0</ele></trkpt>
   <trkpt lon="1.970581" lat="48.668892"><ele>173.75</ele></trkpt>
   <trkpt lon="1.970452" lat="48.668627"><ele>174.0</ele></trkpt>
   <trkpt lon="1.970330" lat="48.668288"><ele>175.0</ele></trkpt>
   <trkpt lon="1.970109" lat="48.667442"><ele>174.25</ele></trkpt>
   <trkpt lon="1.970067" lat="48.667230"><ele>174.0</ele></trkpt>
   <trkpt lon="1.970000" lat="48.667064"><ele>174.0</ele></trkpt>
   <trkpt lon="1.969908" lat="48.666926"><ele>174.0</ele></trkpt>
   <trkpt lon="1.969795" lat="48.666796"><ele>174.0</ele></trkpt>
   <trkpt lon="1.969676" lat="48.666696"><ele>174.0</ele></trkpt>
   <trkpt lon="1.969578" lat="48.666614"><ele>173.75</ele></trkpt>
   <trkpt lon="1.969369" lat="48.666404"><ele>174.0</ele></trkpt>
   <trkpt lon="1.968750" lat="48.665697"><ele>173.0</ele></trkpt>
   <trkpt lon="1.968014" lat="48.664788"><ele>173.0</ele></trkpt>
   <trkpt lon="1.966947" lat="48.663581"><ele>173.0</ele></trkpt>
   <trkpt lon="1.966149" lat="48.662579"><ele>171.0</ele></trkpt>
   <trkpt lon="1.966032" lat="48.662421"><ele>170.5</ele></trkpt>
   <trkpt lon="1.965948" lat="48.662247"><ele>170.0</ele></trkpt>
   <trkpt lon="1.965467" lat="48.660632"><ele>172.0</ele></trkpt>
   <trkpt lon="1.965342" lat="48.660162"><ele>172.25</ele></trkpt>
   <trkpt lon="1.965082" lat="48.658358"><ele>174.75</ele></trkpt>
   <trkpt lon="1.965036" lat="48.658126"><ele>175.0</ele></trkpt>
   <trkpt lon="1.964957" lat="48.657914"><ele>175.0</ele></trkpt>
   <trkpt lon="1.964668" lat="48.657375"><ele>175.0</ele></trkpt>
   <trkpt lon="1.964614" lat="48.657226"><ele>174.75</ele></trkpt>
   <trkpt lon="1.964607" lat="48.657165"><ele>175.0</ele></trkpt>
   <trkpt lon="1.964627" lat="48.656999"><ele>175.25</ele></trkpt>
   <trkpt lon="1.964957" lat="48.655704"><ele>174.5</ele></trkpt>
   <trkpt lon="1.965078" lat="48.655314"><ele>174.0</ele></trkpt>
   <trkpt lon="1.965103" lat="48.655060"><ele>174.0</ele></trkpt>
   <trkpt lon="1.965087" lat="48.654883"><ele>174.0</ele></trkpt>
   <trkpt lon="1.965049" lat="48.654745"><ele>174.0</ele></trkpt>
   <trkpt lon="1.964982" lat="48.654582"><ele>174.0</ele></trkpt>
   <trkpt lon="1.964369" lat="48.653531"><ele>172.0</ele></trkpt>
   <trkpt lon="1.964221" lat="48.653209"><ele>172.0</ele></trkpt>
   <trkpt lon="1.964208" lat="48.653137"><ele>172.0</ele></trkpt>
   <trkpt lon="1.964216" lat="48.652883"><ele>172.0</ele></trkpt>
   <trkpt lon="1.964331" lat="48.652547"><ele>172.75</ele></trkpt>
   <trkpt lon="1.964629" lat="48.652118"><ele>173.0</ele></trkpt>
   <trkpt lon="1.965464" lat="48.651018"><ele>174.0</ele></trkpt>
   <trkpt lon="1.965633" lat="48.650737"><ele>174.0</ele></trkpt>
   <trkpt lon="1.965730" lat="48.650523"><ele>174.0</ele></trkpt>
   <trkpt lon="1.965801" lat="48.650280"><ele>174.0</ele></trkpt>
   <trkpt lon="1.965976" lat="48.649392"><ele>174.0</ele></trkpt>
   <trkpt lon="1.966098" lat="48.648880"><ele>175.0</ele></trkpt>
   <trkpt lon="1.966248" lat="48.648441"><ele>175.0</ele></trkpt>
   <trkpt lon="1.966451" lat="48.647994"><ele>174.0</ele></trkpt>
   <trkpt lon="1.966686" lat="48.647404"><ele>173.5</ele></trkpt>
   <trkpt lon="1.966684" lat="48.646878"><ele>172.75</ele></trkpt>
   <trkpt lon="1.966706" lat="48.646782"><ele>172.25</ele></trkpt>
   <trkpt lon="1.966799" lat="48.646563"><ele>172.0</ele></trkpt>
   <trkpt lon="1.966940" lat="48.646346"><ele>172.0</ele></trkpt>
   <trkpt lon="1.967426" lat="48.645987"><ele>171.25</ele></trkpt>
   <trkpt lon="1.967482" lat="48.645917"><ele>171.0</ele></trkpt>
   <trkpt lon="1.967491" lat="48.645845"><ele>171.0</ele></trkpt>
   <trkpt lon="1.967461" lat="48.645785"><ele>171.25</ele></trkpt>
   <trkpt lon="1.967092" lat="48.645401"><ele>172.0</ele></trkpt>
   <trkpt lon="1.966843" lat="48.645078"><ele>172.75</ele></trkpt>
   <trkpt lon="1.966768" lat="48.644804"><ele>173.0</ele></trkpt>
   <trkpt lon="1.966755" lat="48.644424"><ele>173.0</ele></trkpt>
   <trkpt lon="1.966775" lat="48.643746"><ele>173.0</ele></trkpt>
   <trkpt lon="1.966637" lat="48.643296"><ele>173.0</ele></trkpt>
   <trkpt lon="1.966444" lat="48.642834"><ele>173.0</ele></trkpt>
   <trkpt lon="1.966434" lat="48.642804"><ele>173.0</ele></trkpt>
   <trkpt lon="1.966416" lat="48.642760"><ele>173.0</ele></trkpt>
   <trkpt lon="1.966386" lat="48.642673"><ele>173.0</ele></trkpt>
   <trkpt lon="1.966367" lat="48.642621"><ele>173.0</ele></trkpt>
   <trkpt lon="1.966270" lat="48.642510"><ele>173.0</ele></trkpt>
   <trkpt lon="1.966304" lat="48.642497"><ele>173.0</ele></trkpt>
   <trkpt lon="1.966411" lat="48.642456"><ele>173.0</ele></trkpt>
   <trkpt lon="1.966443" lat="48.642444"><ele>173.0</ele></trkpt>
   <trkpt lon="1.967079" lat="48.642203"><ele>173.0</ele></trkpt>
   <trkpt lon="1.967262" lat="48.642121"><ele>173.0</ele></trkpt>
   <trkpt lon="1.967512" lat="48.642008"><ele>173.0</ele></trkpt>
   <trkpt lon="1.968149" lat="48.641609"><ele>172.75</ele></trkpt>
   <trkpt lon="1.968468" lat="48.641433"><ele>172.0</ele></trkpt>
   <trkpt lon="1.968590" lat="48.641340"><ele>172.0</ele></trkpt>
   <trkpt lon="1.968673" lat="48.641182"><ele>172.0</ele></trkpt>
   <trkpt lon="1.968756" lat="48.640258"><ele>171.0</ele></trkpt>
   <trkpt lon="1.968874" lat="48.639960"><ele>171.0</ele></trkpt>
   <trkpt lon="1.969048" lat="48.639647"><ele>171.0</ele></trkpt>
   <trkpt lon="1.969346" lat="48.639119"><ele>170.5</ele></trkpt>
   <trkpt lon="1.969740" lat="48.638494"><ele>169.5</ele></trkpt>
   <trkpt lon="1.970293" lat="48.638157"><ele>169.0</ele></trkpt>
   <trkpt lon="1.972319" lat="48.637856"><ele>161.5</ele></trkpt>
   <trkpt lon="1.973208" lat="48.637690"><ele>154.75</ele></trkpt>
   <trkpt lon="1.974089" lat="48.637461"><ele>148.75</ele></trkpt>
   <trkpt lon="1.974473" lat="48.637345"><ele>146.75</ele></trkpt>
   <trkpt lon="1.974839" lat="48.637211"><ele>144.25</ele></trkpt>
   <trkpt lon="1.976070" lat="48.636708"><ele>137.25</ele></trkpt>
   <trkpt lon="1.976592" lat="48.636405"><ele>134.0</ele></trkpt>
   <trkpt lon="1.977087" lat="48.636011"><ele>130.75</ele></trkpt>
   <trkpt lon="1.977651" lat="48.635795"><ele>128.25</ele></trkpt>
   <trkpt lon="1.978272" lat="48.635518"><ele>125.75</ele></trkpt>
   <trkpt lon="1.978860" lat="48.635064"><ele>123.0</ele></trkpt>
   <trkpt lon="1.979639" lat="48.634393"><ele>120.75</ele></trkpt>
   <trkpt lon="1.979801" lat="48.634277"><ele>120.25</ele></trkpt>
   <trkpt lon="1.980071" lat="48.634185"><ele>120.0</ele></trkpt>
   <trkpt lon="1.981105" lat="48.633890"><ele>118.75</ele></trkpt>
   <trkpt lon="1.981543" lat="48.633709"><ele>119.75</ele></trkpt>
   <trkpt lon="1.982241" lat="48.633421"><ele>122.75</ele></trkpt>
   <trkpt lon="1.982886" lat="48.633060"><ele>122.0</ele></trkpt>
   <trkpt lon="1.983423" lat="48.633030"><ele>121.75</ele></trkpt>
   <trkpt lon="1.984521" lat="48.632970"><ele>120.75</ele></trkpt>
   <trkpt lon="1.984938" lat="48.632974"><ele>120.25</ele></trkpt>
   <trkpt lon="1.986383" lat="48.632988"><ele>117.5</ele></trkpt>
   <trkpt lon="1.987725" lat="48.632838"><ele>118.75</ele></trkpt>
   <trkpt lon="1.988011" lat="48.632806"><ele>119.0</ele></trkpt>
   <trkpt lon="1.990001" lat="48.632302"><ele>114.5</ele></trkpt>
   <trkpt lon="1.990496" lat="48.631582"><ele>113.25</ele></trkpt>
   <trkpt lon="1.990092" lat="48.630782"><ele>109.75</ele></trkpt>
   <trkpt lon="1.989899" lat="48.630469"><ele>109.0</ele></trkpt>
   <trkpt lon="1.989849" lat="48.630388"><ele>109.0</ele></trkpt>
   <trkpt lon="1.989594" lat="48.629973"><ele>109.0</ele></trkpt>
   <trkpt lon="1.989339" lat="48.629683"><ele>108.75</ele></trkpt>
   <trkpt lon="1.988625" lat="48.628954"><ele>108.75</ele></trkpt>
   <trkpt lon="1.988405" lat="48.628647"><ele>109.0</ele></trkpt>
   <trkpt lon="1.987660" lat="48.627763"><ele>111.0</ele></trkpt>
   <trkpt lon="1.987585" lat="48.627589"><ele>111.0</ele></trkpt>
   <trkpt lon="1.987614" lat="48.627419"><ele>111.0</ele></trkpt>
   <trkpt lon="1.988052" lat="48.626384"><ele>110.0</ele></trkpt>
   <trkpt lon="1.988228" lat="48.626079"><ele>109.75</ele></trkpt>
   <trkpt lon="1.989218" lat="48.624645"><ele>107.0</ele></trkpt>
   <trkpt lon="1.990066" lat="48.623587"><ele>104.75</ele></trkpt>
   <trkpt lon="1.990150" lat="48.623431"><ele>104.5</ele></trkpt>
   <trkpt lon="1.990355" lat="48.623329"><ele>104.0</ele></trkpt>
   <trkpt lon="1.990849" lat="48.622995"><ele>103.0</ele></trkpt>
   <trkpt lon="1.991090" lat="48.622760"><ele>102.75</ele></trkpt>
   <trkpt lon="1.991116" lat="48.622735"><ele>102.75</ele></trkpt>
   <trkpt lon="1.992202" lat="48.621775"><ele>103.0</ele></trkpt>
   <trkpt lon="1.992213" lat="48.621765"><ele>103.0</ele></trkpt>
   <trkpt lon="1.992370" lat="48.621846"><ele>103.0</ele></trkpt>
   <trkpt lon="1.992752" lat="48.621955"><ele>102.75</ele></trkpt>
   <trkpt lon="1.993047" lat="48.622027"><ele>102.5</ele></trkpt>
   <trkpt lon="1.993166" lat="48.622047"><ele>102.75</ele></trkpt>
   <trkpt lon="1.993343" lat="48.622078"><ele>103.0</ele></trkpt>
   <trkpt lon="1.994064" lat="48.622123"><ele>104.5</ele></trkpt>
   <trkpt lon="1.995006" lat="48.622143"><ele>106.5</ele></trkpt>
   <trkpt lon="1.995846" lat="48.622164"><ele>109.25</ele></trkpt>
   <trkpt lon="1.995971" lat="48.622216"><ele>109.75</ele></trkpt>
   <trkpt lon="1.996003" lat="48.622229"><ele>110.0</ele></trkpt>
   <trkpt lon="1.996217" lat="48.622319"><ele>111.25</ele></trkpt>
   <trkpt lon="1.996358" lat="48.622423"><ele>111.75</ele></trkpt>
   <trkpt lon="1.996149" lat="48.622744"><ele>109.0</ele></trkpt>
   <trkpt lon="1.996137" lat="48.622783"><ele>108.75</ele></trkpt>
   <trkpt lon="1.996145" lat="48.622823"><ele>108.5</ele></trkpt>
   <trkpt lon="1.996230" lat="48.622881"><ele>107.75</ele></trkpt>
   <trkpt lon="1.996555" lat="48.623064"><ele>108.0</ele></trkpt>
   <trkpt lon="1.996458" lat="48.623211"><ele>107.25</ele></trkpt>
   <trkpt lon="1.996422" lat="48.623283"><ele>107.0</ele></trkpt>
   <trkpt lon="1.996341" lat="48.623355"><ele>106.75</ele></trkpt>
   <trkpt lon="1.996286" lat="48.623385"><ele>106.75</ele></trkpt>
   <trkpt lon="1.996174" lat="48.623445"><ele>106.5</ele></trkpt>
   <trkpt lon="1.995950" lat="48.623541"><ele>106.5</ele></trkpt>
   <trkpt lon="1.995768" lat="48.623610"><ele>106.75</ele></trkpt>
   <trkpt lon="1.995572" lat="48.623708"><ele>107.0</ele></trkpt>
   <trkpt lon="1.995437" lat="48.623824"><ele>106.75</ele></trkpt>
   <trkpt lon="1.995416" lat="48.623856"><ele>106.75</ele></trkpt>
   <trkpt lon="1.995395" lat="48.623887"><ele>106.75</ele></trkpt>
   <trkpt lon="1.995338" lat="48.623973"><ele>107.25</ele></trkpt>
   <trkpt lon="1.995299" lat="48.624109"><ele>107.75</ele></trkpt>
   <trkpt lon="1.995291" lat="48.624230"><ele>108.25</ele></trkpt>
   <trkpt lon="1.995330" lat="48.624387"><ele>109.25</ele></trkpt>
   <trkpt lon="1.995374" lat="48.624479"><ele>109.75</ele></trkpt>
   <trkpt lon="1.995437" lat="48.624564"><ele>109.75</ele></trkpt>
   <trkpt lon="1.995543" lat="48.624647"><ele>109.75</ele></trkpt>
   <trkpt lon="1.995724" lat="48.624770"><ele>110.0</ele></trkpt>
   <trkpt lon="1.996482" lat="48.625411"><ele>112.75</ele></trkpt>
   <trkpt lon="1.996857" lat="48.625751"><ele>114.75</ele></trkpt>
   <trkpt lon="1.997057" lat="48.625954"><ele>116.0</ele></trkpt>
   <trkpt lon="1.997261" lat="48.626189"><ele>117.25</ele></trkpt>
   <trkpt lon="1.997613" lat="48.626751"><ele>119.75</ele></trkpt>
   <trkpt lon="1.998001" lat="48.627544"><ele>123.25</ele></trkpt>
   <trkpt lon="1.998030" lat="48.627648"><ele>123.5</ele></trkpt>
   <trkpt lon="1.998044" lat="48.627849"><ele>124.25</ele></trkpt>
   <trkpt lon="1.998044" lat="48.627918"><ele>124.5</ele></trkpt>
   <trkpt lon="1.998056" lat="48.628649"><ele>127.25</ele></trkpt>
   <trkpt lon="1.998030" lat="48.629102"><ele>129.5</ele></trkpt>
   <trkpt lon="1.997994" lat="48.629299"><ele>130.75</ele></trkpt>
   <trkpt lon="1.997924" lat="48.629533"><ele>132.5</ele></trkpt>
   <trkpt lon="1.997209" lat="48.631256"><ele>142.5</ele></trkpt>
   <trkpt lon="1.997102" lat="48.631578"><ele>143.25</ele></trkpt>
   <trkpt lon="1.997021" lat="48.631872"><ele>144.5</ele></trkpt>
   <trkpt lon="1.996970" lat="48.632120"><ele>145.5</ele></trkpt>
   <trkpt lon="1.996936" lat="48.632364"><ele>145.75</ele></trkpt>
   <trkpt lon="1.996865" lat="48.633451"><ele>149.5</ele></trkpt>
   <trkpt lon="1.996768" lat="48.634826"><ele>156.0</ele></trkpt>
   <trkpt lon="1.996739" lat="48.635287"><ele>159.5</ele></trkpt>
   <trkpt lon="1.996590" lat="48.635575"><ele>161.25</ele></trkpt>
   <trkpt lon="1.996472" lat="48.635755"><ele>162.5</ele></trkpt>
   <trkpt lon="1.996351" lat="48.635901"><ele>163.75</ele></trkpt>
   <trkpt lon="1.996185" lat="48.636057"><ele>164.5</ele></trkpt>
   <trkpt lon="1.995993" lat="48.636198"><ele>164.75</ele></trkpt>
   <trkpt lon="1.995783" lat="48.636332"><ele>165.0</ele></trkpt>
   <trkpt lon="1.995515" lat="48.636463"><ele>165.75</ele></trkpt>
   <trkpt lon="1.995209" lat="48.636573"><ele>166.25</ele></trkpt>
   <trkpt lon="1.994715" lat="48.636724"><ele>166.75</ele></trkpt>
   <trkpt lon="1.989573" lat="48.638243"><ele>172.75</ele></trkpt>
   <trkpt lon="1.989282" lat="48.638347"><ele>173.0</ele></trkpt>
   <trkpt lon="1.988965" lat="48.638489"><ele>173.0</ele></trkpt>
   <trkpt lon="1.988729" lat="48.638620"><ele>173.0</ele></trkpt>
   <trkpt lon="1.988479" lat="48.638795"><ele>173.75</ele></trkpt>
   <trkpt lon="1.988259" lat="48.638993"><ele>174.0</ele></trkpt>
   <trkpt lon="1.988070" lat="48.639212"><ele>174.0</ele></trkpt>
   <trkpt lon="1.987914" lat="48.639450"><ele>174.0</ele></trkpt>
   <trkpt lon="1.987470" lat="48.640426"><ele>175.0</ele></trkpt>
   <trkpt lon="1.987270" lat="48.640848"><ele>175.0</ele></trkpt>
   <trkpt lon="1.987176" lat="48.641007"><ele>175.0</ele></trkpt>
   <trkpt lon="1.986435" lat="48.641849"><ele>174.25</ele></trkpt>
   <trkpt lon="1.986301" lat="48.642044"><ele>174.5</ele></trkpt>
   <trkpt lon="1.986199" lat="48.642249"><ele>174.75</ele></trkpt>
   <trkpt lon="1.986136" lat="48.642436"><ele>174.25</ele></trkpt>
   <trkpt lon="1.986102" lat="48.642613"><ele>174.25</ele></trkpt>
   <trkpt lon="1.986093" lat="48.642795"><ele>174.75</ele></trkpt>
   <trkpt lon="1.986100" lat="48.642971"><ele>174.75</ele></trkpt>
   <trkpt lon="1.986150" lat="48.643219"><ele>174.25</ele></trkpt>
   <trkpt lon="1.987536" lat="48.646969"><ele>175.0</ele></trkpt>
   <trkpt lon="1.987635" lat="48.647272"><ele>175.0</ele></trkpt>
   <trkpt lon="1.987700" lat="48.647557"><ele>175.0</ele></trkpt>
   <trkpt lon="1.987739" lat="48.647856"><ele>174.75</ele></trkpt>
   <trkpt lon="1.988045" lat="48.654669"><ele>175.75</ele></trkpt>
   <trkpt lon="1.988064" lat="48.655132"><ele>176.0</ele></trkpt>
   <trkpt lon="1.988067" lat="48.655504"><ele>176.0</ele></trkpt>
   <trkpt lon="1.988049" lat="48.655736"><ele>175.75</ele></trkpt>
   <trkpt lon="1.987914" lat="48.656665"><ele>176.0</ele></trkpt>
   <trkpt lon="1.987770" lat="48.657728"><ele>175.75</ele></trkpt>
   <trkpt lon="1.987713" lat="48.658394"><ele>176.0</ele></trkpt>
   <trkpt lon="1.987505" lat="48.662482"><ele>177.0</ele></trkpt>
   <trkpt lon="1.987441" lat="48.663856"><ele>176.0</ele></trkpt>
   <trkpt lon="1.987472" lat="48.664236"><ele>175.75</ele></trkpt>
   <trkpt lon="1.987504" lat="48.664439"><ele>175.75</ele></trkpt>
   <trkpt lon="1.987566" lat="48.664662"><ele>175.75</ele></trkpt>
   <trkpt lon="1.988337" lat="48.666759"><ele>170.0</ele></trkpt>
   <trkpt lon="1.988413" lat="48.666986"><ele>170.0</ele></trkpt>
   <trkpt lon="1.988477" lat="48.667197"><ele>170.0</ele></trkpt>
   <trkpt lon="1.988528" lat="48.667466"><ele>169.5</ele></trkpt>
   <trkpt lon="1.988562" lat="48.667783"><ele>169.0</ele></trkpt>
   <trkpt lon="1.988567" lat="48.667975"><ele>169.0</ele></trkpt>
   <trkpt lon="1.988594" lat="48.668233"><ele>169.5</ele></trkpt>
   <trkpt lon="1.988634" lat="48.668560"><ele>170.0</ele></trkpt>
   <trkpt lon="1.988730" lat="48.668694"><ele>170.25</ele></trkpt>
   <trkpt lon="1.988790" lat="48.668711"><ele>170.25</ele></trkpt>
   <trkpt lon="1.988841" lat="48.668739"><ele>170.25</ele></trkpt>
   <trkpt lon="1.989039" lat="48.668738"><ele>170.75</ele></trkpt>
   <trkpt lon="1.989403" lat="48.668637"><ele>171.0</ele></trkpt>
   <trkpt lon="1.990378" lat="48.668374"><ele>171.25</ele></trkpt>
   <trkpt lon="1.992476" lat="48.667816"><ele>172.75</ele></trkpt>
   <trkpt lon="1.999835" lat="48.665831"><ele>173.75</ele></trkpt>
   <trkpt lon="1.999872" lat="48.665820"><ele>173.75</ele></trkpt>
   <trkpt lon="2.004251" lat="48.664637"><ele>173.5</ele></trkpt>
   <trkpt lon="2.004403" lat="48.664595"><ele>173.5</ele></trkpt>
   <trkpt lon="2.009707" lat="48.663154"><ele>174.25</ele></trkpt>
   <trkpt lon="2.010544" lat="48.662926"><ele>174.25</ele></trkpt>
   <trkpt lon="2.010577" lat="48.662974"><ele>174.5</ele></trkpt>
   <trkpt lon="2.010630" lat="48.663074"><ele>175.0</ele></trkpt>
   <trkpt lon="2.010677" lat="48.663478"><ele>175.5</ele></trkpt>
   <trkpt lon="2.010710" lat="48.663638"><ele>176.0</ele></trkpt>
   <trkpt lon="2.010801" lat="48.663842"><ele>176.0</ele></trkpt>
   <trkpt lon="2.010874" lat="48.663955"><ele>176.0</ele></trkpt>
   <trkpt lon="2.012130" lat="48.665674"><ele>177.25</ele></trkpt>
   <trkpt lon="2.012263" lat="48.665822"><ele>177.75</ele></trkpt>
   <trkpt lon="2.012421" lat="48.665966"><ele>177.0</ele></trkpt>
   <trkpt lon="2.012631" lat="48.666092"><ele>177.25</ele></trkpt>
   <trkpt lon="2.012856" lat="48.666182"><ele>177.5</ele></trkpt>
   <trkpt lon="2.013110" lat="48.666260"><ele>177.0</ele></trkpt>
   <trkpt lon="2.013427" lat="48.666319"><ele>177.0</ele></trkpt>
   <trkpt lon="2.013828" lat="48.666336"><ele>177.0</ele></trkpt>
   <trkpt lon="2.016794" lat="48.666426"><ele>176.25</ele></trkpt>
   <trkpt lon="2.018260" lat="48.666484"><ele>176.25</ele></trkpt>
   <trkpt lon="2.019048" lat="48.666564"><ele>176.25</ele></trkpt>
   <trkpt lon="2.019785" lat="48.666706"><ele>176.75</ele></trkpt>
   <trkpt lon="2.022011" lat="48.667253"><ele>176.0</ele></trkpt>
   <trkpt lon="2.022120" lat="48.667271"><ele>176.0</ele></trkpt>
   <trkpt lon="2.022113" lat="48.667292"><ele>176.0</ele></trkpt>
   <trkpt lon="2.022101" lat="48.667385"><ele>176.0</ele></trkpt>
   <trkpt lon="2.022322" lat="48.670336"><ele>175.0</ele></trkpt>
   <trkpt lon="2.022313" lat="48.670549"><ele>175.0</ele></trkpt>
   <trkpt lon="2.022062" lat="48.670651"><ele>174.5</ele></trkpt>
   <trkpt lon="2.021864" lat="48.670704"><ele>174.25</ele></trkpt>
   <trkpt lon="2.021169" lat="48.670857"><ele>174.0</ele></trkpt>
   <trkpt lon="2.020767" lat="48.671000"><ele>174.0</ele></trkpt>
   <trkpt lon="2.020494" lat="48.671136"><ele>173.75</ele></trkpt>
   <trkpt lon="2.020509" lat="48.671160"><ele>173.75</ele></trkpt>
   <trkpt lon="2.020710" lat="48.671470"><ele>173.0</ele></trkpt>
   <trkpt lon="2.021354" lat="48.672521"><ele>172.75</ele></trkpt>
   <trkpt lon="2.021602" lat="48.672976"><ele>172.0</ele></trkpt>
   <trkpt lon="2.021957" lat="48.673453"><ele>171.5</ele></trkpt>
   <trkpt lon="2.022549" lat="48.674056"><ele>170.25</ele></trkpt>
   <trkpt lon="2.023540" lat="48.674685"><ele>167.25</ele></trkpt>
   <trkpt lon="2.023990" lat="48.675279"><ele>166.5</ele></trkpt>
   <trkpt lon="2.024115" lat="48.675558"><ele>166.0</ele></trkpt>
   <trkpt lon="2.024093" lat="48.675781"><ele>166.25</ele></trkpt>
   <trkpt lon="2.023874" lat="48.676800"><ele>167.0</ele></trkpt>
   <trkpt lon="2.023781" lat="48.677162"><ele>167.75</ele></trkpt>
   <trkpt lon="2.023406" lat="48.678621"><ele>169.0</ele></trkpt>
   <trkpt lon="2.023398" lat="48.678652"><ele>169.0</ele></trkpt>
   <trkpt lon="2.023560" lat="48.678814"><ele>169.5</ele></trkpt>
   <trkpt lon="2.023583" lat="48.678903"><ele>169.75</ele></trkpt>
   <trkpt lon="2.023737" lat="48.679579"><ele>169.0</ele></trkpt>
   <trkpt lon="2.023735" lat="48.679693"><ele>169.0</ele></trkpt>
   <trkpt lon="2.023169" lat="48.679636"><ele>169.0</ele></trkpt>
   <trkpt lon="2.022605" lat="48.679583"><ele>169.0</ele></trkpt>
   <trkpt lon="2.022461" lat="48.679545"><ele>168.75</ele></trkpt>
   <trkpt lon="2.022253" lat="48.679563"><ele>168.5</ele></trkpt>
   <trkpt lon="2.021954" lat="48.679624"><ele>165.75</ele></trkpt>
   <trkpt lon="2.021757" lat="48.679534"><ele>164.25</ele></trkpt>
   <trkpt lon="2.021590" lat="48.679369"><ele>163.5</ele></trkpt>
   <trkpt lon="2.021390" lat="48.679304"><ele>161.5</ele></trkpt>
   <trkpt lon="2.021156" lat="48.678917"><ele>164.75</ele></trkpt>
   <trkpt lon="2.020811" lat="48.678767"><ele>166.0</ele></trkpt>
   <trkpt lon="2.020145" lat="48.678772"><ele>167.0</ele></trkpt>
   <trkpt lon="2.019199" lat="48.678989"><ele>169.0</ele></trkpt>
   <trkpt lon="2.018760" lat="48.679241"><ele>168.25</ele></trkpt>
   <trkpt lon="2.017954" lat="48.679376"><ele>167.75</ele></trkpt>
   <trkpt lon="2.018050" lat="48.679526"><ele>167.5</ele></trkpt>
   <trkpt lon="2.018116" lat="48.679594"><ele>167.25</ele></trkpt>
   <trkpt lon="2.018423" lat="48.679557"><ele>167.25</ele></trkpt>
   <trkpt lon="2.018786" lat="48.679536"><ele>165.5</ele></trkpt>
   <trkpt lon="2.018959" lat="48.679604"><ele>162.75</ele></trkpt>
   <trkpt lon="2.019041" lat="48.679816"><ele>157.0</ele></trkpt>
   <trkpt lon="2.018990" lat="48.679941"><ele>155.0</ele></trkpt>
   <trkpt lon="2.018525" lat="48.680481"><ele>151.25</ele></trkpt>
   <trkpt lon="2.018249" lat="48.680714"><ele>150.0</ele></trkpt>
   <trkpt lon="2.018142" lat="48.680886"><ele>148.25</ele></trkpt>
   <trkpt lon="2.018280" lat="48.680997"><ele>145.75</ele></trkpt>
   <trkpt lon="2.018361" lat="48.680963"><ele>145.0</ele></trkpt>
   <trkpt lon="2.018469" lat="48.680714"><ele>146.75</ele></trkpt>
   <trkpt lon="2.018556" lat="48.680677"><ele>146.25</ele></trkpt>
   <trkpt lon="2.018862" lat="48.680613"><ele>143.0</ele></trkpt>
   <trkpt lon="2.019230" lat="48.680572"><ele>139.0</ele></trkpt>
   <trkpt lon="2.019480" lat="48.680451"><ele>138.5</ele></trkpt>
   <trkpt lon="2.019675" lat="48.680461"><ele>137.0</ele></trkpt>
   <trkpt lon="2.019480" lat="48.680451"><ele>138.5</ele></trkpt>
   <trkpt lon="2.019230" lat="48.680572"><ele>139.0</ele></trkpt>
   <trkpt lon="2.018862" lat="48.680613"><ele>143.0</ele></trkpt>
   <trkpt lon="2.018556" lat="48.680677"><ele>146.25</ele></trkpt>
   <trkpt lon="2.018469" lat="48.680714"><ele>146.75</ele></trkpt>
   <trkpt lon="2.018361" lat="48.680963"><ele>145.0</ele></trkpt>
   <trkpt lon="2.018280" lat="48.680997"><ele>145.75</ele></trkpt>
   <trkpt lon="2.018142" lat="48.680886"><ele>148.25</ele></trkpt>
   <trkpt lon="2.018249" lat="48.680714"><ele>150.0</ele></trkpt>
   <trkpt lon="2.018525" lat="48.680481"><ele>151.25</ele></trkpt>
   <trkpt lon="2.018990" lat="48.679941"><ele>155.0</ele></trkpt>
   <trkpt lon="2.019041" lat="48.679816"><ele>157.0</ele></trkpt>
   <trkpt lon="2.018959" lat="48.679604"><ele>162.75</ele></trkpt>
   <trkpt lon="2.018786" lat="48.679536"><ele>165.5</ele></trkpt>
   <trkpt lon="2.018423" lat="48.679557"><ele>167.25</ele></trkpt>
   <trkpt lon="2.018116" lat="48.679594"><ele>167.25</ele></trkpt>
   <trkpt lon="2.018050" lat="48.679526"><ele>167.5</ele></trkpt>
   <trkpt lon="2.017954" lat="48.679376"><ele>167.75</ele></trkpt>
   <trkpt lon="2.018760" lat="48.679241"><ele>168.25</ele></trkpt>
   <trkpt lon="2.019199" lat="48.678989"><ele>169.0</ele></trkpt>
   <trkpt lon="2.020145" lat="48.678772"><ele>167.0</ele></trkpt>
   <trkpt lon="2.020811" lat="48.678767"><ele>166.0</ele></trkpt>
   <trkpt lon="2.021156" lat="48.678917"><ele>164.75</ele></trkpt>
   <trkpt lon="2.021390" lat="48.679304"><ele>161.5</ele></trkpt>
   <trkpt lon="2.021590" lat="48.679369"><ele>163.5</ele></trkpt>
   <trkpt lon="2.021757" lat="48.679534"><ele>164.25</ele></trkpt>
   <trkpt lon="2.021954" lat="48.679624"><ele>165.75</ele></trkpt>
   <trkpt lon="2.022253" lat="48.679563"><ele>168.5</ele></trkpt>
   <trkpt lon="2.022461" lat="48.679545"><ele>168.75</ele></trkpt>
   <trkpt lon="2.022605" lat="48.679583"><ele>169.0</ele></trkpt>
   <trkpt lon="2.023169" lat="48.679636"><ele>169.0</ele></trkpt>
   <trkpt lon="2.023735" lat="48.679693"><ele>169.0</ele></trkpt>
   <trkpt lon="2.023737" lat="48.679579"><ele>169.0</ele></trkpt>
   <trkpt lon="2.023583" lat="48.678903"><ele>169.75</ele></trkpt>
   <trkpt lon="2.023560" lat="48.678814"><ele>169.5</ele></trkpt>
   <trkpt lon="2.023398" lat="48.678652"><ele>169.0</ele></trkpt>
   <trkpt lon="2.023406" lat="48.678621"><ele>169.0</ele></trkpt>
   <trkpt lon="2.023781" lat="48.677162"><ele>167.75</ele></trkpt>
   <trkpt lon="2.023874" lat="48.676800"><ele>167.0</ele></trkpt>
   <trkpt lon="2.024093" lat="48.675781"><ele>166.25</ele></trkpt>
   <trkpt lon="2.024115" lat="48.675558"><ele>166.0</ele></trkpt>
   <trkpt lon="2.023990" lat="48.675279"><ele>166.5</ele></trkpt>
   <trkpt lon="2.023540" lat="48.674685"><ele>167.25</ele></trkpt>
   <trkpt lon="2.022549" lat="48.674056"><ele>170.25</ele></trkpt>
   <trkpt lon="2.021957" lat="48.673453"><ele>171.5</ele></trkpt>
   <trkpt lon="2.021602" lat="48.672976"><ele>172.0</ele></trkpt>
   <trkpt lon="2.021354" lat="48.672521"><ele>172.75</ele></trkpt>
   <trkpt lon="2.020710" lat="48.671470"><ele>173.0</ele></trkpt>
   <trkpt lon="2.020509" lat="48.671160"><ele>173.75</ele></trkpt>
   <trkpt lon="2.020494" lat="48.671136"><ele>173.75</ele></trkpt>
   <trkpt lon="2.020767" lat="48.671000"><ele>174.0</ele></trkpt>
   <trkpt lon="2.021169" lat="48.670857"><ele>174.0</ele></trkpt>
   <trkpt lon="2.021864" lat="48.670704"><ele>174.25</ele></trkpt>
   <trkpt lon="2.022062" lat="48.670651"><ele>174.5</ele></trkpt>
   <trkpt lon="2.022313" lat="48.670549"><ele>175.0</ele></trkpt>
   <trkpt lon="2.022631" lat="48.670484"><ele>175.0</ele></trkpt>
   <trkpt lon="2.023167" lat="48.670351"><ele>175.0</ele></trkpt>
   <trkpt lon="2.023497" lat="48.670310"><ele>174.75</ele></trkpt>
   <trkpt lon="2.024034" lat="48.670296"><ele>175.0</ele></trkpt>
   <trkpt lon="2.024406" lat="48.670351"><ele>175.0</ele></trkpt>
   <trkpt lon="2.024885" lat="48.670552"><ele>175.0</ele></trkpt>
   <trkpt lon="2.025130" lat="48.670741"><ele>174.5</ele></trkpt>
   <trkpt lon="2.025638" lat="48.671305"><ele>174.0</ele></trkpt>
   <trkpt lon="2.026289" lat="48.672240"><ele>174.0</ele></trkpt>
   <trkpt lon="2.026486" lat="48.672595"><ele>174.0</ele></trkpt>
   <trkpt lon="2.026868" lat="48.673447"><ele>173.0</ele></trkpt>
   <trkpt lon="2.027436" lat="48.674370"><ele>172.0</ele></trkpt>
   <trkpt lon="2.027657" lat="48.674619"><ele>172.0</ele></trkpt>
   <trkpt lon="2.027994" lat="48.674887"><ele>171.0</ele></trkpt>
   <trkpt lon="2.028314" lat="48.675073"><ele>170.5</ele></trkpt>
   <trkpt lon="2.028756" lat="48.675206"><ele>170.5</ele></trkpt>
   <trkpt lon="2.029288" lat="48.675271"><ele>171.25</ele></trkpt>
   <trkpt lon="2.029423" lat="48.675394"><ele>172.25</ele></trkpt>
   <trkpt lon="2.029455" lat="48.675585"><ele>172.75</ele></trkpt>
   <trkpt lon="2.029199" lat="48.676447"><ele>171.0</ele></trkpt>
   <trkpt lon="2.029088" lat="48.676821"><ele>170.25</ele></trkpt>
   <trkpt lon="2.028905" lat="48.677324"><ele>170.0</ele></trkpt>
   <trkpt lon="2.028881" lat="48.677600"><ele>169.75</ele></trkpt>
   <trkpt lon="2.028947" lat="48.677754"><ele>170.0</ele></trkpt>
   <trkpt lon="2.029072" lat="48.677918"><ele>169.5</ele></trkpt>
   <trkpt lon="2.029388" lat="48.678405"><ele>168.0</ele></trkpt>
   <trkpt lon="2.029481" lat="48.678579"><ele>167.75</ele></trkpt>
   <trkpt lon="2.029457" lat="48.678760"><ele>167.25</ele></trkpt>
   <trkpt lon="2.029055" lat="48.679584"><ele>162.75</ele></trkpt>
   <trkpt lon="2.029089" lat="48.679631"><ele>162.5</ele></trkpt>
   <trkpt lon="2.029217" lat="48.679672"><ele>162.25</ele></trkpt>
   <trkpt lon="2.029366" lat="48.679858"><ele>161.5</ele></trkpt>
   <trkpt lon="2.029443" lat="48.680071"><ele>161.75</ele></trkpt>
   <trkpt lon="2.029519" lat="48.680182"><ele>162.5</ele></trkpt>
   <trkpt lon="2.029671" lat="48.680310"><ele>163.5</ele></trkpt>
   <trkpt lon="2.029789" lat="48.680398"><ele>164.75</ele></trkpt>
   <trkpt lon="2.029917" lat="48.680460"><ele>165.5</ele></trkpt>
   <trkpt lon="2.030178" lat="48.680412"><ele>166.5</ele></trkpt>
   <trkpt lon="2.030773" lat="48.680346"><ele>167.0</ele></trkpt>
   <trkpt lon="2.031180" lat="48.680287"><ele>167.75</ele></trkpt>
   <trkpt lon="2.031336" lat="48.680264"><ele>167.75</ele></trkpt>
   <trkpt lon="2.032099" lat="48.680160"><ele>168.25</ele></trkpt>
   <trkpt lon="2.032845" lat="48.680058"><ele>168.75</ele></trkpt>
   <trkpt lon="2.033634" lat="48.679987"><ele>169.0</ele></trkpt>
   <trkpt lon="2.033893" lat="48.679974"><ele>169.0</ele></trkpt>
   <trkpt lon="2.034124" lat="48.679976"><ele>169.0</ele></trkpt>
   <trkpt lon="2.034584" lat="48.680003"><ele>170.0</ele></trkpt>
   <trkpt lon="2.036564" lat="48.680139"><ele>171.5</ele></trkpt>
   <trkpt lon="2.037394" lat="48.680193"><ele>172.0</ele></trkpt>
   <trkpt lon="2.037652" lat="48.680204"><ele>172.0</ele></trkpt>
   <trkpt lon="2.042183" lat="48.680108"><ele>172.25</ele></trkpt>
   <trkpt lon="2.042392" lat="48.680095"><ele>172.25</ele></trkpt>
   <trkpt lon="2.042600" lat="48.680071"><ele>172.5</ele></trkpt>
   <trkpt lon="2.042934" lat="48.680008"><ele>173.0</ele></trkpt>
   <trkpt lon="2.044661" lat="48.679614"><ele>172.5</ele></trkpt>
   <trkpt lon="2.045801" lat="48.679339"><ele>172.5</ele></trkpt>
   <trkpt lon="2.045903" lat="48.679315"><ele>172.5</ele></trkpt>
   <trkpt lon="2.046062" lat="48.679277"><ele>172.25</ele></trkpt>
   <trkpt lon="2.047105" lat="48.679036"><ele>172.0</ele></trkpt>
   <trkpt lon="2.047836" lat="48.678878"><ele>171.75</ele></trkpt>
   <trkpt lon="2.048613" lat="48.678697"><ele>171.25</ele></trkpt>
   <trkpt lon="2.049898" lat="48.678423"><ele>169.5</ele></trkpt>
   <trkpt lon="2.050079" lat="48.678385"><ele>169.0</ele></trkpt>
   <trkpt lon="2.050193" lat="48.678368"><ele>169.0</ele></trkpt>
   <trkpt lon="2.050311" lat="48.678379"><ele>169.0</ele></trkpt>
   <trkpt lon="2.050570" lat="48.678605"><ele>169.0</ele></trkpt>
   <trkpt lon="2.051064" lat="48.679020"><ele>169.0</ele></trkpt>
   <trkpt lon="2.051119" lat="48.679072"><ele>168.75</ele></trkpt>
   <trkpt lon="2.051232" lat="48.679201"><ele>168.5</ele></trkpt>
   <trkpt lon="2.051346" lat="48.679516"><ele>168.0</ele></trkpt>
   <trkpt lon="2.051459" lat="48.679898"><ele>168.0</ele></trkpt>
   <trkpt lon="2.051531" lat="48.680072"><ele>168.0</ele></trkpt>
   <trkpt lon="2.051560" lat="48.680142"><ele>168.0</ele></trkpt>
   <trkpt lon="2.052395" lat="48.679900"><ele>165.75</ele></trkpt>
   <trkpt lon="2.052506" lat="48.679885"><ele>165.5</ele></trkpt>
   <trkpt lon="2.052652" lat="48.679894"><ele>165.0</ele></trkpt>
   <trkpt lon="2.052835" lat="48.679994"><ele>164.25</ele></trkpt>
   <trkpt lon="2.053016" lat="48.680147"><ele>163.25</ele></trkpt>
   <trkpt lon="2.053117" lat="48.680256"><ele>163.0</ele></trkpt>
   <trkpt lon="2.053975" lat="48.681160"><ele>158.75</ele></trkpt>
   <trkpt lon="2.054383" lat="48.681570"><ele>157.25</ele></trkpt>
   <trkpt lon="2.054633" lat="48.681780"><ele>156.75</ele></trkpt>
   <trkpt lon="2.055391" lat="48.682297"><ele>153.0</ele></trkpt>
   <trkpt lon="2.055804" lat="48.682469"><ele>149.75</ele></trkpt>
   <trkpt lon="2.056027" lat="48.682557"><ele>148.5</ele></trkpt>
   <trkpt lon="2.056467" lat="48.682716"><ele>146.75</ele></trkpt>
   <trkpt lon="2.059163" lat="48.683566"><ele>138.5</ele></trkpt>
   <trkpt lon="2.059552" lat="48.683681"><ele>137.0</ele></trkpt>
   <trkpt lon="2.059975" lat="48.683819"><ele>133.75</ele></trkpt>
   <trkpt lon="2.060188" lat="48.683901"><ele>133.25</ele></trkpt>
   <trkpt lon="2.060340" lat="48.683933"><ele>132.75</ele></trkpt>
   <trkpt lon="2.060538" lat="48.683931"><ele>131.0</ele></trkpt>
   <trkpt lon="2.060683" lat="48.683899"><ele>128.25</ele></trkpt>
   <trkpt lon="2.060768" lat="48.683893"><ele>127.0</ele></trkpt>
   <trkpt lon="2.060857" lat="48.683907"><ele>126.0</ele></trkpt>
   <trkpt lon="2.061040" lat="48.684015"><ele>125.5</ele></trkpt>
   <trkpt lon="2.061513" lat="48.684386"><ele>125.25</ele></trkpt>
   <trkpt lon="2.061794" lat="48.684587"><ele>125.0</ele></trkpt>
   <trkpt lon="2.062006" lat="48.684688"><ele>124.5</ele></trkpt>
   <trkpt lon="2.062471" lat="48.684766"><ele>121.25</ele></trkpt>
   <trkpt lon="2.062737" lat="48.684844"><ele>120.5</ele></trkpt>
   <trkpt lon="2.062959" lat="48.684963"><ele>119.0</ele></trkpt>
   <trkpt lon="2.063252" lat="48.685281"><ele>118.0</ele></trkpt>
   <trkpt lon="2.063555" lat="48.685511"><ele>115.25</ele></trkpt>
   <trkpt lon="2.063828" lat="48.685941"><ele>111.75</ele></trkpt>
   <trkpt lon="2.064007" lat="48.686278"><ele>109.75</ele></trkpt>
   <trkpt lon="2.064121" lat="48.686622"><ele>106.75</ele></trkpt>
   <trkpt lon="2.064139" lat="48.686867"><ele>104.5</ele></trkpt>
   <trkpt lon="2.064136" lat="48.687044"><ele>103.0</ele></trkpt>
   <trkpt lon="2.064107" lat="48.687460"><ele>100.0</ele></trkpt>
   <trkpt lon="2.064166" lat="48.687877"><ele>98.5</ele></trkpt>
   <trkpt lon="2.064222" lat="48.687979"><ele>98.0</ele></trkpt>
   <trkpt lon="2.064369" lat="48.688206"><ele>98.75</ele></trkpt>
   <trkpt lon="2.064554" lat="48.688471"><ele>102.0</ele></trkpt>
   <trkpt lon="2.064482" lat="48.688576"><ele>102.25</ele></trkpt>
   <trkpt lon="2.064292" lat="48.688867"><ele>103.5</ele></trkpt>
   <trkpt lon="2.064244" lat="48.688967"><ele>103.5</ele></trkpt>
   <trkpt lon="2.064205" lat="48.689074"><ele>103.75</ele></trkpt>
   <trkpt lon="2.064188" lat="48.689148"><ele>104.0</ele></trkpt>
   <trkpt lon="2.064168" lat="48.689342"><ele>104.5</ele></trkpt>
   <trkpt lon="2.064161" lat="48.689471"><ele>104.75</ele></trkpt>
   <trkpt lon="2.064166" lat="48.689523"><ele>104.5</ele></trkpt>
   <trkpt lon="2.064277" lat="48.689713"><ele>105.5</ele></trkpt>
   <trkpt lon="2.064468" lat="48.689864"><ele>107.25</ele></trkpt>
   <trkpt lon="2.065579" lat="48.690473"><ele>111.25</ele></trkpt>
   <trkpt lon="2.065942" lat="48.690736"><ele>112.25</ele></trkpt>
   <trkpt lon="2.066805" lat="48.691443"><ele>115.5</ele></trkpt>
   <trkpt lon="2.067298" lat="48.691827"><ele>118.25</ele></trkpt>
   <trkpt lon="2.067482" lat="48.692014"><ele>118.0</ele></trkpt>
   <trkpt lon="2.067549" lat="48.692103"><ele>118.25</ele></trkpt>
   <trkpt lon="2.067569" lat="48.692190"><ele>118.0</ele></trkpt>
   <trkpt lon="2.067585" lat="48.692467"><ele>118.0</ele></trkpt>
   <trkpt lon="2.067543" lat="48.692716"><ele>117.0</ele></trkpt>
   <trkpt lon="2.067576" lat="48.693227"><ele>116.75</ele></trkpt>
   <trkpt lon="2.067474" lat="48.693492"><ele>115.0</ele></trkpt>
   <trkpt lon="2.067139" lat="48.693954"><ele>110.5</ele></trkpt>
   <trkpt lon="2.067079" lat="48.694083"><ele>109.5</ele></trkpt>
   <trkpt lon="2.067054" lat="48.694320"><ele>108.25</ele></trkpt>
   <trkpt lon="2.067035" lat="48.694434"><ele>107.5</ele></trkpt>
   <trkpt lon="2.067053" lat="48.694631"><ele>106.75</ele></trkpt>
   <trkpt lon="2.067317" lat="48.695382"><ele>102.25</ele></trkpt>
   <trkpt lon="2.067345" lat="48.695595"><ele>99.5</ele></trkpt>
   <trkpt lon="2.067310" lat="48.695757"><ele>98.0</ele></trkpt>
   <trkpt lon="2.066924" lat="48.696294"><ele>95.75</ele></trkpt>
   <trkpt lon="2.066828" lat="48.696457"><ele>95.25</ele></trkpt>
   <trkpt lon="2.066761" lat="48.696632"><ele>94.75</ele></trkpt>
   <trkpt lon="2.066746" lat="48.696764"><ele>95.0</ele></trkpt>
   <trkpt lon="2.066744" lat="48.696777"><ele>95.0</ele></trkpt>
   <trkpt lon="2.066739" lat="48.696816"><ele>95.0</ele></trkpt>
   <trkpt lon="2.066766" lat="48.696915"><ele>95.5</ele></trkpt>
   <trkpt lon="2.066803" lat="48.696989"><ele>95.75</ele></trkpt>
   <trkpt lon="2.066828" lat="48.697039"><ele>96.0</ele></trkpt>
   <trkpt lon="2.066967" lat="48.697297"><ele>97.0</ele></trkpt>
   <trkpt lon="2.067107" lat="48.697522"><ele>98.0</ele></trkpt>
   <trkpt lon="2.067396" lat="48.697888"><ele>98.75</ele></trkpt>
   <trkpt lon="2.067962" lat="48.698506"><ele>99.25</ele></trkpt>
   <trkpt lon="2.067998" lat="48.698545"><ele>99.0</ele></trkpt>
   <trkpt lon="2.068115" lat="48.698667"><ele>98.25</ele></trkpt>
   <trkpt lon="2.068644" lat="48.699236"><ele>97.5</ele></trkpt>
   <trkpt lon="2.068726" lat="48.699388"><ele>97.0</ele></trkpt>
   <trkpt lon="2.068774" lat="48.699534"><ele>96.25</ele></trkpt>
   <trkpt lon="2.068781" lat="48.699704"><ele>94.75</ele></trkpt>
   <trkpt lon="2.068746" lat="48.700123"><ele>91.75</ele></trkpt>
   <trkpt lon="2.068763" lat="48.700326"><ele>90.0</ele></trkpt>
   <trkpt lon="2.068827" lat="48.700490"><ele>89.0</ele></trkpt>
   <trkpt lon="2.068990" lat="48.700787"><ele>88.0</ele></trkpt>
   <trkpt lon="2.069114" lat="48.700999"><ele>87.25</ele></trkpt>
   <trkpt lon="2.069446" lat="48.701543"><ele>86.25</ele></trkpt>
   <trkpt lon="2.069552" lat="48.701745"><ele>85.75</ele></trkpt>
   <trkpt lon="2.069589" lat="48.701891"><ele>85.25</ele></trkpt>
   <trkpt lon="2.069615" lat="48.701994"><ele>84.5</ele></trkpt>
   <trkpt lon="2.069613" lat="48.702135"><ele>83.5</ele></trkpt>
   <trkpt lon="2.069746" lat="48.702145"><ele>83.5</ele></trkpt>
   <trkpt lon="2.071037" lat="48.702239"><ele>87.25</ele></trkpt>
   <trkpt lon="2.071636" lat="48.702294"><ele>83.5</ele></trkpt>
  </trkseg>
 </trk>
</gpx>
